Program,county,lead_agency,partner_name,location_name,street_address,city,zip_code
PA Pre-K Counts,Beaver,ALIQUIPPA SCHOOL DISTRICT,,ALIQUIPPA ELEMENTARY SCHOOL,800 21ST ST,ALIQUIPPA,15001
PA Pre-K Counts,Beaver,RHYMING THYME INC,,RHYMING THYME INC,612 AND 614 MARATTA RD,ALIQUIPPA,15001
PA Pre-K Counts,Beaver,AMBRIDGE AREA SCHOOL DISTRICT,,HIGHLAND ELEMENTARY,1101 HIGHLAND AVE,AMBRIDGE,15003
PA Pre-K Counts,Beaver,AMBRIDGE AREA SCHOOL DISTRICT,,STATE STREET ELEMENTARY SCHOOL,600 HARMONY RD,BADEN,15005
PA Pre-K Counts,Beaver,Lifesteps Inc,,LIFESTEPS/DUTCH RIDGE ELEMENTARY SCHOOL,2220 Dutch Ridge Rd,Beaver,15009
PA Pre-K Counts,Beaver,Lifesteps Inc,,LIFESTEPS,138 Friendship Cir,Beaver  ,15009
PA Pre-K Counts,Beaver,BIG BEAVER FALLS AREA SCHOOL,,CENTRAL ELEMENTARY SCHOOL,805 15TH ST,BEAVER FALLS,15010
PA Pre-K Counts,Beaver,CHIPPEWA NOAHS ARK,,CHIPPEWA NOAHS ARK,616 17TH ST,BEAVER FALLS,15010
PA Pre-K Counts,Westmoreland,WESTMORELAND HUMAN OPPORTUNITIES INC,,BELLE VERNON,250 CREST AVE,ROSTRAVER TOWNSH,15012
PA Pre-K Counts,Allegheny,HIGHLANDS SCHOOL DISTRICT,,HIGHLANDS EARLY CHILDHOOD CENTER,1060 ATLANTIC AVE,BRACKENRIDGE,15014
PA Pre-K Counts,Washington,BLUEPRINTS,,BURGETTSTOWN ELEMENTARY,100 BAVINGTON RD,BURGETTSTOWN,15021
PA Pre-K Counts,Washington,BLUEPRINTS,,CHARLEROI ELEMENTARY SCHOOL,75 FECSEN DR,CHARLEROI,15022
PA Pre-K Counts,Allegheny,ALLEGHENY VALLEY SCHOOL DISTRICT,,ACMETONIA ELEMENTARY SCHOOL,300 PEARL AVE,CHESWICK,15024
PA Pre-K Counts,Beaver,AMBRIDGE AREA SCHOOL DISTRICT,,ECONOMY ELEMENTARY SCHOOL,1000 1ST ST,FREEDOM,15042
PA Pre-K Counts,Allegheny,KIDS KADEMY II LLC,EARLY EDGE PRESCHOOL,EARLY EDGE PRESCHOOL,4004 GIBSONIA RD,GIBSONIA,15044
PA Pre-K Counts,Allegheny,ALLEGHENY INTERMEDIATE UNIT,,SOUTH ALLEGHENY GLASSPORT,509 7TH ST,GLASSPORT,15045
PA Pre-K Counts,Washington,BLUEPRINTS,,FORT CHERRY ELEMENTARY SCHOOL,110 FORT CHERRY RD,MC DONALD,15057
PA Pre-K Counts,Beaver,WESTERN BEAVER COUNTY S D,,FAIRVIEW ELEMENTARY,343 RIDGEMONT DR,MIDLAND,15059
PA Pre-K Counts,Beaver,PIC OF WESTMORELAND AND FAYETTE COUNTY INC,,TODD LANE ELEMENTARY,113 TODD LN,MONACA,15061
PA Pre-K Counts,Westmoreland,MONESSEN CITY SCHOOL DISTRICT,,MONESSEN ELEMENTARY CENTER,1275 ROSTRAVER ST,MONESSEN,15062
PA Pre-K Counts,Westmoreland,MONESSEN CITY SCHOOL DISTRICT,DIVERSIFIED HUMAN SERVICES INC,SPHS CHILD LRG CTR MONESSEN SITE,2 EASTGATE AVE,MONESSEN,15062
PA Pre-K Counts,Washington,BLUEPRINTS,MON VALLEY YMCA,MON VALLEY YMCA,101 TAYLOR RUN RD,MONONGAHELA,15063
PA Pre-K Counts,Washington,BLUEPRINTS,DIVERSIFIED HUMAN SERVICES INC,MONONGAHELA CHILD CARE CENTER,122 E MAIN ST,MONONGAHELA,15063
PA Pre-K Counts,Washington,BLUEPRINTS,,RINGGOLD ELEMENTARY SOUTH,120 ALEXANDER ST,MONONGAHELA,15063
PA Pre-K Counts,Allegheny,KIDS KADEMY II LLC,,KIDS KADEMY,2859 FREEPORT RD,NATRONA HEIGHTS,15065
PA Pre-K Counts,Beaver,HAP ENTERPRISES INC,,TINY TOT CHILD DEVELOPMENT CENTER,PRE K COUNTS NEW BRIGHTON,NEW BRIGHTON,15066
PA Pre-K Counts,Westmoreland,GRANDMAS HOUSE LLC,,GRANDMAS HOUSE LLC,200 HUNT VALLEY RD,NEW KENSINGTON,15068
PA Pre-K Counts,Westmoreland,SETON HILL CHILD SERVICES INC,,NEW KENSINGTON EARLY CARE AND EDUCATION CENTER,1129 LEISHMAN AVE,NEW KENSINGTON,15068
PA Pre-K Counts,Beaver,KIMBERLY POPE-HARMON,,PRECIOUS TOTS DAYCARE,456 ADAMS ST,ROCHESTER,15074
PA Pre-K Counts,Beaver,HAP ENTERPRISES INC,,TINY TOT CHILD DEVELOPMENT CENTER,351 RHODE ISLAND AVE,ROCHESTER,15074
PA Pre-K Counts,Westmoreland,WESTMORELAND HUMAN OPPORTUNITIES INC,,TRAFFORD,100 BRINTON AVE,TRAFFORD,15085
PA Pre-K Counts,Westmoreland,LITTLE CUBS DAYCARE AND LEARNING CENTER LLC,,LITTLE CUBS DAYCARE LLC,111 W MAIN ST,WEST NEWTON,15089
PA Pre-K Counts,Westmoreland,WESTMORELAND HUMAN OPPORTUNITIES INC,,WEST NEWTON ELEMENTARY SCHOOL,1208 VINE ST,WEST NEWTON,15089
PA Pre-K Counts,Allegheny,ALLEGHENY INTERMEDIATE UNIT,,WILLIAM PENN ELEMENTARY,110 WOODLET LN,BETHEL PARK,15102
PA Pre-K Counts,Allegheny,HERITAGE COMMUNITY INITIATIVES,HERITAGE COMMUNITY INITIATIVES,HERITAGE 4 KIDS EARLY LEARNING CENTER,404 BRADDOCK AVE,BRADDOCK,15104
PA Pre-K Counts,Allegheny,WOODLAND HILLS SCHOOL DISTRICT,HERITAGE COMMUNITY INITIATIVES,HERITAGE 4 KIDS EARLY LEARNING CENTER,404 BRADDOCK AVE,BRADDOCK,15104
PA Pre-K Counts,Allegheny,HERITAGE COMMUNITY INITIATIVES,,HERITAGE OUT OF SCHOOL TIME,531 JONES AVE,BRADDOCK,15104
PA Pre-K Counts,Allegheny,ALLEGHENY INTERMEDIATE UNIT,,CARLYNTON/ST. JOHN CHURCH,601 WASHINGTON AVE,CARNEGIE,15106
PA Pre-K Counts,Allegheny,ALLEGHENY INTERMEDIATE UNIT,THE RED BALLOON DAYCARE CENTER INC,THE RED BALLOON DAYCARE INC,125 FINLEY AVE,CARNEGIE,15106
PA Pre-K Counts,Allegheny,ALLEGHENY INTERMEDIATE UNIT,,CORNELL MOON PRE K COUNTS BROOKS ELEM,1720 HASSAM RD,CORAOPOLIS,15108
PA Pre-K Counts,Allegheny,ALLEGHENY INTERMEDIATE UNIT,,DUQUESNE ELEMENTARY I/II,300 KENNEDY AVE,DUQUESNE,15110
PA Pre-K Counts,Allegheny,PIC OF WESTMORELAND AND FAYETTE COUNTY INC,,BURCHFIELD ELEMENTARY,1800 MOUNT ROYAL BLVD,GLENSHAW,15116
PA Pre-K Counts,Allegheny,PIC OF WESTMORELAND AND FAYETTE COUNTY INC,,SCOTT PRIMARY,705 SCOTT AVE,GLENSHAW,15116
PA Pre-K Counts,Allegheny,MAPLE UNIFIED STUDENT ACADEMY INC/Methodist Union of Social Agencies Inc,,MUSA/LITTLE LAMBS EARLY LEARNING CENTER,1705 MAPLE ST,HOMESTEAD,15120
PA Pre-K Counts,Allegheny,ALLEGHENY INTERMEDIATE UNIT,,WEST MIFFLIN,4315 ELIZA ST,WEST MIFFLIN,15122
PA Pre-K Counts,Allegheny,MCKEESPORT AREA SCHOOL DISTRICT,,FOUNDERS HALL II,3600 ONEIL BLVD,MCKEESPORT,15132
PA Pre-K Counts,Allegheny,ALLEGHENY INTERMEDIATE UNIT,,SOUTH ALLEGHENY ELEMENTARY SCHOOL,1707 WASHINGTON BLVD,PORT VUE,15133
PA Pre-K Counts,Allegheny,BRIGHTSIDE ACADEMY PHILADELPHIA LLC,BRIGHTSIDE ACADEMY PITTSBURGH LLC,BRIGHTSIDE ACADEMY/NORTH VERSAILLES,700 LINCOLN HWY,NORTH VERSAILLES,15137
PA Pre-K Counts,Allegheny,ALLEGHENY INTERMEDIATE UNIT,,EAST ALLEGHENY ROLLING WOODS PRE K COUNTS,3203 MARYLAND AVE,NORTH VERSAILLES,15137
PA Pre-K Counts,Allegheny,WOODLAND HILLS SCHOOL DISTRICT,,WOODLAND HILLS ACADEMY,126 MONROEVILLE AVE,TURTLE CREEK,15145
PA Pre-K Counts,Allegheny,ALLEGHENY INTERMEDIATE UNIT,,GARDEN CITY UNITED METHODIST CHURCH,500 LAUREL DR,MONROEVILLE,15146
PA Pre-K Counts,Allegheny,RIVERVIEW CHILDRENS CENTER INC,REDEEMER LUTHERAN SCHOOL,PENN HILLS CAMPUS,700 IDAHO AVE,VERONA,15147
PA Pre-K Counts,Allegheny,RIVERVIEW CHILDRENS CENTER INC,,RIVERVIEW CHILDRENS CENTER,655 SYLVAN WAY,VERONA,15147
PA Pre-K Counts,Allegheny,ALLEGHENY INTERMEDIATE UNIT,,EAST ALLEGHENY WILMERDING,200 WESTINGHOUSE AVE,WILMERDING,15148
PA Pre-K Counts,Allegheny,PITTSBURGH PUBLIC SCHOOLS,,SUNNYSIDE PRE K,4801 STANTON AVE,PITTSBURGH,15201
PA Pre-K Counts,Allegheny,NORTHGATE SCHOOL DISTRICT,,BELLEVUE ELEMENTARY,435 LINCOLN AVE,BELLEVUE,15202
PA Pre-K Counts,Allegheny,ALLEGHENY INTERMEDIATE UNIT,,NORTHGATE BELLEVUE,435 LINCOLN AVE,PITTSBURGH,15202
PA Pre-K Counts,Allegheny,PITTSBURGH PUBLIC SCHOOLS,,CHARTIERS EARLY CHILDHOOD CENTER,3799 CHARTIERS AVE,PITTSBURGH,15204
PA Pre-K Counts,Allegheny,COUNCIL OF THREE RIVERS AMER INDIAN CTR,CRAFTON CHILDRENS CORNER INC,CRAFTON CHILDRENS CORNER,545 HAMILTON RD,PITTSBURGH,15205
PA Pre-K Counts,Allegheny,PITTSBURGH PUBLIC SCHOOLS,,WESTWOOD PREK,508 SHADYHILL RD,PITTSBURGH,15205
PA Pre-K Counts,Allegheny,PITTSBURGH PUBLIC SCHOOLS,BRIGHTSIDE ACADEMY PITTSBURGH LLC,BRIGHTSIDE ACADEMY EARLY EDUCATION,5919 PENN AVE,PITTSBURGH,15206
PA Pre-K Counts,Allegheny,PITTSBURGH PUBLIC SCHOOLS,,DILWORTH CENTER,6200 STANTON AVE,PITTSBURGH,15206
PA Pre-K Counts,Allegheny,PITTSBURGH PUBLIC SCHOOLS,,FULTON CENTER,5799 HAMPTON ST,PITTSBURGH,15206
PA Pre-K Counts,Allegheny,PITTSBURGH PUBLIC SCHOOLS,BRITTINI R WRIGHT LLC,LEARNING LOFT ON BAUM,5732 BAUM BLVD,PITTSBURGH,15206
PA Pre-K Counts,Allegheny,PITTSBURGH PUBLIC SCHOOLS,,LINCOLN CENTER,328 LINCOLN AVE,PITTSBURGH,15206
PA Pre-K Counts,Allegheny,PITTSBURGH PUBLIC SCHOOLS,,PEABODY CENTER,515 N HIGHLAND AVE,PITTSBURGH,15206
PA Pre-K Counts,Allegheny,PITTSBURGH PUBLIC SCHOOLS,,GREENFIELD CENTER,1 ALGER ST,PITTSBURGH,15207
PA Pre-K Counts,Allegheny,COUNCIL OF THREE RIVERS AMER INDIAN CTR,,HAZELWOOD CENTER,4900 2ND AVE,PITTSBURGH,15207
PA Pre-K Counts,Allegheny,PITTSBURGH PUBLIC SCHOOLS,,MIFFLIN CENTER,1290 MIFFLIN RD,PITTSBURGH,15207
PA Pre-K Counts,Allegheny,PITTSBURGH PUBLIC SCHOOLS,YWCA OF GREATER PITTSBURGH,HOMEWOOD-BRUSHTON YWCA,6907 FRANKSTOWN AVE,PITTSBURGH,15208
PA Pre-K Counts,Allegheny,PITTSBURGH PUBLIC SCHOOLS,,LINDEN PRE-K,725 S LINDEN AVE,PITTSBURGH,15208
PA Pre-K Counts,Allegheny,PITTSBURGH PUBLIC SCHOOLS,SHADY LANE INC,SHADY LANE SCHOOL,100 N BRADDOCK AVE,PITTSBURGH,15208
PA Pre-K Counts,Allegheny,PIC OF WESTMORELAND AND FAYETTE COUNTY INC,,MARZOLF PRIMARY,101 MARZOLF ROAD EXT,PITTSBURGH,15209
PA Pre-K Counts,Allegheny,PITTSBURGH PUBLIC SCHOOLS,,ARLINGTON PRE K,800 RECTENWALD ST,PITTSBURGH,15210
PA Pre-K Counts,Allegheny,PITTSBURGH PUBLIC SCHOOLS,,CONCORD CENTER,2350 BROWNSVILLE RD,PITTSBURGH,15210
PA Pre-K Counts,Allegheny,PITTSBURGH PUBLIC SCHOOLS,,GRANDVIEW PRE-K,845 MCLAIN ST,PITTSBURGH,15210
PA Pre-K Counts,Allegheny,COUNCIL OF THREE RIVERS AMER INDIAN CTR,,ROCHELLE CENTER,201 ROCHELLE ST,PITTSBURGH,15210
PA Pre-K Counts,Allegheny,PITTSBURGH PUBLIC SCHOOLS,,ROOSEVELT INTERMEDIATE 2-5,17 W CHERRYHILL ST,PITTSBURGH,15210
PA Pre-K Counts,Allegheny,COUNCIL OF THREE RIVERS AMER INDIAN CTR,MT WASHINGTON CHILDRENS CENTER,MT WASHINGTON CHILDRENS CTR,200 SOUTHERN AVE,PITTSBURGH,15211
PA Pre-K Counts,Allegheny,PITTSBURGH PUBLIC SCHOOLS,,ALLEGHENY TRADITIONAL ACADEMY PREK,810 ARCH ST,PITTSBURGH,15212
PA Pre-K Counts,Allegheny,PITTSBURGH PUBLIC SCHOOLS,,CARNEGIE SCIENCE CENTER,1 ALLEGHENY AVE,PITTSBURGH,15212
PA Pre-K Counts,Allegheny,PITTSBURGH PUBLIC SCHOOLS,,CHILDREN'S MUSEUM OF PITTSBURGH,10 CHILDRENS WAY,PITTSBURGH,15212
PA Pre-K Counts,Allegheny,PITTSBURGH PUBLIC SCHOOLS,,JOHN MORROW CENTER,1611 DAVIS AVE,PITTSBURGH,15212
PA Pre-K Counts,Allegheny,PITTSBURGH PUBLIC SCHOOLS,PROVIDENCE CONNECTIONS INC,PROVIDENCE FAMILY SUPPORT CTR CHILDRENS PROGRAM,3113 BRIGHTON RD,PITTSBURGH,15212
PA Pre-K Counts,Allegheny,PIC OF WESTMORELAND AND FAYETTE COUNTY INC,,RESERVE PRIMARY,2107 LONSDALE ST,PITTSBURGH,15212
PA Pre-K Counts,Allegheny,PITTSBURGH PUBLIC SCHOOLS,,SPRING GARDEN EARLY CHILDHOOD CENTER,1501 SPRING GARDEN AVE,PITTSBURGH,15212
PA Pre-K Counts,Allegheny,PITTSBURGH PUBLIC SCHOOLS,,SCI-TECH CENTER,107 THACKERAY ST,PITTSBURGH,15213
PA Pre-K Counts,Allegheny,PITTSBURGH PUBLIC SCHOOLS,,BEECHWOOD CENTER,810 ROCKLAND AVE,PITTSBURGH,15216
PA Pre-K Counts,Allegheny,CRAFTON CHILDRENS CORNER INC,,CRAFTON CHILDRENS CORNER,2644 BANKSVILLE RD,PITTSBURGH,15216
PA Pre-K Counts,Allegheny,PITTSBURGH PUBLIC SCHOOLS,HILLEL ACADEMY,HILLEL ACADEMY OF PITTSBURGH,5685 BEACON ST,PITTSBURGH,15217
PA Pre-K Counts,Allegheny,PITTSBURGH PUBLIC SCHOOLS,,MINADEO CENTER,6502 LILAC ST,PITTSBURGH,15217
PA Pre-K Counts,Allegheny,PITTSBURGH PUBLIC SCHOOLS,YESHIVATH ACHEI TMIMIM OF PITTSBURGH,THE EARLY LEARNING CENTER AT YESHIVA,6401 FORBES AVE,PITTSBURGH,15217
PA Pre-K Counts,Allegheny,WOODLAND HILLS SCHOOL DISTRICT,,EDGEWOOD PRIMARY SCHOOL,241 MAPLE AVE,PITTSBURGH,15218
PA Pre-K Counts,Allegheny,PITTSBURGH PUBLIC SCHOOLS,,MILLER AFRICAN CENTER,2055 BEDFORD AVE,PITTSBURGH,15219
PA Pre-K Counts,Allegheny,COUNCIL OF THREE RIVERS AMER INDIAN CTR,CRAFTON CHILDRENS CORNER INC,CRAFTON CHILDRENS CORNER,875 GREENTREE RD,PITTSBURGH,15220
PA Pre-K Counts,Allegheny,CRAFTON CHILDRENS CORNER INC,,CRAFTON CHILDRENS CORNER,875 GREENTREE RD,PITTSBURGH,15220
PA Pre-K Counts,Allegheny,CYNTHIA K FRANCKS CHILD CARE INC,,CYNTHIA K FRANCKS CHILD CARE,2140 ARDMORE BLVD,PITTSBURGH,15221
PA Pre-K Counts,Allegheny,WILKINSBURG SCHOOL DISTRICT,HOSANNA HOUSE INC,HOPE ACADEMY POWERED BY HOSANNA HOUSE,807 WALLACE AVE,PITTSBURGH,15221
PA Pre-K Counts,Allegheny,HOSANNA HOUSE INC,,HOPE ACADEMY POWERED BY HOSANNA HOUSE,807 WALLACE AVE,PITTSBURGH,15221
PA Pre-K Counts,Allegheny,IMANI CHRISTIAN ACADEMY,,IMANI CHRISTIAN SCHOOL,2150 E HILLS DR,PITTSBURGH,15221
PA Pre-K Counts,Allegheny,YWCA OF GREATER PITTSBURGH,,YWCA PROPEL BRADDOCK HILLS EARLY LEARNING,1500 YOST BLVD,PITTSBURGH,15221
PA Pre-K Counts,Allegheny,WILKINSBURG SCHOOL DISTRICT,,KELLY ELEMENTARY,400 KELLY AVE,WILKINSBURG,15221
PA Pre-K Counts,Allegheny,PITTSBURGH PUBLIC SCHOOLS,BRIGHTSIDE ACADEMY PITTSBURGH LLC,BRIGHTSIDE ACADEMY EARLY CARE EDUCATION,4 SMITHFIELD ST,PITTSBURGH,15222
PA Pre-K Counts,Allegheny,PITTSBURGH PUBLIC SCHOOLS,BRIGHTSIDE ACADEMY PITTSBURGH LLC,BRIGHTSIDE ACADEMY INC,925 LIBERTY AVE,PITTSBURGH,15222
PA Pre-K Counts,Allegheny,PITTSBURGH PUBLIC SCHOOLS,SWELC LLC,SMALL WORLD EARLY LEARNING & DEV CTR 2,960 PENN AVE,PITTSBURGH,15222
PA Pre-K Counts,Allegheny,PITTSBURGH PUBLIC SCHOOLS,SWELC LLC,SMALL WORLD EARLY LEARNING & DEV CTR I,607 PENN AVE,PITTSBURGH,15222
PA Pre-K Counts,Allegheny,PITTSBURGH PUBLIC SCHOOLS,,BROOKLINE CENTER,500 WOODBOURNE AVE,PITTSBURGH,15226
PA Pre-K Counts,Allegheny,PITTSBURGH PUBLIC SCHOOLS,,CARMALT CENTER,1550 BREINING ST,PITTSBURGH,15226
PA Pre-K Counts,Allegheny,PITTSBURGH PUBLIC SCHOOLS,ELIZABETH SETON CENTER INC,ELIZABETH SETON CENTER-CHILDRENS PROGRAM,1900 PIONEER AVE,PITTSBURGH,15226
PA Pre-K Counts,Allegheny,PITTSBURGH PUBLIC SCHOOLS,,WEST LIBERTY PRE K,785 DUNSTER ST,PITTSBURGH,15226
PA Pre-K Counts,Allegheny,COUNCIL OF THREE RIVERS AMER INDIAN CTR,,CHURCHVIEW CENTER,3198 SCHIECK ST,PITTSBURGH,15227
PA Pre-K Counts,Allegheny,PITTSBURGH PUBLIC SCHOOLS,,CONROY EARLY CHILDHOOD CENTER,1398 PAGE ST,PITTSBURGH,15233
PA Pre-K Counts,Allegheny,PITTSBURGH PUBLIC SCHOOLS,MANCHESTER YOUTH DEVELOPMENT CENTER INC,TRAINING WHEELS CHILD DAY CARE CENTER,1214 LIVERPOOL ST,PITTSBURGH,15233
PA Pre-K Counts,Allegheny,ALLEGHENY INTERMEDIATE UNIT,,BALDWIN HAMILTON,1401 HAMILTON RD,PITTSBURGH,15234
PA Pre-K Counts,Allegheny,CYNTHIA K FRANCKS CHILD CARE INC,,CYNTHIA FRANCKS CHILDCARE,12134 FRANKSTOWN RD,PITTSBURGH,15235
PA Pre-K Counts,Allegheny,PIC OF WESTMORELAND AND FAYETTE COUNTY INC,,PENN HILLS HIGH SCHOOL,309 COLLINS DR,PITTSBURGH,15235
PA Pre-K Counts,Allegheny,COUNCIL OF THREE RIVERS AMER INDIAN CTR,THOMAS CHILD CARE AND LEARNING ACADEMY,THOMAS CHILD CARE AND LEARNING ACADEMY LLC,10739 FRANKSTOWN RD,PITTSBURGH,15235
PA Pre-K Counts,Allegheny,WOODLAND HILLS SCHOOL DISTRICT,,WILKINS PRIMARY SCHOOL,362 CHURCHILL RD,PITTSBURGH,15235
PA Pre-K Counts,Allegheny,ALLEGHENY INTERMEDIATE UNIT,,BALDWIN NATIVITY SCHOOL,5811 CURRY RD,PITTSBURGH,15236
PA Pre-K Counts,Washington,BLUEPRINTS,KID BIZ LLC,KID BIZ LLC EAST MAIDEN,375 E MAIDEN ST,WASHINGTON,15301
PA Pre-K Counts,Washington,BLUEPRINTS,LITTLE RASCALS EARLY LEARNING CENTER LLC,LITTLE RASCALS EARLY LEARNING CENTER,2055 JEFFERSON AVE,WASHINGTON,15301
PA Pre-K Counts,Washington,BLUEPRINTS,,MCGUFFEY SD,2510 PARK AVE,WASHINGTON,15301
PA Pre-K Counts,Washington,PIGTAILS & INKWELLS DAY CARE CENTER INC,,ONCE UPON A TIME,925 HENDERSON AVE,WASHINGTON,15301
PA Pre-K Counts,Washington,BLUEPRINTS,RAINBOWS END LEARNING CENTER INC,RAINBOWS END LEARNING CENTER INC,655 JEFFERSON AVE,WASHINGTON,15301
PA Pre-K Counts,Washington,BLUEPRINTS,SMART KIDS CHILD CARE AND LEARNING CENTER INC,SMART KIDS CHILD CARE LEARNING CENTER INC,340 MEADOWLANDS BLVD,WASHINGTON,15301
PA Pre-K Counts,Washington,BLUEPRINTS,SMART KIDS CHILD CARE AND LEARNING CENTER INC,SMARTKIDS CHILD CARE AND LEARNING CENTER,161 W BEAU ST,WASHINGTON,15301
PA Pre-K Counts,Washington,BLUEPRINTS,,TRINITY SD,225 MIDLAND DR,WASHINGTON,15301
PA Pre-K Counts,Washington,BLUEPRINTS,,WASHINGTON SD,801 E WHEELING ST,WASHINGTON,15301
PA Pre-K Counts,Washington,BLUEPRINTS,,AVELLA ELEMENTARY SCHOOL,1000 AVELLA RD,AVELLA,15312
PA Pre-K Counts,Washington,BLUEPRINTS,,BENTWORTH SCHOOL DISTRICT,100 BEARCAT DR,BENTLEYVILLE,15314
PA Pre-K Counts,Washington,BLUEPRINTS,KIDDOS CENTER FOR LEARNING LLC,KIDDOS CENTER FOR LEARNING LLC,205 GIBSON RD,BENTLEYVILLE,15314
PA Pre-K Counts,Greene,BLUEPRINTS,,SOUTHEASTERN GREENE SD,304 GRANT ST,BOBTOWN,15315
PA Pre-K Counts,Washington,BLUEPRINTS,,FRANK SARRIS PUBLIC LIBRARY,35 N JEFFERSON AVE,CANONSBURG,15317
PA Pre-K Counts,Greene,BLUEPRINTS,,CAS CARMICHAELS HS,225 N VINE ST,CARMICHAELS,15320
PA Pre-K Counts,Washington,BLUEPRINTS,,RINGGOLD ELEMENTARY SCHOOL NORTH,3685 FINLEYVILLE-ELRAMA RD,FINLEYVILLE,15332
PA Pre-K Counts,Washington,BLUEPRINTS,,BETHLEHEM CENTER SD,194 CRAWFORD RD,FREDERICKTOWN,15333
PA Pre-K Counts,Greene,BLUEPRINTS,,JEFFERSON MORGAN SD,1351 JEFFERSON RD,JEFFERSON,15344
PA Pre-K Counts,Washington,BLUEPRINTS,,CANON MCMILLAN SD,40 MUSE SCHOOL RD,MUSE,15350
PA Pre-K Counts,Greene,BLUEPRINTS,,CENTRAL GREENE SD,90 ZIMMERMAN DR,WAYNESBURG,15370
PA Pre-K Counts,Greene,BLUEPRINTS,,WEST GREENE ELEMENTARY,1350 HARGUS CREEK RD,WAYNESBURG,15370
PA Pre-K Counts,Fayette,DUCK HOLLOW DISCOVERY LEARNING CENTER,ABC SCHOOL HOUSE INC,ABC SCHOOL HOUSE,144 N GALLATIN AVE,UNIONTOWN,15401
PA Pre-K Counts,Fayette,UNIONTOWN AREA SCHOOL DISTRICT,PIC OF WESTMORELAND AND FAYETTE COUNTY INC,BEN FRANKLIN ELEMENTARY,351 MORGANTOWN ST,UNIONTOWN,15401
PA Pre-K Counts,Fayette,DUCK HOLLOW DISCOVERY LEARNING CENTER,,DUCK HOLLOW DISCOVERY LEARNING CENTER,7822 NATIONAL PIKE,UNIONTOWN,15401
PA Pre-K Counts,Fayette,DUCK HOLLOW DISCOVERY LEARNING CENTER,,DUCK HOLLOW DISCOVERY LNG CTR AT ALBERT GALLATIN,1152 TOWNSHIP DR,UNIONTOWN,15401
PA Pre-K Counts,Fayette,UNIONTOWN AREA SCHOOL DISTRICT,PIC OF WESTMORELAND AND FAYETTE COUNTY INC,LAFAYETTE ELEMENTARY,303 CONNELLSVILLE ST,UNIONTOWN,15401
PA Pre-K Counts,Fayette,PIC OF WESTMORELAND AND FAYETTE COUNTY INC,,MARSHALL ELEMENTARY,335 PARK ST,UNIONTOWN,15401
PA Pre-K Counts,Fayette,UNIONTOWN AREA SCHOOL DISTRICT,PIC OF WESTMORELAND AND FAYETTE COUNTY INC,MENALLEN ELEMENTARY,7527 NATIONAL PIKE,UNIONTOWN,15401
PA Pre-K Counts,Somerset,"TABLELAND SERVICES, INC.",,TURKEYFOOT K3,172 TURKEYFOOT RD,CONFLUENCE,15424
PA Pre-K Counts,Fayette,PIC OF WESTMORELAND AND FAYETTE COUNTY INC,,CONNELLSVILLE TOWNSHIP ELEMENTARY,732 ROCKRIDGE RD,CONNELLSVILLE,15425
PA Pre-K Counts,Fayette,CRAYON CLUBHOUSE LLC,,CRAYON CLUBHOUSE II,2614 C MEMORIAL BLVD,CONNELLSVILLE,15425
PA Pre-K Counts,Fayette,PINKY TOES CHILD CARE AND DVPT CTR,,PINKY TOES CHILDCARE & DVPT CTR,204 E CRAWFORD AVE,CONNELLSVILLE,15425
PA Pre-K Counts,Fayette,PIC OF WESTMORELAND AND FAYETTE COUNTY INC,,WHARTON CENTER,136 ELLIOTSVILLE RD,FARMINGTON,15437
PA Pre-K Counts,Fayette,PIC OF WESTMORELAND AND FAYETTE COUNTY INC,,SPRINGFIELD TOWNSHIP ELEMENTARY,14 SCHOOL HOUSE RD,NORMALVILLE,15469
PA Pre-K Counts,Fayette,FRAZIER SCHOOL DISTRICT,,FRAZIER ELEMENTARY SCHOOL,142 CONSTITUTION ST,PERRYOPOLIS,15473
PA Pre-K Counts,Somerset,"TABLELAND SERVICES, INC.",,SOMERSET AREA SCHOOL DISTRICT,105 NEW CENTERVILLE RD,SOMERSET,15501
PA Pre-K Counts,Somerset,"TABLELAND SERVICES, INC.",,TECH CENTER,281 TECHNOLOGY CENTER DR,SOMERSET,15501
PA Pre-K Counts,Somerset,THE LEARNING LAMP,,THE LEARNING LAMP CTR FOR CHDN SOMERSET,451 ABERDEEN DR,SOMERSET,15501
PA Pre-K Counts,Bedford,BEDFORD AREA SCHOOL DISTRICT,ALLEGHENY LUTHERAN SOCIAL MINISTRIES INC,BEDFORD KID STOP,3639 BUISNESS,BEDFORD,15522
PA Pre-K Counts,Bedford,CRAYON CLUBHOUSE LLC,AARON D BURKETT,BURKETTS WATCH ME GROW DAY CARE,132 E JOHN ST,BEDFORD,15522
PA Pre-K Counts,Bedford,ALLEGHENY LUTHERAN SOCIAL MINISTRIES INC,,GROWING YEARS EARLY LEARNING CENTER AT BEDFORD 1A,106 W PENN ST,BEDFORD,15522
PA Pre-K Counts,Somerset,"TABLELAND SERVICES, INC.",,BERLIN-BROTHERSVALLEY SD,1025 MAIN ST,BERLIN,15530
PA Pre-K Counts,Bedford,THE LEARNING LAMP,,THE LEARNING LAMP PRESCHOOL AT EVERETT,165 E 1ST AVE,EVERETT,15537
PA Pre-K Counts,Somerset,"TABLELAND SERVICES, INC.",,MEYERSDALE AREA SD,261 INDUSTRIAL PARK ROAD,MEYERSDALE,15552
PA Pre-K Counts,Bedford,CHESTNUT RIDGE SCHOOL DIST,,CENTRAL ELEMENTARY,2534 QUAKER VALLEY RD,NEW PARIS,15554
PA Pre-K Counts,Bedford,CRAYON CLUBHOUSE LLC,AARON D BURKETT,WATCH ME GROW CHILD CARE AND PRESCHOOL,183 WENTZ RD,NEW PARIS,15554
PA Pre-K Counts,Somerset,"TABLELAND SERVICES, INC.",,ROCKWOOD,435 SOMERSET AVE,ROCKWOOD,15557
PA Pre-K Counts,Somerset,"TABLELAND SERVICES, INC.",,SALISBURY-ELK LICK ELEMENTARY,PO BOX 68,SALISBURY,15558
PA Pre-K Counts,Somerset,"TABLELAND SERVICES, INC.",,NORTH STAR MS / KANTNER EL,3598 WHISTLER RD,STOYSTOWN,15563
PA Pre-K Counts,Westmoreland,HEMPFIELD AREA SCHOOL DSTRCT,,FORT ALLEN ELEMENTARY,560 BALTZER MEYER PIKE,GREENSBURG,15601
PA Pre-K Counts,Westmoreland,SETON HILL CHILD SERVICES INC,,GREENSBURG EARLY CARE AND EDUCATION CENTER,535 TAYLOR ST,GREENSBURG,15601
PA Pre-K Counts,Westmoreland,LOVELI FOUNDATIONS LLC,,LOVELI FOUNDATIONS LLC,1718 SW RUGH ST,GREENSBURG,15601
PA Pre-K Counts,Westmoreland,PIC OF WESTMORELAND AND FAYETTE COUNTY INC,,PIC KIDZ ZONE,219 DONOHOE RD,GREENSBURG,15601
PA Pre-K Counts,Westmoreland,WESTMORELAND HUMAN OPPORTUNITIES INC,,ST PAUL,820 CARBON RD,GREENSBURG,15601
PA Pre-K Counts,Westmoreland,DUCK HOLLOW DISCOVERY LEARNING CENTER,TINY TOWN ENTERPRISES INC,TINY TOWN ENTERPRISES INC,1270 MIDDLETOWN RD,GREENSBURG,15601
PA Pre-K Counts,Armstrong,GRANDMAS HOUSE LLC,,GRANDMAS HOUSE LLC,616 1ST STREET EXT,APOLLO,15613
PA Pre-K Counts,Westmoreland,WESTMORELAND HUMAN OPPORTUNITIES INC,,DELMONT,301 E PITTSBURGH ST,DELMONT,15626
PA Pre-K Counts,Westmoreland,LIGONIER VALLEY LEARNING CENTER,DERRY AREA SCHOOL DISTRICT,DERRY AREA SCHOOL DISTRICT,982 N CHESTNUT STREET EXT,DERRY,15627
PA Pre-K Counts,Westmoreland,WESTMORELAND HUMAN OPPORTUNITIES INC,,DONEGAL CENTER,340 CHURCH ST,DONEGAL,15628
PA Pre-K Counts,Westmoreland,WESTMORELAND HUMAN OPPORTUNITIES INC,,HW GOOD,1464 HERMINIE WEST NEWTON,HERMINIE,15637
PA Pre-K Counts,Westmoreland,SETON HILL CHILD SERVICES INC,,IRWIN CHILDRENS CENTER,HOLY TRINITY LUTHERAN CH,IRWIN,15642
PA Pre-K Counts,Westmoreland,JBS BRIGHT BEGINNINGS TWO LLC,,JBS BRIGHT BEGINNINGS,780 BRUSH HILL RD,IRWIN,15642
PA Pre-K Counts,Westmoreland,WESTMORELAND HUMAN OPPORTUNITIES INC,,NORWIN PRE-K,11600 PARKWAY DR,IRWIN,15642
PA Pre-K Counts,Westmoreland,HEMPFIELD AREA SCHOOL DSTRCT,,WEST HEMPFIELD ELEMENTARY SCHOOL,469 WENDEL RD,IRWIN,15642
PA Pre-K Counts,Westmoreland,BRIGHTSIDE ACADEMY PHILADELPHIA LLC,BRIGHTSIDE ACADEMY PITTSBURGH LLC,BRIGHTSIDE ACADEMY,320 N 7TH ST,JEANNETTE,15644
PA Pre-K Counts,Westmoreland,WESTMORELAND HUMAN OPPORTUNITIES INC,BRIGHTSIDE ACADEMY PITTSBURGH LLC,BRIGHTSIDE ACADEMY,320 N 7TH ST,JEANNETTE,15644
PA Pre-K Counts,Westmoreland,SETON HILL CHILD SERVICES INC,,JEANNETTE EARLY CARE & EDUCATION CENTER,320 N 7TH ST,JEANNETTE,15644
PA Pre-K Counts,Westmoreland,WESTMORELAND HUMAN OPPORTUNITIES INC,,PENN MIDDLE,1007 PENN MIDDLE WAY,JEANNETTE,15644
PA Pre-K Counts,Westmoreland,UNITY MARKETING GROUP INC,WESTMORELAND CAPITAL HOLDINGS LLC,GREAT EXPECTATIONS CHILD CARE AND EARLY LRNG CTR,308 UNITY PLZ,LATROBE,15650
PA Pre-K Counts,Westmoreland,PIC OF WESTMORELAND AND FAYETTE COUNTY INC,,LATROBE ELEMENTARY,20 CEDAR ST,LATROBE,15650
PA Pre-K Counts,Westmoreland,SETON HILL CHILD SERVICES INC,LIGONIER VALLEY LEARNING CENTER,LATROBE KINDER-SCHULL,320 MCKINLEY AVE,LATROBE,15650
PA Pre-K Counts,Westmoreland,LIGONIER VALLEY LEARNING CENTER,,LATROBE KINDER-SCHULL,320 MCKINLEY AVE,LATROBE,15650
PA Pre-K Counts,Westmoreland,CHERISE M RACHAL,,APPLESEED LEARNING CENTER,1001 S LEECHBURG HILL RD,LEECHBURG,15656
PA Pre-K Counts,Armstrong,ARIN INTERMEDIATE UNIT 28,LEECHBURG AREA SCHOOL DISTRICT,DAVID LEECH ELEMENTARY,200 SIBERIAN AVE,LEECHBURG,15656
PA Pre-K Counts,Westmoreland,LIGONIER VALLEY LEARNING CENTER,,LIGONIER VALLEY LRNG CTR,RD#1 BOX 22-L,LIGONIER,15658
PA Pre-K Counts,Westmoreland,SETON HILL CHILD SERVICES INC,LIGONIER VALLEY SCHOOL DISTRICT,RK MELLON ELEMENTARY SCHOOL,559 BELL STREET,LIGONIER,15658
PA Pre-K Counts,Westmoreland,PIC OF WESTMORELAND AND FAYETTE COUNTY INC,FROCK CHILDCARE LEARNING CENTER LLC,FROCK CHILDCARE LEARNING CENTER LLC,107 OAK ST,MOUNT PLEASANT,15666
PA Pre-K Counts,Westmoreland,HEMPFIELD AREA SCHOOL DSTRCT,,STANWOOD ELEMENTARY,255 ARONA RD,NEW STANTON,15672
PA Pre-K Counts,Westmoreland,WESTMORELAND HUMAN OPPORTUNITIES INC,,RUFFSDALE ELEMENTARY,842 STATE ROUTE 31,RUFFS DALE,15679
PA Pre-K Counts,Indiana,RIVER VALLEY SCHOOL DISTRICT,,SALTSBURG ELEMENTARY,199 TROJAN LN,SALTSBURG,15681
PA Pre-K Counts,Fayette,LIGONIER VALLEY LEARNING CENTER,OUR BUDDYS PLACE LLC,OUR BUDDYS PLACE,1007 KINGVIEW RD,SCOTTDALE,15683
PA Pre-K Counts,Westmoreland,SETON HILL CHILD SERVICES INC,,SCOTTDALE EARLY CARE AND EDUCATION CENTER,501 S BROADWAY ST,SCOTTDALE,15683
PA Pre-K Counts,Westmoreland,PIC OF WESTMORELAND AND FAYETTE COUNTY INC,,SOUTHMORELAND ELEMENTARY,100 SCOTTIE WAY,SCOTTDALE,15683
PA Pre-K Counts,Armstrong,APOLLO-RIDGE SCHOOL DISTRICT,,APOLLO-RIDGE ELEMENTARY SCHOOL,1825 STATE ROUTE 56,SPRING CHURCH,15686
PA Pre-K Counts,Westmoreland,SETON HILL CHILD SERVICES INC,TOTS-N-TIKES,TOTS-N-TIKES,10 S 8TH ST,YOUNGWOOD,15697
PA Pre-K Counts,Indiana,ARIN INTERMEDIATE UNIT 28,INDIANA AREA SCHOOL DISTRICT,BEN FRANKLIN ELEMENTARY,95 BEN FRANKLIN RD S,INDIANA,15701
PA Pre-K Counts,Indiana,ARIN INTERMEDIATE UNIT 28,INDIANA AREA SCHOOL DISTRICT,EAST PIKE ELEMENTARY,501 EAST PIKE,INDIANA,15701
PA Pre-K Counts,Indiana,INDIANA COUNTY CHILD DAY CARE PROGRAM,,UNIVERSITY EARLY CARE AND EDUCATION CTR,570 S 11TH ST,INDIANA,15705
PA Pre-K Counts,Cambria,NORTHERN CAMBRIA SCHOOL DIS,CAMBRIA COUNTY CHILD DEVELOPMENT CORPORATION,NORTHERN CAMBRIA LEARNING CENTER,601 JOSEPH ST,NORTHERN CAMBRIA,15714
PA Pre-K Counts,Indiana,UNITY MARKETING GROUP INC,,GREAT EXPECTATIONS CHILD CARE & LRNG CTR,163 MAPLE AVENUE EXT,BLAIRSVILLE,15717
PA Pre-K Counts,Cambria,CAMBRIA HEIGHTS SCHOOL DISTRICT,,CAMBRIA HEIGHTS ELEMENTARY,138 E CAMPBELLTOWN ST,CARROLLTOWN,15722
PA Pre-K Counts,Indiana,PENNS MANOR AREA SCHOOL DISTRICT,,PENNS MANOR AREA SD,6003 ROUTE 553 HWY,CLYMER,15728
PA Pre-K Counts,Indiana,ARIN INTERMEDIATE UNIT 28,PURCHASE LINE SCHOOL DISTRICT,PURCHASE LINE ELEMENTARY SCHOOL,16957 ROUTE 286 HWY E,COMMODORE,15729
PA Pre-K Counts,Indiana,MARION CENTER AREA SCHOOLS,,RAYNE ELEMENTARY,2535 RT119 HWY N,HOME,15747
PA Pre-K Counts,Indiana,INDIANA COUNTY CHILD DAY CARE PROGRAM,,HOMER CENTER PRE-K,45 WILDCAT LN,HOMER CITY,15748
PA Pre-K Counts,Indiana,"INDIANA COUNTY HEAD START, INC",,HOMER CITY HEAD START,30 W ELM ST,HOMER CITY,15748
PA Pre-K Counts,Indiana,MARION CENTER AREA SCHOOLS,,W. A. MCCREERY ELEMENTARY,22810 RTE 403 HGHWAY NORTH,MARION CENTER,15759
PA Pre-K Counts,Jefferson,KEYSTONE SMILES COMMUNITY LEARNING CENTER,CREATIVE GARDEN LLC,CREATIVE GARDEN LLC,816 AIRPORT RD,PUNXSUTAWNEY,15767
PA Pre-K Counts,Jefferson,KEYSTONE SMILES COMMUNITY LEARNING CENTER,PLAYHOUSE CHILDRENS CENTER LLC,PLAYHOUSE CHILDRENS CENTER,218 LANE AVE,PUNXSUTAWNEY,15767
PA Pre-K Counts,Jefferson,"JEFFERSON-CLARION HEAD START, INC.",,PUNXSUTAWNEY COMMUNITY CENTER,220 N JEFFERSON ST,PUNXSUTAWNEY,15767
PA Pre-K Counts,Clearfield,CEN CLEAR CHILD SERVICES INC,,DUBOIS PRESCHOOL CAMPUS,1 BEAVER DR,DU BOIS,15801
PA Pre-K Counts,Clearfield,KEYSTONE SMILES COMMUNITY LEARNING CENTER,LEARNING TREE CHILD CARE LLC,LEARNING TREE CHILD CARE LLC,608 W DUBOIS AVE,DU BOIS,15801
PA Pre-K Counts,Clearfield,KEYSTONE SMILES COMMUNITY LEARNING CENTER,LITTLE HANDS CHILD CARE CENTER INC,LITTLE HANDS CHILD CARE CENTER,180 MCCRACKEN RUN RD,DU BOIS,15801
PA Pre-K Counts,Jefferson,"JEFFERSON-CLARION HEAD START, INC.",,BROCKWAY HEAD START,40 NORTH ST,BROCKWAY,15824
PA Pre-K Counts,Jefferson,"JEFFERSON-CLARION HEAD START, INC.",,BROOKVILLE PRE-K COUNTS,122 NORTH WHITE ST,BROOKVILLE,15825
PA Pre-K Counts,Cameron,NORTHERN TIER,,EMPORIUM HEAD START,603 WOODLAND AVE,EMPORIUM,15834
PA Pre-K Counts,Elk,JOHNSONBURG AREA SCHOOL DISTRICT,,JOHNSONBURG ELEMENTARY SCHOOL,1536 WILCOX RD,JOHNSONBURG,15845
PA Pre-K Counts,Jefferson,"JEFFERSON-CLARION HEAD START, INC.",,REYNOLDSVILLE PRESCHOOL,329 JACKSON ST,REYNOLDSVILLE,15851
PA Pre-K Counts,Elk,CEN CLEAR CHILD SERVICES INC,,RIDGWAY ELEMENTARY,62 SCHOOL DR,RIDGWAY,15853
PA Pre-K Counts,Elk,CEN CLEAR CHILD SERVICES INC,YOUNG MENS CHRISTIAN ASSOCIATION OF RIDGWAY,RIDGWAY YMCA CHILD CARE,62 SCHOOL DR,RIDGWAY,15853
PA Pre-K Counts,Elk,NORTHERN TIER,,ELK COUNTY HOME BASED,513 E ARCH ST,SAINT MARYS,15857
PA Pre-K Counts,Elk,CEN CLEAR CHILD SERVICES INC,,ST MARYS EARLY CHILDHOOD CENTER,429 NORTH ST,ST MARYS,15857
PA Pre-K Counts,Cambria,THE LEARNING LAMP,,THE LEARNING LAMP CENTER FOR CHILDREN AT GJCTC,445 SCHOOLHOUSE RD,JOHNSTOWN,15904
PA Pre-K Counts,Cambria,CAMBRIA COUNTY CHILD DEVELOPMENT CORPORATION,FERNDALE AREA SCHOOL DISTRCT,FERNDALE AREA SCHOOL DISTRICT,100 DARTMOUTH AVE,JOHNSTOWN,15905
PA Pre-K Counts,Cambria,ALLEGHENY LUTHERAN SOCIAL MINISTRIES INC,,GROWING YEARS EARLY LEARNING CENTER AT JOHNSTOWN,865 SUSQUEHANNA ST,JOHNSTOWN,15905
PA Pre-K Counts,Cambria,THE LEARNING LAMP,,THE LEARNING LAMP WESTMONT,700 INDIANA ST,JOHNSTOWN,15905
PA Pre-K Counts,Cambria,COMMUNITY ACTION PARTNERSHIP OF CAMBRIA COUNTY,,WEST HILLS,100 DARTMOUTH AVE,JOHNSTOWN,15905
PA Pre-K Counts,Cambria,COMMUNITY ACTION PARTNERSHIP OF CAMBRIA COUNTY,,JOHNSTOWN CENTER,401 BROAD ST,JOHNSTOWN,15906
PA Pre-K Counts,Cambria,GREATER JOHNSTOWN SCHOOL DIS,CAMBRIA COUNTY CHILD DEVELOPMENT CORPORATION,MORRELL NEIGHBORHOOD SCHOOL,413 POWER ST,JOHNSTOWN,15906
PA Pre-K Counts,Cambria,CONEMAUGH VALLEY SCHOOL DISTRICT,CAMBRIA COUNTY CHILD DEVELOPMENT CORPORATION,CONEMAUGH NEIGHBORHOOD SCHOOL,209 3RD ST,CONEMAUGH,15909
PA Pre-K Counts,Cambria,COMMUNITY ACTION PARTNERSHIP OF CAMBRIA COUNTY,,JACKSON ELEMENTARY SCHOOL,3704 WILLIAM PENN AVE,JOHNSTOWN,15909
PA Pre-K Counts,Indiana,UNITED SCHOOL DISTRICT,,UNITED SCHOOL DISTRICT,10780 HIGHWAY EAS,ARMAGH,15920
PA Pre-K Counts,Somerset,"TABLELAND SERVICES, INC.",,SHADE ELEMENTARY,203 MCGREAGOR AVE,CAIRNBROOK,15924
PA Pre-K Counts,Somerset,"TABLELAND SERVICES, INC.",,KAUFMAN MENNONITE CHURCH,916 MILLER PICKING RD,DAVIDSVILLE,15928
PA Pre-K Counts,Cambria,COMMUNITY ACTION PARTNERSHIP OF CAMBRIA COUNTY,,CAMBRIA ELEMENTARY SCHOOL,212 SCHOOLHOUSE RD,EBENSBURG,15931
PA Pre-K Counts,Westmoreland,SETON HILL CHILD SERVICES INC,LIGONIER VALLEY SCHOOL DISTRICT,LAUREL VALLEY ELEMENTARY SCHOOL,137 EDUCATION LN,NEW FLORENCE,15944
PA Pre-K Counts,Cambria,THE LEARNING LAMP,,THE LEARNING LAMP AT PORTAGE,84 MOUNTAIN AVE,PORTAGE,15946
PA Pre-K Counts,Cambria,COMMUNITY ACTION PARTNERSHIP OF CAMBRIA COUNTY,,SALIX HEAD START CENTER,1075 FOREST HILLS DR,SALIX,15952
PA Pre-K Counts,Butler,BUTLER COUNTY CHILDRENS CENTER INC,,BUTLER COUNTY CHILDRENS CENTER,131 HOMEWOOD DR,BUTLER,16001
PA Pre-K Counts,Butler ,Lifesteps Inc,,LIFESTEPS,383 New Castle Rd,Butler,16001
PA Pre-K Counts,Clarion,"JEFFERSON-CLARION HEAD START, INC.",,ALLEGHENY-CLARION VALLEY ELEMENTARY,776 ROUTE 58,FOXBURG,16036
PA Pre-K Counts,Venango,KEYSTONE SMILES COMMUNITY LEARNING CENTER,FRANKLIN AREA SCHOOL DISTRICT,VICTORY ELEMENTARY SCHOOL,1819 GEORGETOWN RD,HARRISVILLE,16038
PA Pre-K Counts,Butler ,Lifesteps Inc,,LIFESTEPS/SOUTH BUTLER COUNTY PRIMARY SCHOOL,328 Knoch Rd,Saxonburg,16056
PA Pre-K Counts,Butler,SLIPPERY ROCK STUDENT GOVERNMENT ASSOCIA,,SLIPPERY ROCK UNIV/SGA PRESCHOOL,007 MCKAY EDUCATION BLDG,SLIPPERY ROCK,16057
PA Pre-K Counts,Butler,BUTLER COUNTY CHILDRENS CENTER INC,,DASSA MCKINNEY ELEMENTARY,391 HOOKER RD,WEST SUNBURY,16061
PA Pre-K Counts,Butler,BUTLER COUNTY CHILDRENS CENTER INC,,CONNOQUENESSING VALLEY ELEMENTARY,300 S PITTSBURGH ST,ZELIENOPLE,16063
PA Pre-K Counts,Lawrence,LAWRENCE COUNTY SOCIAL SERVICES INC,,BEN FRANKLIN EARLY LEARNING CENTER,815 CUNNINGHAM AVE,NEW CASTLE,16101
PA Pre-K Counts,Lawrence,MIDWESTERN INTERMEDIATE UNIT IV,DEBRA G MARINO,BRIGHT STAR LEARNING CENTER II,745 S MILL ST,NEW CASTLE,16101
PA Pre-K Counts,Lawrence,MIDWESTERN INTERMEDIATE UNIT IV,DEBRA G MARINO,BRIGHT STAR LRNG CTR,1315 E WASHINGTON ST,NEW CASTLE,16101
PA Pre-K Counts,Lawrence,LAWRENCE COUNTY SOCIAL SERVICES INC,UNITED COMMUNITY SRVCS OF LAWRENCE COUNTY INC,FREW MILL CAMPUS,1745 FREW MILL RD,NEW CASTLE,16101
PA Pre-K Counts,Lawrence,MIDWESTERN INTERMEDIATE UNIT IV,LAWRENCE COUNTY SOCIAL SERVICES INC,FREW MILL CAMPUS,1745 FREW MILL RD,NEW CASTLE,16101
PA Pre-K Counts,Lawrence,LAWRENCE COUNTY SOCIAL SERVICES INC,,FREW MILL CAMPUS,1745 FREW MILL RD,NEW CASTLE,16101
PA Pre-K Counts,Lawrence,LAWRENCE COUNTY SOCIAL SERVICES INC,,LAUREL ELEMENTARY,223 MCCASLIN RD,NEW CASTLE,16101
PA Pre-K Counts,Lawrence,PRE-K KIDS LEARNING CENTER INC,,PRE-K KIDS LEARNING CENTER INC,2740 ELLWOOD RD,NEW CASTLE,16101
PA Pre-K Counts,Lawrence,MIDWESTERN INTERMEDIATE UNIT IV,LAWRENCE COUNTY SOCIAL SERVICES INC,SHENANGO ELEMENTARY SCHOOL,2501 OLD PITTSBURGH RD,NEW CASTLE,16101
PA Pre-K Counts,Lawrence,LAWRENCE COUNTY SOCIAL SERVICES INC,,SHENANGO ELEMENTARY SCHOOL,2501 OLD PITTSBURGH RD,NEW CASTLE,16101
PA Pre-K Counts,Lawrence,LAWRENCE COUNTY SOCIAL SERVICES INC,,NESHANNOCK MEMORIAL ELEMENTARY SCHOOL,3834 MITCHELL RD,NEW CASTLE,16105
PA Pre-K Counts,Lawrence,LAWRENCE COUNTY SOCIAL SERVICES INC,,MOHAWK CENTER,351 MOHAWK SCHOOL RD,BESSEMER,16112
PA Pre-K Counts,Lawrence,TROB ENTERPRISE LLC,,SWEET PEA PATCH,4130 W STATE ST,EDINBURG,16116
PA Pre-K Counts,Lawrence,LAWRENCE COUNTY SOCIAL SERVICES INC,,ELLWOOD CITY EARLY LEARNING CENTER,924 CRESCENT AVE,ELLWOOD CITY,16117
PA Pre-K Counts,Lawrence,LAWRENCE COUNTY SOCIAL SERVICES INC,UNITED COMMUNITY SRVCS OF LAWRENCE COUNTY INC,ELLWOOD CITY EARLY LRNG CTR,924 CRESCENT AVE,ELLWOOD CITY,16117
PA Pre-K Counts,Lawrence,LAWRENCE COUNTY SOCIAL SERVICES INC,,HARTMAN ELEMENTARY,401 4TH ST,ELLWOOD CITY,16117
PA Pre-K Counts,Beaver,RIVERSIDE BEAVER COUNTY SC DIS,,RIVERSIDE ELEMENTARY SCHOOL,302 COUNTRY CLUB DR,ELLWOOD CITY,16117
PA Pre-K Counts,Mercer,ZION EDUCATION CENTER,,ZION EDUCATION CENTER,602 ROEMER BLVD,FARRELL,16121
PA Pre-K Counts,Mercer,COMMUNITY ACTION PARTNERSHIP OF MERCER COUNTY,,THIEL COLLEGE,75 COLLEGE AVE,GREENVILLE,16125
PA Pre-K Counts,Mercer,COMMUNITY ACTION PARTNERSHIP OF MERCER COUNTY,,HIGHLAND ELEM SCHOOL,611 HIGHLAND AVE,GROVE CITY,16127
PA Pre-K Counts,Mercer,COMMUNITY ACTION PARTNERSHIP OF MERCER COUNTY,,MERCER AREA SD,301 LAMORE RD,MERCER,16137
PA Pre-K Counts,Lawrence,LAWRENCE COUNTY SOCIAL SERVICES INC,,NEW WILMINGTON AREA ELEMENTARY,350 WOOD ST,NEW WILMINGTON,16142
PA Pre-K Counts,Mercer,COMMUNITY ACTION PARTNERSHIP OF MERCER COUNTY,,COLLABORATIVE COMMUNITY SERVICES,753 CEDAR AVE,SHARON,16146
PA Pre-K Counts,Mercer,COMMUNITY ACTION PARTNERSHIP OF MERCER COUNTY,,ARTMAN ELEMENTARY SD,343 N HERMITAGE RD,HERMITAGE,16148
PA Pre-K Counts,Mercer,BUILDING BLOCKS CHILD CENTER INC,,BUILDING BLOCKS CHILD CENTER INC,4075 LAMOR RD,HERMITAGE,16148
PA Pre-K Counts,Mercer,CHILDRENS CENTER OF MERCER COUNTY,,CHILDRENS CENTER OF MERCER COUNTY,900 N HERMITAGE RD,HERMITAGE,16148
PA Pre-K Counts,Mercer,MIDWESTERN INTERMEDIATE UNIT IV,CREATIVE PRESCHOOL AND DAY CARE INC,CREATIVE PRESCHOOL AND DAY CARE,701 PIERCE AVE,SHARPSVILLE,16150
PA Pre-K Counts,Mercer,KEYSTONE SMILES COMMUNITY LEARNING CENTER,,SHARPSVILLE GARDENS CHILDRENS DEV CTR,51 E SHENANGO ST,SHARPSVILLE,16150
PA Pre-K Counts,Mercer,COMMUNITY ACTION PARTNERSHIP OF MERCER COUNTY,,WEST MIDDLESEX CENTER,3591 SHARON RD,WEST MIDDLESEX,16159
PA Pre-K Counts,Armstrong,Lifesteps Inc,,Lifesteps Armstrong PKC,162 S Jefferson St,Kittanning,16201
PA Pre-K Counts,Clarion,"JEFFERSON-CLARION HEAD START, INC.",,CLARION ELEMENTARY,800 BOUNDARY ST,CLARION,16214
PA Pre-K Counts,Clarion,KEYSTONE SMILES COMMUNITY LEARNING CENTER,CREATIVE KIDS LEARNING CENTER INC,CREATIVE KIDS,15898 ROUTE 322 STE 2,CLARION,16214
PA Pre-K Counts,Butler,BUTLER COUNTY CHILDRENS CENTER INC,,SUGARCREEK CENTER,1290 STATE ROUTE 268,COWANSVILLE,16218
PA Pre-K Counts,Armstrong,BUTLER COUNTY CHILDRENS CENTER INC,,SOUTH BUFFALO,562 FREEPORT RD,FREEPORT,16229
PA Pre-K Counts,Clarion,KEYSTONE SMILES COMMUNITY LEARNING CENTER,,KEYSTONE SMILES COMMUNITY CHILD CARE CTR,518 MAIN ST,KNOX,16232
PA Pre-K Counts,Clarion,"JEFFERSON-CLARION HEAD START, INC.",,KNOX CENTER,451 HUSTON AVE,KNOX,16232
PA Pre-K Counts,Forest,SENECA HIGHLANDS IU 9,FOREST AREA SCHOOL DISTRICT,EAST FOREST ELEMENTARY SCHOOL,313 PIONEER LN,MARIENVILLE,16239
PA Pre-K Counts,Clarion,"JEFFERSON-CLARION HEAD START, INC.",,REDBANK PREK COUNTS,401 BROAD ST,NEW BETHLEHEM,16242
PA Pre-K Counts,Clarion,"JEFFERSON-CLARION HEAD START, INC.",,RIMERSBURG/SLIGO PRE-K COUNTS,88 SCHOOL ST,RIMERSBURG,16248
PA Pre-K Counts,Clarion,"JEFFERSON-CLARION HEAD START, INC.",,C L PRE K COUNTS,4091 C-L SCHOOL RD,STRATTANVILLE,16258
PA Pre-K Counts,Venango,CHILD DEVELOPMENT CENTERS INC,,HASSON HEIGHTS CHILD DEVELOPMENT CENTER,255 PARK AVE,OIL CITY,16301
PA Pre-K Counts,Crawford,FAMILY & COMMUNITY CHRISTIAN ASSOCIATION,,FCCA PKC COCHRANTON,225 S FRANKLIN ST,COCHRANTON,16314
PA Pre-K Counts,Crawford,FAMILY & COMMUNITY CHRISTIAN ASSOCIATION,,FCCA/CONNEAUT LAKE,630 LINE ST,CONNEAUT LAKE,16316
PA Pre-K Counts,Venango,CHILD DEVELOPMENT CENTERS INC,,FRANKLIN SCHOOL-AGE CHILD DEVELOPMENT CENTER,614 11TH ST,FRANKLIN,16323
PA Pre-K Counts,Venango,FAMILY & COMMUNITY CHRISTIAN ASSOCIATION,VALLEY GROVE SCHOOL DIST,VALLEY GROVE ELEMENTARY,389 SUGARCREEK DR,FRANKLIN,16323
PA Pre-K Counts,Venango,CHILD DEVELOPMENT CENTERS INC,YMCA OF FRANKLIN AND GROVE CITY,YMCA LEARNING CENTER,111 W PARK ST,FRANKLIN,16323
PA Pre-K Counts,Crawford,PENNSYLVANIA WESTERN UNIVERSITY OF PENNSYLVANIA,CREATING LANDSCAPES LEARNING CENTERS INC,CREATING LANDSCAPES EARLY LEARNING CENTERS INC,346 CHESTNUT ST,MEADVILLE,16335
PA Pre-K Counts,Crawford,FAMILY & COMMUNITY CHRISTIAN ASSOCIATION,,EAST END PRE K COUNTS,640 WALNUT ST,MEADVILLE,16335
PA Pre-K Counts,Crawford,FAMILY & COMMUNITY CHRISTIAN ASSOCIATION,,GILL COMMONS PRE K COUNTS,275 WALKER DR,MEADVILLE,16335
PA Pre-K Counts,Crawford,PENNSYLVANIA WESTERN UNIVERSITY OF PENNSYLVANIA,MEADVILLE CHILDRENS CENTER,MEADVILLE CHILDRENS CENTER,400 N MAIN ST,MEADVILLE,16335
PA Pre-K Counts,Crawford,FAMILY & COMMUNITY CHRISTIAN ASSOCIATION,MEADVILLE COOPERATIVE PRESCHOOL,MEADVILLE COOPERATIVE PRESCHOOL INC,400 N MAIN ST,MEADVILLE,16335
PA Pre-K Counts,Crawford,CHILD DEVELOPMENT CENTERS INC,,WILLOW CHILD DEVELOPMENT CENTER,15438 ROUTE 86,MEADVILLE,16335
PA Pre-K Counts,Crawford,PENNSYLVANIA WESTERN UNIVERSITY OF PENNSYLVANIA,MEADVILLE YMCA,YMCA CHILD CARE,356 CHESTNUT ST,MEADVILLE,16335
PA Pre-K Counts,Crawford,PENNSYLVANIA WESTERN UNIVERSITY OF PENNSYLVANIA,MEADVILLE YMCA,YMCA VERNON CHILD CARE,16864 CONNEAUT LAKE RD,MEADVILLE,16335
PA Pre-K Counts,Venango,CHILD DEVELOPMENT CENTERS INC,,CRANBERRY CHILD DVPT CTR,180 SALINA RD,SENECA,16346
PA Pre-K Counts,Clarion,NORTH CLARION COUNTY SCH DIS,,NORTH CLARION SD,10439 ROUTE 36,TIONESTA,16353
PA Pre-K Counts,Forest,SENECA HIGHLANDS IU 9,FOREST AREA SCHOOL DISTRICT,WEST FOREST ELEMENTARY SCHOOL,22318 ROUTE 62,TIONESTA,16353
PA Pre-K Counts,Crawford,FAMILY & COMMUNITY CHRISTIAN ASSOCIATION,,FCCA/TITUSVILLE 2,330 E SPRUCE ST,TITUSVILLE,16354
PA Pre-K Counts,Crawford,FAMILY & COMMUNITY CHRISTIAN ASSOCIATION,,FCCA/MAPLEWOOD,32695 STATE HIGHWAY 408,TOWNVILLE,16360
PA Pre-K Counts,Warren,KEYSTONE SMILES COMMUNITY LEARNING CENTER,JEFFERSON DEFREES FAMILY CENTER,JEFFERSON DEFREES FAMILY CENTER,207 2ND AVE,WARREN,16365
PA Pre-K Counts,Warren,WARREN FOREST COUNTIES ECONOMIC OPPORTUNITY COUNCI,,MCCLINTOCK HEAD START,1209 PENNSYLVANIA AVE W,WARREN,16365
PA Pre-K Counts,Warren,KEYSTONE SMILES COMMUNITY LEARNING CENTER,BOARD OF DIRECTORS OF THE ROUSE ESTATE,H R ROUSE CHILDRENS CENTER,238 E MAIN ST,YOUNGSVILLE,16371
PA Pre-K Counts,Erie,YMCA OF GREATER ERIE,,YMCA/NORTHWESTERN ELEMENTARY,100 HARTHAN WAY,ALBION,16401
PA Pre-K Counts,Crawford,FAMILY & COMMUNITY CHRISTIAN ASSOCIATION,,CAMBRIDGE SPRINGS,130 STEELE ST,CAMBRIDGE SPRINGS,16403
PA Pre-K Counts,Crawford,FAMILY & COMMUNITY CHRISTIAN ASSOCIATION,,CONNEAUT VALLEY,22491 ST HWY 18,CONNEAUTVILLE,16406
PA Pre-K Counts,Crawford,PENNSYLVANIA WESTERN UNIVERSITY OF PENNSYLVANIA,TIMBER RIDGE PROGRAM INC,TIMBER RIDGE CHILD CARE CENTER,1015 MAIN ST,CONNEAUTVILLE,16406
PA Pre-K Counts,Erie,CORRY AREA SCHOOL DISTRICT,,CORRY AREA SD,423 WAYNE ST,CORRY,16407
PA Pre-K Counts,Erie,DR GERTRUDE A BARBER CENTER INC,,CORRY ELEMENTARY,423 WAYNE ST,CORRY,16407
PA Pre-K Counts,Erie,PENNSYLVANIA WESTERN UNIVERSITY OF PENNSYLVANIA,YMCA OF CORRY,YMCA OF CORRY-CHILD DEVELOPMENT CENTER,906 N CENTER ST,CORRY,16407
PA Pre-K Counts,Erie,YMCA OF GREATER ERIE,,YMCA OF GREATER ERIE/EARLY LRNG UNIVERSITY,301 DARROW RD,EDINBORO,16412
PA Pre-K Counts,Erie,YMCA OF GREATER ERIE,SAINT STEPHEN'S EPISCOPAL CHURCH NS,SAINT STEPHEN'S NURSERY SC,1070 DUTCH RD,FAIRVIEW,16415
PA Pre-K Counts,Erie,MILLCREEK TOWNSHIP SCHOOL DISTRICT,,WALNUT CREEK INFANT AND TODDLER CHILD DEVELOPMENT,5901 STERRETTANIA RD,FAIRVIEW,16415
PA Pre-K Counts,Erie,CHILD DEVELOPMENT CENTERS INC,,ELK VALLEY HEAD START,2556 MAPLE AVE,LAKE CITY,16423
PA Pre-K Counts,Erie,YMCA OF GREATER ERIE,,YMCA OF GREATER ERIE-MCKEAN ELEM YMCA PROGRAM,5120 WEST RD,MC KEAN,16426
PA Pre-K Counts,Erie,EARLY CONNECTIONS,,EARLY CONNECTIONS NORTH EAST,50 E DIVISION ST,NORTH EAST,16428
PA Pre-K Counts,Crawford,FAMILY & COMMUNITY CHRISTIAN ASSOCIATION,,SAEGERTOWN,18741 STATE HIGHWAY 198,SAEGERTOWN,16433
PA Pre-K Counts,Erie,EARLY CONNECTIONS,,EARLY CONNECTIONS/UNION CITY,16380 ROUTE 8,UNION CITY,16438
PA Pre-K Counts,Erie,YMCA OF GREATER ERIE,,YMCA OF GREATER ERIE/WATERFORD YMCA,112 W 3RD ST,WATERFORD,16441
PA Pre-K Counts,Erie,PENNSYLVANIA WESTERN UNIVERSITY OF PENNSYLVANIA,HER POWER,ABC 24 HR CHILD CARE ABOVE AND BEYOND 24 HR CH,1325 STATE ST,ERIE,16501
PA Pre-K Counts,Erie,CHILD DEVELOPMENT CENTERS INC,,DOWNTOWN CHILD DEVELOPMENT CENTER,121 E 10TH ST,ERIE,16501
PA Pre-K Counts,Erie,YMCA OF GREATER ERIE,,DOWNTOWN YMCA,31 W 10TH ST,ERIE,16501
PA Pre-K Counts,Erie,EARLY CONNECTIONS,,EARLY CONNECTIONS/CITY CENTER,704 STATE ST,ERIE,16501
PA Pre-K Counts,Erie,PENNSYLVANIA WESTERN UNIVERSITY OF PENNSYLVANIA,HANDLED WITH CARE CHILDCARE FACILITY LLC,HANDLED WITH CARE CHILDCARE FACILITY LLC,925 STATE ST,ERIE,16501
PA Pre-K Counts,Erie,ST MARTIN EARLY LEARNING CENTER,,ST MARTIN EARLY LEARNING CENTER,1727 STATE ST,ERIE,16501
PA Pre-K Counts,Erie,Erie City SD,Early Connections,Early Connections City Center,704 State St ,Erie,16501
PA Pre-K Counts,Erie,Erie City SD,YMCA of Greater Erie,YMCA of Greater Erie,31 West 10th St ,Erie,16501
PA Pre-K Counts,Erie,CHILD DEVELOPMENT CENTERS INC,,ROOSEVELT CHILD DEVELOPMENT CENTER,2300 CRANBERRY ST,ERIE,16502
PA Pre-K Counts,Erie,MULTICULTURAL COMMUNITY RESOURCE CENTER,,MULTICULTURAL COMMUNITY RESOURCE CENTER,554 E 10TH ST,ERIE,16503
PA Pre-K Counts,Erie,BENEDICTINE SISTERS INC,,SAINT BENEDICT CENTER,345 E 9TH ST,ERIE,16503
PA Pre-K Counts,Erie,Erie City SD,Benedictine Sisters of Erie,Benedictine Sisters of Erie,345 East 9th St ,Erie,16503
PA Pre-K Counts,Erie,Erie City SD,,McKinley Elementary School,933 East 22nd St ,Erie,16503
PA Pre-K Counts,Erie,Erie City SD,,Pfeiffer-Burleigh Elementary School,235 East 11th St ,Erie,16503
PA Pre-K Counts,Erie,Erie City SD,,Jefferson Elementary School,230 East 38th St ,Erie,16504
PA Pre-K Counts,Erie,Erie City SD,,Lincoln Elementary School classroom 1,831 East 31st St ,Erie,16504
PA Pre-K Counts,Erie,MILLCREEK TOWNSHIP SCHOOL DISTRICT,,MTSD/WESTLAKE EARLY LEARNING CENTER,4330 W LAKE RD,ERIE,16505
PA Pre-K Counts,Erie,Erie City SD,,Harding Elementary School,820 Lincoln Ave ,Erie,16505
PA Pre-K Counts,Erie,CHILD DEVELOPMENT CENTERS INC,,ASBURY CHILD DEVELOPMENT CENTER,3814 ASBURY RD,ERIE,16506
PA Pre-K Counts,Erie,MILLCREEK TOWNSHIP SCHOOL DISTRICT,,MCDOWELL PRESCHOOL CHILD DEVELOPMENT,3580 W 38TH ST,ERIE,16506
PA Pre-K Counts,Erie,DR GERTRUDE A BARBER CENTER INC,,DR GERTRUDE A BARBER CENTER-CHILD CARE,100 BARBER PL,ERIE,16507
PA Pre-K Counts,Erie,YMCA OF GREATER ERIE,,YMCA OF GREATER ERIE/GLENWOOD YMCA DAY CARE CTR,3727 CHERRY ST,ERIE,16508
PA Pre-K Counts,Erie,Erie City SD,,Grover Cleveland Elementary School,1540 West 38th St ,Erie,16508
PA Pre-K Counts,Erie,Erie City SD,,Perry Elementary School,955 West 29th St ,Erie,16508
PA Pre-K Counts,Erie,MILLCREEK TOWNSHIP SCHOOL DISTRICT,,BELLE VALLEY CHILD DEVELOPMENT,5300 HENDERSON RD,ERIE,16509
PA Pre-K Counts,Erie,YMCA OF GREATER ERIE,,SUMMIT UM CHURCH-YMCA PROGRAM,1510 TOWNHALL RD W,ERIE,16509
PA Pre-K Counts,Erie,YMCA OF GREATER ERIE,,YMCA OF ERIE/WATTSBURG ELEMENTARY,10780 WATTSBURG RD,ERIE,16509
PA Pre-K Counts,Erie,EARLY CONNECTIONS,,EARLY CONNECTIONS/HARBOR HOMES EARLY LRNG CTR,1841 E 18TH ST,ERIE,16510
PA Pre-K Counts,Erie,YMCA OF GREATER ERIE,,EASTSIDE YMCA DAY CARE CENTER,2101 NAGLE RD,ERIE,16510
PA Pre-K Counts,Erie,Erie City SD,,Diehl elementary School,2327 Fairmont Parkway ,Erie,16510
PA Pre-K Counts,Erie,Erie City SD,,Joanna Connell classroom 1 Elementary School,1820 East 38th St ,Erie,16510
PA Pre-K Counts,Erie,EARLY CONNECTIONS,IROQUOIS AREA SCHOOL DISTRICT,IROQUOIS ELEMENTARY SCHOOL,4231 MORSE ST,ERIE,16511
PA Pre-K Counts,Erie,Erie City SD,,Edison Elementary School,1921 East Lake Rd ,Erie,16511
PA Pre-K Counts,Blair,KIDS FIRST CENTER FOR EARLY LEARNING,,KIDS FIRST CENTER FOR EARLY LEARNING,4 SHERATON DR,ALTOONA,16601
PA Pre-K Counts,Blair,BEGIN WITH US CHILDCARE AND PRESCHOOL INC,,BEGIN WITH US CHILD CARE AND PRESCHOOL,908 SOUTH 8TH STREET,ALTOONA,16602
PA Pre-K Counts,Blair,BEGIN WITH US CHILDCARE AND PRESCHOOL INC,,BEGIN WITH US CHILD CARE AND PRESCHOOL BLD B,729 GRANT AVE,ALTOONA,16602
PA Pre-K Counts,Blair,BEGIN WITH US CHILDCARE AND PRESCHOOL INC,,BEGIN WITH US CHILDCARE AND PRESCHOOL,703 GRANT AVE,ALTOONA,16602
PA Pre-K Counts,Blair,ALTOONA AREA SCHOOL,,LEARNING EXPRESS,420 1ST AVE,ALTOONA,16602
PA Pre-K Counts,Blair,CHILD ADVOCATES OF BLAIR COUNTY INC,,WASHINGTON JEFFERSON ELEMENTARY SCH,420 FIRST AVENUE,ALTOONA,16602
PA Pre-K Counts,Huntingdon,HCCADC,,FIRST CHOICE CHILD CARE/JUNIATA VALLEY,7568 BRIDGE ST,ALEXANDRIA,16611
PA Pre-K Counts,Blair,CHILD ADVOCATES OF BLAIR COUNTY INC,,MYERS ELEMENTARY SCHOOL,220 MARTIN ST,BELLWOOD,16617
PA Pre-K Counts,Blair,CHILD ADVOCATES OF BLAIR COUNTY INC,,CLAYSBURG-KIMMEL ELEMENTARY,240 C K ELEMENTARY DR,CLAYSBURG,16625
PA Pre-K Counts,Cambria,CAMBRIA COUNTY CHILD DEVELOPMENT CORPORATION,,MAC LEARNING CENTER,5 COLLEGE DR,CRESSON,16630
PA Pre-K Counts,Cambria,PENN CAMBRIA SCHOOL DISTRICT,,PRE-PRIMARY SCHOOL,205 6TH ST,CRESSON,16630
PA Pre-K Counts,Bedford,TUSSEY MOUNTAIN SCHOOL DISTRICT,ALLEGHENY LUTHERAN SOCIAL MINISTRIES INC,DEFIANCE,124 HITCHENS RD,DEFIANCE,16633
PA Pre-K Counts,Blair,CHILD DEVELOPMENT & FAMILY COUNCIL OF CENTRE CO,HOLLIDAYSBURG AREA YMCA,HOLLIDAYSBURG AREA YMCA EARLY LEARNING CENTER,2459 RESERVOIR RD,HOLLIDAYSBURG,16648
PA Pre-K Counts,Clearfield,CEN CLEAR CHILD SERVICES INC,,HOUTZDALE CHILD AND FAMILY CENTER,947 SPRING ST,HOUTZDALE,16651
PA Pre-K Counts,Clearfield,CEN CLEAR CHILD SERVICES INC,,MOSHANNON VALLEY ELEMENTARY,5026 GREEN ACRE RD,HOUTZDALE,16651
PA Pre-K Counts,Huntingdon,HCCADC,,SOUTH SIDE ELEMENTARY,10906 STATION RD,HUNTINGDON,16652
PA Pre-K Counts,Huntingdon,HUNTINGDON AREA SCHOOL DISTRICT,,SOUTHSIDE ELEMENTARY SCHOOL,10906 STATION RD,HUNTINGDON,16652
PA Pre-K Counts,Blair,CHILD ADVOCATES OF BLAIR COUNTY INC,,SPRING COVE 2,137 SPRING COVE DR,ROARING SPRING,16673
PA Pre-K Counts,Bedford,TUSSEY MOUNTAIN SCHOOL DISTRICT,,TUSSEY LEARNING CENTER,199 FRONT ST,SAXTON,16678
PA Pre-K Counts,Blair,TYRONE AREA SCHOOL DISTRICT,,TYRONE AREA ELEMENTARY SCHOOL,601 CLAY AVE,TYRONE,16686
PA Pre-K Counts,Clearfield,CEN CLEAR CHILD SERVICES INC,HARMONY SCHOOL BOARD,HARMONY ELEMENTARY SCHOOL,5239 RIDGE ROAD,WESTOVER,16692
PA Pre-K Counts,Blair,CHILD ADVOCATES OF BLAIR COUNTY INC,,WILLIAMSBURG ELEMENTARY,607 SAGE HILL DR,WILLIAMSBURG,16693
PA Pre-K Counts,McKean,SENECA HIGHLANDS IU 9,BRADFORD AREA SCHOOL DISTRICT,GEORGE G. BLASDELL ELEMENTARY,265 CONSTITUTION AVE,BRADFORD,16701
PA Pre-K Counts,McKean,SENECA HIGHLANDS IU 9,YMCA OF OLEAN NY AND BRADFORD PA,YMCA CHILD CARE,55 BOYLSTON ST # 59,BRADFORD,16701
PA Pre-K Counts,Potter,SENECA HIGHLANDS IU 9,AUSTIN AREA SD,AUSTIN AREA SD,138 COSTELLO AVE,AUSTIN,16720
PA Pre-K Counts,McKean,SENECA HIGHLANDS IU 9,KIDS LEARNING CENTER,KIDS LEARNING CENTER,226 CHESTNUT ST STE 102,KANE,16735
PA Pre-K Counts,McKean,SENECA HIGHLANDS IU 9,PORT ALLEGANY SCHOOL DISTRICT,PORT ALLEGANY,85 CLYDE LYNCH DR,PORT ALLEGANY,16743
PA Pre-K Counts,Potter,SENECA HIGHLANDS IU 9,OSWAYO VALLEY SD,OSWAYO VALLEY SD,277 S OSWAYO ST,SHINGLEHOUSE,16748
PA Pre-K Counts,McKean,SENECA HIGHLANDS IU 9,SMETHPORT AREA SD,SMETHPORT AREA SD,414 S MECHANIC ST,SMETHPORT,16749
PA Pre-K Counts,Centre,CHILD DEVELOPMENT & FAMILY COUNCIL OF CENTRE CO,,DISCOVERY CHILD DEVELOPMENT CENTER,870 STRATFORD DR,STATE COLLEGE,16801
PA Pre-K Counts,Centre,THE PENNSYLVANIA STATE UNIVERSITY,OUR CHILDRENS CENTER,OUR CHILDRENS CENTER,411 S BURROWES ST,STATE COLLEGE,16801
PA Pre-K Counts,Centre,CHILD DEVELOPMENT & FAMILY COUNCIL OF CENTRE CO,ST PAULS UMC AND WESLEY FOUNDATION,ST PAULS CHRISTIAN PRESCHOOL,127 MCALLISTER ST,STATE COLLEGE,16801
PA Pre-K Counts,Centre,THE PENNSYLVANIA STATE UNIVERSITY,ST PAULS UMC AND WESLEY FOUNDATION,ST PAULS CHRISTIAN PRESCHOOL,127 MCALLISTER ST,STATE COLLEGE,16801
PA Pre-K Counts,Centre,CHILD DEVELOPMENT & FAMILY COUNCIL OF CENTRE CO,DEVELOPMENTAL ASSOCIATES INC,THE LEARNING STATION,3035 ENTERPRISE DR,STATE COLLEGE,16801
PA Pre-K Counts,Centre,THE PENNSYLVANIA STATE UNIVERSITY,,THE BENNETT FAMILY CENTER,123 BENNETT FAMILY CTR,UNIVERSITY PARK,16802
PA Pre-K Counts,Centre,THE PENNSYLVANIA STATE UNIVERSITY,BRIGHT HORIZONS CHILDRENS CENTERS LLC,DAYBRIDGE,301 INNOVATION BLVD,STATE COLLEGE,16803
PA Pre-K Counts,Centre,THE PENNSYLVANIA STATE UNIVERSITY,RRJ ENTERPRISES LLC,STEP BY STEP SCHOOL FOR EARLY LEARNING,106 VILLAGE DR,STATE COLLEGE,16803
PA Pre-K Counts,Centre,CEN CLEAR CHILD SERVICES INC,,BELLEFONTE ELEMENTARY,100 W LINN ST,BELLEFONTE,16823
PA Pre-K Counts,Centre,THE PENNSYLVANIA STATE UNIVERSITY,YMCA OF CENTRE COUNTY,BELLEFONTE FAMILY YMCA DAY CARE CENTER,125 W HIGH ST,BELLEFONTE,16823
PA Pre-K Counts,Centre,CEN CLEAR CHILD SERVICES INC,,WINGATE ELEMENTARY,751 S EAGLE VALLEY RD,WINGATE,16823
PA Pre-K Counts,Clearfield,CHILDRENS AID SOCIETY IN CLEARFIELD CTY,,CHILDRENS AID SOCIETY IN CLEARFIELD CTY,1004 S 2ND ST,CLEARFIELD,16830
PA Pre-K Counts,Centre,CEN CLEAR CHILD SERVICES INC,,HOWARD ELEMENTARY,255 SCHOOL ST,HOWARD,16841
PA Pre-K Counts,Clearfield,CEN CLEAR CHILD SERVICES INC,,CEN-CLEAR CHILD SERVICES HEAD START,1224 GRAHAM ST,HYDE,16843
PA Pre-K Counts,Centre,THE PENNSYLVANIA STATE UNIVERSITY,ST JOHNS EVANGELICAL LUTHERAN CONGREGA,ST JOHNS CHILDHOOD CENTER,101 MILL ST,MILLHEIM,16854
PA Pre-K Counts,Clearfield,CEN CLEAR CHILD SERVICES INC,WEST BRANCH AREA SCHOOL DIS,WEST BRANCH ELEMENTARY,356 ALLPORT CUTOFF,MORRISDALE,16858
PA Pre-K Counts,Clearfield,CEN CLEAR CHILD SERVICES INC,,WEST BRANCH ELEMENTARY,356 ALLPORT CUTOFF,MORRISDALE,16858
PA Pre-K Counts,Centre,CHILD DEVELOPMENT & FAMILY COUNCIL OF CENTRE CO,,PHILIPSBURG CHILD DEVELOPMENT CENTER,328 N FRONT ST,PHILIPSBURG,16866
PA Pre-K Counts,Clearfield,CEN CLEAR CHILD SERVICES INC,,PHILIPSBURG PRESCHOOL CAMPUS,580 OLD ROUTE 322,PHILIPSBURG,16866
PA Pre-K Counts,Centre,CEN CLEAR CHILD SERVICES INC,,MATTERNVILLE PRE-SCHOOL,3638 N ATHERTON ST,PORT MATILDA,16870
PA Pre-K Counts,Centre,CEN CLEAR CHILD SERVICES INC,,REBERSBURG HEAD START,80 TOWN LANE RD,REBERSBURG,16872
PA Pre-K Counts,Tioga,SOUTHERN TIOGA SCHOOL DISTRICT,TODDLER UNIVERSITY,TODDLER UNIVERSITY DAYCARE AND PRESCHOOL INC,244 MAIN ST,BLOSSBURG,16912
PA Pre-K Counts,Potter,SENECA HIGHLANDS IU 9,COUDERSPORT AREA SCHOOL DISTRICT,COUDERSPORT ELEMENTARY,802 VINE ST,COUDERSPORT,16915
PA Pre-K Counts,Tioga,BRADFORD TIOGA HEAD START INC.,,ELKLAND 1,117 COATES AVE,ELKLAND,16920
PA Pre-K Counts,Tioga,STEPPING STONES PRESCHOOL INC,,STEPPING STONES PRESCHOOL,102 COATES AVE,ELKLAND,16920
PA Pre-K Counts,Potter,SENECA HIGHLANDS IU 9,GALETON AREA SD,GALETON AREA SD,25 BRIDGE ST,GALETON,16922
PA Pre-K Counts,Tioga,SOUTHERN TIOGA SCHOOL DISTRICT,ACORNS TO OAKS CHILDCARE CENTER LLC,ACORNS TO OAKS CHILDCARE CENTER LLC,125 WILSON AVE,MANSFIELD,16933
PA Pre-K Counts,Tioga,SOUTHERN TIOGA SCHOOL DISTRICT,JOYFUL HAPPENINGS DAYCARE INC,JOYFUL HAPPENINGS DAYCARE INC,44 W ELMIRA ST,MANSFIELD,16933
PA Pre-K Counts,Tioga,SOUTHERN TIOGA SCHOOL DISTRICT,MANSFIELD AREA NURSERY SCHOOL,MANSFIELD AREA NURSERY SCHOOL,1 DORSETT DR,MANSFIELD,16933
PA Pre-K Counts,Tioga,SOUTHERN TIOGA SCHOOL DISTRICT,STEPPING STONES PRESCHOOL INC,STEPPING STONES PRESCHOOL,1 DORSETT DR,MANSFIELD,16933
PA Pre-K Counts,Tioga,STEPPING STONES PRESCHOOL INC,,STEPPING STONES PRESCHOOL,19 UNIVERSITY VIEW DR,MANSFIELD,16933
PA Pre-K Counts,Tioga,PENNYS DAYCARE LLC,,PENNYS DAYCARE LLC,23 LAKE ST,TIOGA,16946
PA Pre-K Counts,Bradford,STEPPING STONES PRESCHOOL INC,,STEPPING STONES PRESCHOOL,175 PAINE ST,TROY,16947
PA Pre-K Counts,Bradford,BRADFORD TIOGA HEAD START INC.,,TROY HEAD START 2,430 CANTON ST,TROY,16947
PA Pre-K Counts,Potter,SENECA HIGHLANDS IU 9,NORTHERN POTTER SCHOOL DISTRICT,NORTHERN POTTER CHILDRENS SCHOOL,745 NORTHERN POTTER RD,ULYSSES,16948
PA Pre-K Counts,Mifflin,GRACE COVENANT CHURCH,BELLEVILLE MENNONITE SCHOOL,BELLEVILLE MENNONITE SCHOOL,4105 FRONT MOUNTAIN RD,BELLEVILLE,17004
PA Pre-K Counts,Mifflin,GRACE COVENANT CHURCH,ST JOHNS EVANGELICAL LUTHERAN CHURCH,ST JOHNS CHRISTIAN DAY CARE,3597 W MAIN ST,BELLEVILLE,17004
PA Pre-K Counts,Perry,WEST PERRY SCHOOL DISTRICT,,BLAIN ELEMENTARY,132 BLAIN RD,BLAIN,17006
PA Pre-K Counts,Mifflin,GRACE COVENANT CHURCH,NEW LIFE CHURCH,PANDA PRESCHOOL & DAY CARE CENTER,101 N BEECH ST,BURNHAM,17009
PA Pre-K Counts,Dauphin,KEYSTONE SERVICE SYSTEMS INC,,LOWER ALLEN ELEMENTARY,4100 GETTYSBURG RD,CAMP HILL,17011
PA Pre-K Counts,Cumberland,CARLISLE DAY CARE CENTER INC,,CARLISLE EARLY EDUCATION CENTER,100 E POMFRET ST,CARLISLE,17013
PA Pre-K Counts,Cumberland,SHIPPENSBURG UNIVERSITY HEAD START,,LETORT ELEMENTARY,110 E SOUTH STREET,CARLISLE,17013
PA Pre-K Counts,Cumberland,KEYSTONE SERVICE SYSTEMS INC,,MIDDLESEX ELEMENTARY SCHOOL,250 N MIDDLESEX RD,CARLISLE,17013
PA Pre-K Counts,Perry,WEST PERRY SCHOOL DISTRICT,,CARROLL ELEMENTARY,2606 SHERMANS VALLEY RD,ELLIOTTSBURG,17024
PA Pre-K Counts,Cumberland,KUEHG CORP,,KINDERCARE LEARNING CENTER 301716,730 WERTZVILLE RD,ENOLA,17025
PA Pre-K Counts,Dauphin,HALIFAX AREA SCHOOL DISTRICT,,HALIFAX ELEMENTARY,3940 PETERS MOUNTAIN RD,HALIFAX,17032
PA Pre-K Counts,Lebanon,LANCASTER-LEBANON INTERMEDIATE UNIT 13,LEBANON SCHOOL DISTRICT,HARDING ELEMENTARY SCHOOL,622 CHESTNUT ST,LEBANON,17042
PA Pre-K Counts,Lebanon,LANCASTER-LEBANON INTERMEDIATE UNIT 13,LEBANON SCHOOL DISTRICT,SOUTHEAST ELEMENTARY SCHOOL,499 E PERSHING AVE,LEBANON,17042
PA Pre-K Counts,Lebanon,LANCASTER-LEBANON INTERMEDIATE UNIT 13,LEBANON SCHOOL DISTRICT,SOUTHWEST ELEMENTARY,1500 WOODLAND ST,LEBANON,17042
PA Pre-K Counts,Mifflin,GRACE COVENANT CHURCH,,HIDE-N-SEEK CHRISTIAN DAY CARE,227 WASHINGTON AVE,LEWISTOWN,17044
PA Pre-K Counts,Mifflin,SUMMIT EARLY LEARNING INC/SNYDER UNION MIFFLIN CHILD DEVELOPMENT I,,SUMMIT EARLY LEARNING MIFFLIN CTY ACAD OF SCI TECH,700 PITT ST,LEWISTOWN,17044
PA Pre-K Counts,Mifflin,SUMMIT EARLY LEARNING INC/SNYDER UNION MIFFLIN CHILD DEVELOPMENT I,,SUMMIT EARLY LEARNING-LEWISTOWN,10 BOLLINGER RD,LEWISTOWN,17044
PA Pre-K Counts,Lebanon,LANCASTER-LEBANON INTERMEDIATE UNIT 13,LEBANON VALLEY FAMILY YMCA,EDWARD AND JEANNE ARNOLD EARLY LEARNING CENTER,152 N 8TH ST,LEBANON,17046
PA Pre-K Counts,Lebanon,LANCASTER-LEBANON INTERMEDIATE UNIT 13,LEBANON SCHOOL DISTRICT,HENRY HOUCK ELEMENTARY SCHOOL,315 E LEHMAN ST,LEBANON,17046
PA Pre-K Counts,Lebanon,LANCASTER-LEBANON INTERMEDIATE UNIT 13,KOCHENDERFERS UNITED METHODIST CHURCH,KOCHENDERFERS CHRISTIAN DAY CARE,1105 KOCHENDERFER RD,LEBANON,17046
PA Pre-K Counts,Lebanon,LANCASTER-LEBANON INTERMEDIATE UNIT 13,LEBANON SCHOOL DISTRICT,NORTHWEST ELEMENTARY SCHOOL,1315 OLD FORGE RD,LEBANON,17046
PA Pre-K Counts,Dauphin,HALIFAX AREA SCHOOL DISTRICT,UPPER DAUPHIN AREA SCHOOL DISTRICT,UPPER DAUPHIN AREA ELEMENTARY SCHOOL,5668 STATE ROUTE 209,LYKENS,17048
PA Pre-K Counts,Cumberland,MECHANICSBURG LEARNING CENTER,,MECHANICSBURG LEARNING CENTER DELBROOK,4746 DELBROOK RD,MECHANICSBURG,17050
PA Pre-K Counts,Cumberland,KUEHG CORP,,KINDERCARE LEARNING CENTER 301628,335 CUMBERLAND PKWY,MECHANICSBURG,17055
PA Pre-K Counts,Cumberland,MECHANICSBURG LEARNING CENTER,,MECHANICSBURG BRETHREN IN CHRIST CHURCH,1060 S YORK ST,MECHANICSBURG,17055
PA Pre-K Counts,Cumberland,MECHANICSBURG AREA SCHOOL DISTRICT,,SHEPHERDSTOWN ELEMENTARY SCHOOL,1849 S YORK ST,MECHANICSBURG,17055
PA Pre-K Counts,Cumberland,MECHANICSBURG AREA SCHOOL DISTRICT,,UPPER ALLEN ELEMENTARY SCHOOL,1790 S MARKET ST,MECHANICSBURG,17055
PA Pre-K Counts,Juniata,TUSCARORA INTERMEDIATE UNIT 11,,PSJ-JUNIATA ELEMENTARY SCHOOL,75 S 7TH ST,MIFFLINTOWN,17059
PA Pre-K Counts,Dauphin,HALIFAX AREA SCHOOL DISTRICT,MILLERSBURG AREA SCHOOL DISTRICT,MILLERSBURG ELEMENTARY SCHOOL,520 S MARKET ST,MILLERSBURG,17061
PA Pre-K Counts,Perry,TUSCARORA INTERMEDIATE UNIT 11,,PSG-GREENWOOD ELEMENTARY SCHOOL,405 S SUNBURY ST,MILLERSTOWN,17062
PA Pre-K Counts,Cumberland,SHIPPENSBURG UNIVERSITY HEAD START,,MOUNT HOLLY SPRINGS ELEMENTARY,110 MOORELAND AVE,MOUNT HOLLY SPRI,17065
PA Pre-K Counts,Cumberland,SHIPPENSBURG UNIVERSITY HEAD START,,WG RICE ELEMENTARY,805 HOLLY PIKE,MOUNT HOLLY SPRI,17065
PA Pre-K Counts,Huntingdon,HCCADC,,MOUNT UNION,116 S WASHINGTON ST,MOUNT UNION,17066
PA Pre-K Counts,Perry,WEST PERRY SCHOOL DISTRICT,,NEW BLOOMFIELD ELEMENTARY,300 W HIGH ST,NEW BLOOMFIELD,17068
PA Pre-K Counts,Juniata,TUSCARORA INTERMEDIATE UNIT 11,,EXPLORERS CENTER,1012 SNYDER ST,RICHFIELD,17086
PA Pre-K Counts,Juniata,TUSCARORA INTERMEDIATE UNIT 11,,PSEJ EAST JUNIATA ELEMENTARY SCHOOL,54 MAIN ST,RICHFIELD,17086
PA Pre-K Counts,Dauphin,HARRISBURG SCHOOL DISTRICT,,BENJAMIN FRANKLIN ELEMENTARY,1205 N 6TH ST,HARRISBURG,17102
PA Pre-K Counts,Dauphin,BRIGHT FUTURES LEARNING CENTER INC,BRIGHT FUTURES EARLY LEARNING ACADEMY OF PA INC,BRIGHT FUTURES EARLY LEARNING ACADEMY,1745 N CAMERON ST,HARRISBURG,17103
PA Pre-K Counts,Dauphin,BRIGHT FUTURES LEARNING CENTER INC,,BRIGHT FUTURES LEARNING CENTERS INC,1745 N CAMERON ST,HARRISBURG,17103
PA Pre-K Counts,Dauphin,HARRISBURG SCHOOL DISTRICT,,DOWNEY ELEMENTARY SCHOOL,1313 MONROE ST,HARRISBURG,17103
PA Pre-K Counts,Dauphin,HANSEL AND GRETEL EARLY LEARNING CTR INC,,HANSEL AND GRETEL EARLY LEARNING CENTER,2206 WALNUT ST,HARRISBURG,17103
PA Pre-K Counts,Dauphin,BRIGHT FUTURES LEARNING CENTER INC,STUDIO KIDS EARLY LEARNING CENTER LLC,STUDIO KIDS EARLY LEARNING CENTER LLC,1223 N CAMERON ST,HARRISBURG,17103
PA Pre-K Counts,Dauphin,BRIGHT FUTURES LEARNING CENTER INC,YWCA OF GREATER HARRISBURG,YWCA CHILD DEVELOPMENT CENTER,1101 MARKET ST,HARRISBURG,17103
PA Pre-K Counts,Dauphin,KEYSTONE SERVICE SYSTEMS INC,,CAPITAL AREA HEAD START - FOOSE,1301 SYCAMORE ST,HARRISBURG,17104
PA Pre-K Counts,Dauphin,HANSEL AND GRETEL EARLY LEARNING CTR INC,,HANSEL AND GRETEL EARLY LEARNING CENTER,4820 LONDONDERRY RD,HARRISBURG,17109
PA Pre-K Counts,Dauphin,KUEHG CORP,,KINDERCARE LEARN CNT 073043,4075 LONDONDERRY RD,HARRISBURG,17109
PA Pre-K Counts,Dauphin,KUEHG CORP,,KINDERCARE LEARNING CENTER 301283,3701 VARTAN WAY,HARRISBURG,17110
PA Pre-K Counts,Dauphin,KEYSTONE SERVICE SYSTEMS INC,,PAXTONIA HEAD START,6003 JONESTOWN RD,HARRISBURG,17112
PA Pre-K Counts,Dauphin,BRIGHT FUTURES LEARNING CENTER INC,STUDIO KIDS EARLY LEARNING CENTER LLC,STUDIO KIDS LEARNING CENTER LLC,4620 LINGLESTOWN RD,HARRISBURG,17112
PA Pre-K Counts,Dauphin,BRIGHT FUTURES LEARNING CENTER INC,CHRIST CORNERSTONE PRODUCTIONS ACADEMY LLC,CHRIST CORNERSTONE PRODUCTIONS ACADEMY LLC,747 N FRONT ST,STEELTON,17113
PA Pre-K Counts,Dauphin,CHRIST CORNERSTONE PRODUCTIONS ACADEMY LLC,,CHRIST CORNERSTONE PRODUCTIONS ACADEMY LLC,747 N FRONT ST,STEELTON,17113
PA Pre-K Counts,Franklin,CHAMBERSBURG AREA SCHOOL DISTRICT,FRANKLIN COUNTY HEAD START,FIRST START PARTNERSHIPS ELC,871 STANLEY AVE,CHAMBERSBURG,17201
PA Pre-K Counts,Franklin,PATHSTONE CORPORATION,,FRANKLIN COUNTY CHILD & FAMILY DEVELOPMENT CENTER,301 LORTZ AVE,CHAMBERSBURG,17201
PA Pre-K Counts,Franklin,CHAMBERSBURG AREA SCHOOL DISTRICT,FRANKLIN COUNTY HEAD START,LINCOLN WAY EARLY LEARNING CENTER,2071 LINCOLN WAY E,CHAMBERSBURG,17202
PA Pre-K Counts,Franklin,GREENCASTLE-ANTRIM SCH DIST,FRANKLIN COUNTY HEAD START,FRANKLIN CO HEAD START - EVANGELICAL,130 N WASHINGTON ST,GREENCASTLE,17225
PA Pre-K Counts,Franklin,TUSCARORA SCHOOL DISTRICT,FRANKLIN COUNTY HEAD START,MERCERSBURG ELEMENTARY,30 S PARK AVE,MERCERSBURG,17236
PA Pre-K Counts,Cumberland,SHIPPENSBURG UNIVERSITY HEAD START,,NEWVILLE ELEMENTARY SCHOOL,100 STEELSTOWN RD,NEWVILLE,17241
PA Pre-K Counts,Franklin,TUSCARORA SCHOOL DISTRICT,FRANKLIN COUNTY HEAD START,TUSCARORA SCHOOL DISTRICT,70 SCHOOL HOUSE RD,SAINT THOMAS,17252
PA Pre-K Counts,Huntingdon,HCCADC,,SHADE GAP,11718 NEELYTON RD,SHADE GAP,17255
PA Pre-K Counts,Cumberland,SHIPPENSBURG UNIVERSITY HEAD START,,NANCY GRAYSON ELEMENTARY SCHOOL,301 LURGAN AVE,SHIPPENSBURG,17257
PA Pre-K Counts,Fulton,SOUTHERN FULTON SCHOOL DISTRICT,FULTON COUNTY FAMILY PARTNERSHIP INC,FULTON COUNTY FAMILY PARTNERSHIP SF CHILD CARE,SOUTHERN FULTON ELEMENTAR,WARFORDSBURG,17267
PA Pre-K Counts,Franklin,WAYNESBORO AREA SCHOOL DISTRICT,FRANKLIN COUNTY HEAD START,FAITH UNITED METHODIST,104 N POTOMAC ST,WAYNESBORO,17268
PA Pre-K Counts,Franklin,WAYNESBORO AREA SCHOOL DISTRICT,FRANKLIN COUNTY HEAD START,MOWERY ELEMENTARY,7891 TOMSTOWN RD,WAYNESBORO,17268
PA Pre-K Counts,Franklin,WAYNESBORO AREA SCHOOL DISTRICT,WAYNESBORO DAY CARE CTR INC,WAYNESBORO EARLY LEARNING CENTER,1801 E MAIN ST,WAYNESBORO,17268
PA Pre-K Counts,Franklin,WAYNESBORO AREA SCHOOL DISTRICT,FRANKLIN COUNTY HEAD START,WAYNESBORO HIGH SCHOOL DISTRICT,550 E 2ND ST,WAYNESBORO,17268
PA Pre-K Counts,Franklin,FRANKLIN COUNTY HEAD START,,FANNETT-METAL ELEMENTARY,14823 PATH VALLEY RD,WILLOW HILL,17271
PA Pre-K Counts,Adams,PATHSTONE CORPORATION,,PATHSTONE CHILD & FAMILY DEVELOPMENT CENTER,2150 CARLISLE RD,ASPERS,17304
PA Pre-K Counts,Adams,UPPER ADAMS SCHOOL DISTRICT,"ACCESS, INC",ADAMS COUNTY HEAD START BIGLERVILLE,3270 BIGLERVILLE RD,BIGLERVILLE,17307
PA Pre-K Counts,York,YWCA YORK,,YWCA YORK LEARNING CENTER AT CANADOCHLY ELEM,100 ABELS RD,E PROSPECT,17317
PA Pre-K Counts,York,COMMUNITY PROGRESS COUNCIL INC,,FAWN GROVE ELEMENTARY,504 MAIN ST,FAWN GROVE,17321
PA Pre-K Counts,Adams,YWCA GETTYSBURG AND ADAMS COUNTY,,YWCA CHILD CHILD CARE AT ADAMS COMMERCE CENTER,50 EXPEDITION TRL,GETTYSBURG,17325
PA Pre-K Counts,Adams,CLARK AGAPAKIS,,LITTLE LIFE ENRICHMENT CENTER,125 DOGWOOD CT,NEW OXFORD,17350
PA Pre-K Counts,York,CRISPUS ATTUCKS ASSOCIATION INC,,CRISPUS ATTUCKS EARLY LEARNING CENTER,50 E BOUNDARY AVE,YORK,17401
PA Pre-K Counts,York,SCHOOL DISTRICT OF CITY OF YORK,,JACKSON ELEMENTARY,177 E JACKSON ST,YORK,17401
PA Pre-K Counts,York,SCHOOL DISTRICT OF CITY OF YORK,,MCKINLEY ELEMENTARY,600 MANOR ST,YORK,17401
PA Pre-K Counts,York,YWCA YORK,,YWCA YORK LINCOLN CHARTER SAC,559 W KING ST,YORK,17401
PA Pre-K Counts,York,KUEHG CORP,,KINDERCARE LEARNING CENTER 301025,120 S NORTHERN WAY,YORK,17402
PA Pre-K Counts,York,SCHOOL DISTRICT OF CITY OF YORK,,DAVIS ELEMENTARY,300 S OGONTZ ST,YORK,17403
PA Pre-K Counts,York,SCHOOL DISTRICT OF CITY OF YORK,,GOODE ELEMENTARY,251 S BROAD ST,YORK,17403
PA Pre-K Counts,York,SCHOOL DISTRICT OF CITY OF YORK,,HANNAH PENN SCHOOL,415 E BOUNDARY AVE,YORK,17403
PA Pre-K Counts,York,YORK JEWISH COMMUNITY CENTER,,JCC SCHOOL FOR THE EARLY YEARS,2000 HOLLYWOOD DR,YORK,17403
PA Pre-K Counts,York,COMMUNITY PROGRESS COUNCIL INC,,NOELL CENTER,226 E COLLEGE AVENUE,YORK,17403
PA Pre-K Counts,York,YORK DAY NURSERY INC,,YORK DAY NURSERY,450 E PHILADELPHIA ST,YORK,17403
PA Pre-K Counts,York,YWCA YORK,,YWCA OF YORK DAY CARE CENTER,320 E MARKET ST,YORK,17403
PA Pre-K Counts,York,YWCA YORK,,YWCA YORK LEARNING CENTER AT VALLEY VIEW ELEM,850 SOUTHERN RD,YORK,17403
PA Pre-K Counts,York,SCHOOL DISTRICT OF CITY OF YORK,,DEVERS ELEMENTARY,801 CHANCEFORD AVE,YORK,17404
PA Pre-K Counts,York,SCHOOL DISTRICT OF CITY OF YORK,,EDGAR FAHS SMITH STEAM ACADEMY,701 TEXAS AVE,YORK,17404
PA Pre-K Counts,York,SCHOOL DISTRICT OF CITY OF YORK,,FERGUSON ELEMENTARY,525 N NEWBERRY ST,YORK,17404
PA Pre-K Counts,York,THE EARLY LEARNING CENTER INC,,WEBSTER EARLY LEARNING CENTER,101 WEBSTER AVE,YORK,17404
PA Pre-K Counts,Lancaster,LANCASTER-LEBANON INTERMEDIATE UNIT 13,DIAMOND STREET EARLY CHILDHOOD CENTER,DIAMOND STREET EARLY CHILDHOOD CENTER,1311 DIAMOND ST STE A,AKRON,17501
PA Pre-K Counts,Lancaster,CONESTOGA VALLEY SCHOOL DISTRICT,STEPS TO SUCCESS INC,BROWNSTOWN ELEMENTARY,51 SCHOOL LN,BROWNSTOWN,17508
PA Pre-K Counts,Lancaster,SUNRISE USA LLC,,LITTLE PEOPLE DAY CARE SCHOOL OF COLUMBIA,780 CHICKIES HILL RD,COLUMBIA,17512
PA Pre-K Counts,Lancaster,LANCASTER-LEBANON INTERMEDIATE UNIT 13,CAP OF LANCASTER COUNTY,DENVER ELEMENTARY,700 S 4TH ST,DENVER,17517
PA Pre-K Counts,Lancaster,LANCASTER-LEBANON INTERMEDIATE UNIT 13,CAP OF LANCASTER COUNTY,MARTIC THRIVE TO FIVE,266 MARTIC HEIGHTS DR,HOLTWOOD,17532
PA Pre-K Counts,Lancaster,LANCASTER-LEBANON INTERMEDIATE UNIT 13,CAP OF LANCASTER COUNTY,PEQUEA VALLEY EARLY LEARNING CENTER,166 S NEW HOLLAND RD,KINZERS,17535
PA Pre-K Counts,Lycoming,EAST LYCOMING SCHOOL DISTRICT,,RENN CENTER,183 SCHOOL LN,LAIRDSVILLE,17538
PA Pre-K Counts,Lancaster,FIRST LEARNING LLC,,LANDISVILLE INTERMEDIATE CENTER,330 MUMMA DR,LANDISVILLE,17538
PA Pre-K Counts,Lancaster,CONESTOGA VALLEY SCHOOL DISTRICT,STEPS TO SUCCESS INC,LEOLA ELEMENTARY,11 SCHOOL DR,LEOLA,17540
PA Pre-K Counts,Lancaster,FIRST LEARNING LLC,WARWICK SCHOOL DISTRICT,KISSEL HILL ELEMENTARY SCHOOL,215 LANDIS VALLEY RD,LITITZ,17543
PA Pre-K Counts,Lancaster,FIRST LEARNING LLC,,OWL HILL LEARNING ACADEMY,506 OWL HILL RD,LITITZ,17543
PA Pre-K Counts,Lancaster,LANCASTER-LEBANON INTERMEDIATE UNIT 13,CAP OF LANCASTER COUNTY,DONEGAL PRIMARY SCHOOL,1055 KOSER RD,MOUNT JOY,17552
PA Pre-K Counts,Lancaster,FIRST LEARNING LLC,KRAYBILL MENNONITE SCHOOL,KRAYBILL MENNONITE SCHOOL,598 KRAYBILL CHURCH RD,MOUNT JOY,17552
PA Pre-K Counts,Lancaster,LANCASTER-LEBANON INTERMEDIATE UNIT 13,NEW HOLLAND MENNONITE CHURCH,NEW HOLLAND EARLY LEARNING CENTER,18 WESTERN AVE,NEW HOLLAND,17557
PA Pre-K Counts,Lancaster,FIRST LEARNING LLC,,BRECHT ELEMENTARY SCHOOL,1250 LITITZ PIKE,LANCASTER,17601
PA Pre-K Counts,Lancaster,FIRST LEARNING LLC,,BUCHER ELEMENTARY SCHOOL,450 CANDLEWYCK RD,LANCASTER,17601
PA Pre-K Counts,Lancaster,CONESTOGA VALLEY SCHOOL DISTRICT,STEPS TO SUCCESS INC,FRITZ ELEMENTARY,845 HORNIG RD,LANCASTER,17601
PA Pre-K Counts,Lancaster,KUEHG CORP,,KINDERCARE LEARNING CENTERS,1849 CHARTER LN,LANCASTER,17601
PA Pre-K Counts,Lancaster,SCHOOL DISTRICT OF LANCASTER,,BURROWES ELEMENTARY SCHOOL,1001 E ORANGE ST,LANCASTER,17602
PA Pre-K Counts,Lancaster,SCHOOL DISTRICT OF LANCASTER,,KING ELEMENTARY,466 ROCKLAND ST,LANCASTER,17602
PA Pre-K Counts,Lancaster,FIRST LEARNING LLC,,LAMPETER ELEMENTARY SCHOOL,1600 BOOK RD,LANCASTER,17602
PA Pre-K Counts,Lancaster,CONESTOGA VALLEY SCHOOL DISTRICT,LANCASTER MENNONITE SCHOOL,LANCASTER MENNONITE SCHOOL LOCUST GROVE CAMPUS,2176 LINCOLN HWY E,LANCASTER,17602
PA Pre-K Counts,Lancaster,SCHOOL DISTRICT OF LANCASTER,YWCA LANCASTER,LANCASTER YWCA CHILD ENRICHMENT CENTER,110 N LIME ST,LANCASTER,17602
PA Pre-K Counts,Lancaster,FIRST LEARNING LLC,,SMOKETOWN ELEMENTARY SCHOOL,2426 OLD PHILADELPHIA PIKE,LANCASTER,17602
PA Pre-K Counts,Lancaster,SCHOOL DISTRICT OF LANCASTER,,WASHINGTON ELEMENTARY,545 S ANN ST,LANCASTER,17602
PA Pre-K Counts,Lancaster,SCHOOL DISTRICT OF LANCASTER,,CARTER & MACRAE ELEMENTARY,251 S PRINCE ST,LANCASTER,17603
PA Pre-K Counts,Lancaster,SCHOOL DISTRICT OF LANCASTER,,ELIZABETH MARTIN ELEMENTARY SCHOOL,2000 WABANK ROAD,LANCASTER,17603
PA Pre-K Counts,Lancaster,SCHOOL DISTRICT OF LANCASTER,,FULTON ELEMENTARY,225 W ORANGE ST,LANCASTER,17603
PA Pre-K Counts,Lancaster,SCHOOL DISTRICT OF LANCASTER,,HAMILTON ELEMENTARY,1300 WABANK RD,LANCASTER,17603
PA Pre-K Counts,Lancaster,SCHOOL DISTRICT OF LANCASTER,LANCASTER RECREATION COMMISSION,HAMILTON ELEMENTARY SCHOOL AFTER SCHOOL,1300 WABANK RD,LANCASTER,17603
PA Pre-K Counts,Lancaster,SCHOOL DISTRICT OF LANCASTER,,LAFAYETTE ELEMENTARY SCHOOL,1000 FREMONT ST,LANCASTER,17603
PA Pre-K Counts,Lancaster,LANCASTER EARLY EDUCATION CENTER,,LANCASTER EARLY EDUCATION CENTER,150 S QUEEN ST,LANCASTER,17603
PA Pre-K Counts,Lancaster,SCHOOL DISTRICT OF LANCASTER,LANCASTER FAMILY YMCA,LANCASTER FAMILY YMCA,265 HARRISBURG AVE,LANCASTER,17603
PA Pre-K Counts,Lancaster,SCHOOL DISTRICT OF LANCASTER,LANCASTER FAMILY YMCA,LANCASTER FAMILY YMCA CHILD CARE CENTER,252 HARRISBURG AVE,LANCASTER,17603
PA Pre-K Counts,Lancaster,SCHOOL DISTRICT OF LANCASTER,LANCASTER RECREATION COMMISSION,LANCASTER RECREATION COMMISSION,525 FAIRVIEW AVE,LANCASTER,17603
PA Pre-K Counts,Lancaster,FIRST LEARNING LLC,CHILD CARE SERVICES INC,OWL HILL LEARNING CENTER,313 W LIBERTY ST,LANCASTER,17603
PA Pre-K Counts,Lancaster,SCHOOL DISTRICT OF LANCASTER,CHILD CARE SERVICES INC,OWL HILL LEARNING CENTER,313 W LIBERTY ST,LANCASTER,17603
PA Pre-K Counts,Lancaster,SCHOOL DISTRICT OF LANCASTER,,PRICE ELEMENTARY,615 FAIRVIEW AVE,LANCASTER,17603
PA Pre-K Counts,Lancaster,SCHOOL DISTRICT OF LANCASTER,,ROSS ELEMENTARY SCHOOL,840 N QUEEN ST,LANCASTER,17603
PA Pre-K Counts,Lancaster,SCHOOL DISTRICT OF LANCASTER,,SMITH-WADE ELEMENTARY,910 HAMILTON PARK DR,LANCASTER,17603
PA Pre-K Counts,Lancaster,SCHOOL DISTRICT OF LANCASTER,,WICKERSHAM AT FULL CIRCLE,1077 LEHIGH AVE,LANCASTER,17603
PA Pre-K Counts,Lycoming,BLESSED BEGINNINGS PRESCHOOL & CHILDCARE,,BLESSED BEGINNINGS PRESCHOOL AND CHILDCARE,220 RUSSELL AVE,WILLIAMSPORT,17701
PA Pre-K Counts,Lycoming,LOYALSOCK TOWNSHIP SCHOOL DISTRICT,,DONALD E SCHICK ELEMENTARY SCHOOL,2805 FOUR MILE DR,WILLIAMSPORT,17701
PA Pre-K Counts,Lycoming,RIVER VALLEY REGIONAL YMCA,,LOYALSOCK CHILD CARE CENTER,1601 RANDALL CIR,WILLIAMSPORT,17701
PA Pre-K Counts,Lycoming,LYCOMING-CLINTON COUNTIES COMMISSION FOR COMMUNITY,,ROUND HILLS SCHOOL,136 GRIMESVILLE RD,WILLIAMSPORT,17701
PA Pre-K Counts,Lycoming,BLESSED BEGINNINGS PRESCHOOL & CHILDCARE,,BLESSED BEGINNINGS PRESCHOOL CHILDCARE LLC,822 W CENTRAL AVE,WILLIAMSPORT,17702
PA Pre-K Counts,Clinton,JERSEY SHORE AREA SCHOOL DISTRICT,AVIS UNITED METHODIST CHURCH,ALL THINGS BRIGHT AND BEAUTIFUL DAYCARE,215 PROSPECT AVE STE 1,AVIS,17721
PA Pre-K Counts,Bradford,BRADFORD TIOGA HEAD START INC.,,CANTON,125 SULLIVAN ST,CANTON,17724
PA Pre-K Counts,Bradford,BRADFORD TIOGA HEAD START INC.,,CANTON 2 CANTON ELEMENTARY,5454 EAST MAIN STREET,CANTON,17724
PA Pre-K Counts,Lycoming,EAST LYCOMING SCHOOL DISTRICT,,ASHKAR CENTER,350 S BROAD ST,HUGHESVILLE,17737
PA Pre-K Counts,Lycoming,CHILD DEVELOPMENT & FAMILY COUNCIL OF CENTRE CO,CN BILBAY LLC,YOUR GUARDIAN ANGEL PRESCHOOL AND CHILDCARE,701 ALLEGHENY ST,JERSEY SHORE,17740
PA Pre-K Counts,Lycoming,JERSEY SHORE AREA SCHOOL DISTRICT,CN BILBAY LLC,YOUR GUARDIAN ANGEL PRESCHOOL AND CHILDCARE,701 ALLEGHENY ST,JERSEY SHORE,17740
PA Pre-K Counts,Clinton,LYCOMING-CLINTON COUNTIES COMMISSION FOR COMMUNITY,,CLINTON COUNTY COMMUNITY CENTER,124 E WALNUT ST,LOCK HAVEN,17745
PA Pre-K Counts,Clinton,RIVER VALLEY REGIONAL YMCA,,LOCK HAVEN AREA YMCA CHILDCARE SERVICE II,165 SUSQUEHANNA AVE,LOCK HAVEN,17745
PA Pre-K Counts,Clinton,CHILD DEVELOPMENT & FAMILY COUNCIL OF CENTRE CO,CN BILBAY LLC,YOUR GUARDIAN ANGEL PRESCHOOL AND CHILDCARE II,225 E CHURCH ST,LOCK HAVEN,17745
PA Pre-K Counts,Lycoming,MONTGOMERY AREA SCHOOL,,MONTGOMERY ELEMENTARY,120 PENN ST,MONTGOMERY,17752
PA Pre-K Counts,Lycoming,LYCOMING-CLINTON COUNTIES COMMISSION FOR COMMUNITY,,MYERS ELEMENTARY SCHOOL,125 NEW ST,MUNCY,17756
PA Pre-K Counts,Clinton,LYCOMING-CLINTON COUNTIES COMMISSION FOR COMMUNITY,,BUCKTAIL HIGH SCHOOL,1300 BUCKTAIL AVE,RENOVO,17764
PA Pre-K Counts,Northumberland,CENTRAL SUSQUEHANNA INTERMEDIATE UNIT,,WATSONTOWN ELEMENTARY,1100 MAIN ST,WATSONTOWN,17777
PA Pre-K Counts,Northumberland,CENTRAL SUSQUEHANNA INTERMEDIATE UNIT,,BECK ELEMENTARY,600 ARCH ST,SUNBURY,17801
PA Pre-K Counts,Snyder,SUMMIT EARLY LEARNING INC/SNYDER UNION MIFFLIN CHILD DEVELOPMENT I,,SUMMIT EARLY LEARNING-WEST SNYDER ELEMENTARY,645 SNYDER AVE,BEAVER SPRINGS,17812
PA Pre-K Counts,Columbia,CENTRAL SUSQUEHANNA INTERMEDIATE UNIT,,BLOOMSBURG MEMORIAL ELEMENTARY SCHOOL,500 MARKET ST,BLOOMSBURG,17815
PA Pre-K Counts,Columbia,CENTRAL SUSQUEHANNA INTERMEDIATE UNIT,,CENTRAL COLUMBIA HIGH SCHOOL PREK COUNTS,4777 OLD BERWICK RD,BLOOMSBURG,17815
PA Pre-K Counts,Columbia,CENTRAL SUSQUEHANNA INTERMEDIATE UNIT,,GC HARTMAN ELEMENTARY SCHOOL,802 SOUTHERN DR,CATAWISSA,17820
PA Pre-K Counts,Montour,BUSY LITTLE BEAVERS INC,,BUSY LITTLE BEAVERS,23 WESNER LN,DANVILLE,17821
PA Pre-K Counts,Montour,DANVILLE AREA SCHOOL DISTRICT,,DANVILLE PRIMARY CENTER,931 IRONMEN LN,DANVILLE,17821
PA Pre-K Counts,Union,LEWISBURG AREA SCHOOL DISTRICT,,KELLY ELEMENTARY,325 HOSPITAL DR,LEWISBURG,17837
PA Pre-K Counts,Snyder,SUMMIT EARLY LEARNING INC/SNYDER UNION MIFFLIN CHILD DEVELOPMENT I,,SUMMIT EARLY LEARNING MIDD WEST HIGH SCHOOL,540 E MAIN ST,MIDDLEBURG,17842
PA Pre-K Counts,Snyder,SUMMIT EARLY LEARNING INC/SNYDER UNION MIFFLIN CHILD DEVELOPMENT I,,SUMMIT EARLY LEARNING MIDDLEBURG ELEMENTARY SCHOOL,600 WAGENSELLER ST,MIDDLEBURG,17842
PA Pre-K Counts,Union,SUMMIT EARLY LEARNING INC/SNYDER UNION MIFFLIN CHILD DEVELOPMENT I,,SUMMIT EARLY LEARNING MIFFLINBURG,105 QUAIL LN,MIFFLINBURG,17844
PA Pre-K Counts,Union,SUMMIT EARLY LEARNING INC/SNYDER UNION MIFFLIN CHILD DEVELOPMENT I,,SUMMIT EARLY LEARNING MIFFLINBURG ELEMENTARY,115 E SHIPTON AVE,MIFFLINBURG,17844
PA Pre-K Counts,Columbia,CENTRAL SUSQUEHANNA INTERMEDIATE UNIT,,MILLVILLE ELEMENTARY PRE K COUNTS,370 E BATTIN LN,MILLVILLE,17846
PA Pre-K Counts,Northumberland,CENTRAL SUSQUEHANNA INTERMEDIATE UNIT,,MILTON AREA HIGH SCHOOL,700 MAHONING ST,MILTON,17847
PA Pre-K Counts,Northumberland,SUSQUEHANNA VALLEY YMCA,,MILTON YMCA DAY CARE,32 BROADWAY ST,MILTON,17847
PA Pre-K Counts,Northumberland,MMJJ INC,,MMJJ,233 E 4TH ST,MOUNT CARMEL,17851
PA Pre-K Counts,Northumberland,MOUNT CARMEL AREA SCHOOL DISTRICT,,MOUNT CARMEL AREA ELEMENTARY,630 W 5TH ST,MOUNT CARMEL,17851
PA Pre-K Counts,Northumberland,MOUNT CARMEL AREA SCHOOL DISTRICT,SHAMOKIN AREA SCHOOL DIST,SHAMOKIN AREA SD PKC AT NORTHUMB CTY CTC,1700 W MONTGOMERY ST,COAL TOWNSHIP,17866
PA Pre-K Counts,Snyder,SUMMIT EARLY LEARNING INC/SNYDER UNION MIFFLIN CHILD DEVELOPMENT I,,SUMMIT CSD-SELINSGROVE ELEMENTARY,600 N BROAD ST,SELINSGROVE,17870
PA Pre-K Counts,Snyder,SUMMIT EARLY LEARNING INC/SNYDER UNION MIFFLIN CHILD DEVELOPMENT I,,SUMMIT EARLY LEARNING-SUSQUEHANNA,590 UNIVERSITY AVE,SELINSGROVE,17870
PA Pre-K Counts,Northumberland,CENTRAL SUSQUEHANNA INTERMEDIATE UNIT,,LINE MOUNTAIN ELEMENTARY SCHOOL,500 W SHAMOKIN ST,TREVORTON,17881
PA Pre-K Counts,Schuylkill,CHILD DEVELOPMENT INC,,CHILD DEVELOPMENT INC-POTTSVILLE 2 CENTER,1515 MOUNT HOPE AVE,POTTSVILLE,17901
PA Pre-K Counts,Schuylkill,CHILD DEVELOPMENT INC,,CHILD DEVELOPMENT INC-POTTSVILLE CENTER,701 MOUNT HOPE AVE,POTTSVILLE,17901
PA Pre-K Counts,Schuylkill,CHILD DEVELOPMENT INC,THE PERCEPTION TRAINING CENTER INC,THE PERCEPTION TRAINING CENTER,1265 B LAUREL BLVD,POTTSVILLE,17901
PA Pre-K Counts,Schuylkill,CHILD DEVELOPMENT INC,,CHILD DEVELOPMENT-FOUNTAIN SPRINGS CENTER,200 CATHERINE ST,ASHLAND,17921
PA Pre-K Counts,Schuylkill,CHILD DEVELOPMENT INC,,CHILD DEVELOPMENT INC/MAHANOY CITY,80 N MAIN ST STE 2,MAHANOY CITY,17948
PA Pre-K Counts,Schuylkill,SCHUYLKILL IU 29,PINE GROVE AREA SCHOOL DISTRICT,PINE GROVE AREA SCHOOL DISTRICT,107 SCHOOL ST,PINE GROVE,17963
PA Pre-K Counts,Schuylkill,CHILD DEVELOPMENT INC,,CHILD DEVELOPMENT INC-SAINT CLAIR CENTER,227 S MILL ST,SAINT CLAIR,17970
PA Pre-K Counts,Lehigh,COMMUNITY SERVICES FOR CHILDREN INC,,EAST PENN ALBURTIS ELEM,222 W 3RD ST,ALBURTIS,18011
PA Pre-K Counts,Northampton,COMMUNITY SERVICES FOR CHILDREN INC,,WASHINGTON ELEMENTARY SCHOOL,381 WASHINGTON BLVD,BANGOR,18013
PA Pre-K Counts,Northampton,COMMUNITY SERVICES FOR CHILDREN INC,,MOORE ELEMENTARY,2835 MOUNTAIN VIEW DR,BATH,18014
PA Pre-K Counts,Northampton,BETHLEHEM AREA SCHOOL DISTRICT,,DONEGAN ELEMENTARY SCHOOL CHILD CARE,1210 E 4TH ST,BETHLEHEM,18015
PA Pre-K Counts,Northampton,LEHIGH VALLEY CHILDRENS CENTERS INC,,LEHIGH VALLEY CHILDRENS CENTER AT CAMPUS,410 E 5TH ST,BETHLEHEM,18015
PA Pre-K Counts,Lehigh,BETHLEHEM AREA SCHOOL DISTRICT,,FOUNTAIN HILL ELEMENTARY SCHOOL CHILD CARE,1330 CHURCH ST,FOUNTAIN HILL,18015
PA Pre-K Counts,Northampton,LEHIGH VALLEY CHILDRENS CENTERS INC,,LEHIGH VALLEY CHILDRENS CENTERS/MONOCACY MANOR,395 BRIDLE PATH RD,BETHLEHEM,18017
PA Pre-K Counts,Northampton,BETHLEHEM AREA SCHOOL DISTRICT,,MARVINE ELEMENTARY SCHOOL CHILD CARE,1425 LIVINGSTON ST,BETHLEHEM,18017
PA Pre-K Counts,Northampton,GREATER VALLEY YOUNG MENS CHRISTIAN ASSOCIATION,,BETHLEHEM YMCA CHILDCARE,430 E BROAD ST,BETHLEHEM,18018
PA Pre-K Counts,Lehigh,BETHLEHEM AREA SCHOOL DISTRICT,,CALYPSO ELEMENTARY SCHOOL CHILD CARE,1021 CALYPSO AVE,BETHLEHEM,18018
PA Pre-K Counts,Northampton,LEHIGH VALLEY CHILDRENS CENTERS INC,,LEHIGH VALLEY CHILDRENS CENTERS FOWLER,938 MAIN ST,BETHLEHEM,18018
PA Pre-K Counts,Northampton,GREATER VALLEY YOUNG MENS CHRISTIAN ASSOCIATION,,FORKS YMCA EDUCATION CENTER,1350 SULLIVAN TRL,EASTON,18040
PA Pre-K Counts,Northampton,COMMUNITY SERVICES FOR CHILDREN INC,,EASTON CENTER,673 NORTHAMPTON ST,EASTON,18042
PA Pre-K Counts,Northampton,LEHIGH VALLEY CHILDRENS CENTERS INC,,LEHIGH VALLEY CC AT SPRING GARDEN EARLY LRNG CTR,401 W BERWICK ST STE 103,EASTON,18042
PA Pre-K Counts,Northampton,WILSON AREA SCHOOL DISTRICT,LEHIGH VALLEY CHILDRENS CENTERS INC,LEHIGH VALLEY CHILDRENS CENTERS AT AVONA ELEM,2317 FRONT ST,EASTON,18042
PA Pre-K Counts,Northampton,WILSON AREA SCHOOL DISTRICT,LEHIGH VALLEY CHILDRENS CENTERS INC,LEHIGH VALLEY CHILDRENS CENTERS AT WILSON,301 S 21ST ST,EASTON,18042
PA Pre-K Counts,Northampton,THIRD STREET ALLIANCE FOR WOMEN,,THIRD STREET ALLIANCE FOR WOMEN CHILDREN,41 N 3RD ST,EASTON,18042
PA Pre-K Counts,Northampton,EASTON SCHOOL DISTRICT PAYROLL DEPARTM,,Lehigh Valley Children's Center at March School,429 Reeder St,Easton,18042
PA Pre-K Counts,Northampton,LEHIGH VALLEY CHILDRENS CENTERS INC,CREATIVE LEARNING CENTER OF THE LEHIGH VALLEY INC,CREATIVE LEARNING CENTER OF THE LEHIGH VALLEY INC,3421 NIGHTINGALE DR,EASTON,18045
PA Pre-K Counts,Northampton,EASTON SCHOOL DISTRICT PAYROLL DEPARTM,LEHIGH VALLEY CHILDRENS CENTERS INC,Lehigh Valley Children's Center at Easton Middle SD,3050 Greenpond Road,Easton,18045
PA Pre-K Counts,Lehigh,LEHIGH VALLEY CHILDRENS CENTERS INC,,LEHIGH VALLEY CHILDRENS CENTERS ON FAIRMONT,1313 FAIRMONT ST # 1335,WHITEHALL,18052
PA Pre-K Counts,Lehigh,COMMUNITY SERVICES FOR CHILDREN INC,,WHITEHALL COPLAY-STECKEL ELEMENTARY,2928 MACARTHUR ROAD,WHITEHALL,18052
PA Pre-K Counts,Montgomery,MONTGOMERY CNTY PRINCIPALS & INTERMEDIATE UNIT 23,MAGIC MEMORIES GREEN LANE LLC,MAGIC MEMORIES GREEN LANE,3000 MAIN ST,GREEN LANE,18054
PA Pre-K Counts,Northampton,COMMUNITY SERVICES FOR CHILDREN INC,,PLAINFIELD ELEMENTARY,539 SCHOOL RD,NAZARETH,18064
PA Pre-K Counts,Lehigh,LEHIGH VALLEY CHILDRENS CENTERS INC,,LEHIGH VALLEY CHILDRENS CENTERS ON PARK AVE,3880 PARK AVE,NEFFS,18065
PA Pre-K Counts,Northampton,COMMUNITY SERVICES FOR CHILDREN INC,,FRANKLIN BUILDING,855 LINCOLN AVE,NORTHAMPTON,18067
PA Pre-K Counts,Lehigh,COMMUNITY SERVICES FOR CHILDREN INC,,KERNSVILLE ELEMENTARY SCHOOL,5051 KERNSVILLE RD,OREFIELD,18069
PA Pre-K Counts,Carbon,LEHIGH VALLEY CHILDRENS CENTERS INC,,LEHIGH VALLEY CHILDRENS CENTER AT PALMERTON BOROUG,480 DELAWARE AVE,PALMERTON,18071
PA Pre-K Counts,Carbon,PALMERTON AREA SCHOOL DISTRICT,LEHIGH VALLEY CHILDRENS CENTERS INC,LEHIGH VALLEY CHILDRENS CENTERS AT SS PALMER ELEM,298 LAFAYETTE AVE,PALMERTON,18071
PA Pre-K Counts,Northampton,COMMUNITY SERVICES FOR CHILDREN INC,,LEHIGH ELEMENTARY SCHOOL,800 BLUE MOUNTAIN DR,WALNUTPORT,18088
PA Pre-K Counts,Lehigh,COMMUNITY SERVICES FOR CHILDREN INC,,THE LEARNING HUB,101 N 6TH ST,ALLENTOWN,18101
PA Pre-K Counts,Lehigh,LEHIGH VALLEY CHILDRENS CENTERS INC,VOLUNTEERS OF AMERICA OF PENNSYLVANIA INC,VOLUNTEERS OF AMERICA CHILDRENS CENTER,730 W UNION ST,ALLENTOWN,18101
PA Pre-K Counts,Lehigh,GREATER VALLEY YOUNG MENS CHRISTIAN ASSOCIATION,,ALLENTOWN YMCA EDUCATION CENTER,425 S 15TH ST,ALLENTOWN,18102
PA Pre-K Counts,Lehigh,KIDDIE CITY EARLY LEARNING CENTER INC,,KIDDIE CITY EARLY LEARNING CENTER,1216 W LIBERTY ST,ALLENTOWN,18102
PA Pre-K Counts,Lehigh,KIDDIE CITY EARLY LEARNING CENTER INC,,KIDDIE CITY EARLY LEARNING CENTER INC,1309 W GORDON ST,ALLENTOWN,18102
PA Pre-K Counts,Lehigh,LEHIGH VALLEY CHILDRENS CENTERS INC,,LEHIGH VALLEY CHILDRENS CENTER/WALNUT STREET,1145 W WALNUT ST,ALLENTOWN,18102
PA Pre-K Counts,Lehigh,LEHIGH VALLEY CHILDRENS CENTERS INC,,LEHIGH VALLEY CHILDRENS CENTERS AT CAI LEARNING,1033 W WASHINGTON ST,ALLENTOWN,18102
PA Pre-K Counts,Lehigh,LEHIGH VALLEY CHILDRENS CENTERS INC,,LEHIGH VALLEY CHILDRENS CENTERS/CHASE ELC,540 CHEW ST,ALLENTOWN,18102
PA Pre-K Counts,Lehigh,LITTLE ARCHIES CLUBHOUSE DAYCARE CENTER INC,,LITTLE ARCHIES CLUBHOUSE,635 W TURNER ST,ALLENTOWN,18102
PA Pre-K Counts,Lehigh,RESURRECTED COMMUNITY DEVELOPMENT CORPOR,,RESURRECTED LIFE CHILDRENS ACADEMY,916 W TURNER ST,ALLENTOWN,18102
PA Pre-K Counts,Lehigh,LEHIGH VALLEY CHILDRENS CENTERS INC,,LEHIGH VALLEY CHILDRENS CENTERS/SOUTH MOUNT,2002 S ALBERT ST,ALLENTOWN,18103
PA Pre-K Counts,Lehigh,COMMUNITY SERVICES FOR CHILDREN INC,,SALISBURY ELEMENTARY SCHOOL,1400 GASKILL ST,ALLENTOWN,18103
PA Pre-K Counts,Lehigh,COMMUNITY SERVICES FOR CHILDREN INC,,CETRONIA ELEMENTARY SCHOOL,3635 BROADWAY,ALLENTOWN,18104
PA Pre-K Counts,Lehigh,COMMUNITY SERVICES FOR CHILDREN INC,,ALLENTOWN OVERLOOK PARK,445 HANOVER AVE,ALLENTOWN,18109
PA Pre-K Counts,Lehigh,CERETA JOHNSON,,CHILDREN OF JOY CHRISTIAN ACADEMY,934 HANOVER AVE,ALLENTOWN,18109
PA Pre-K Counts,Lehigh,COMMUNITY SERVICES FOR CHILDREN INC,,CSC EARLY LEARNING CENTER,555 UNION BLVD,ALLENTOWN,18109
PA Pre-K Counts,Lehigh,COMMUNITY SERVICES FOR CHILDREN INC,,HEAD START-DONLEY CAMPUS,1520 HANOVER AVE,ALLENTOWN,18109
PA Pre-K Counts,Lehigh,LEHIGH VALLEY CHILDRENS CENTERS INC,,LEHIGH VALLEY CHILDRENS CENTER ON UNION BLVD,555 UNION BLVD,ALLENTOWN,18109
PA Pre-K Counts,Lehigh,PLAYTIME DAY CARE LLC,,PLAYTIME DAY CARE LLC,624 HANOVER AVE,ALLENTOWN,18109
PA Pre-K Counts,Lehigh,THE CUDDLE ZONE LEARNING CENTER INC,,THE CUDDLE ZONE LEARNING CENTER,445 ALLENTOWN DR,ALLENTOWN,18109
PA Pre-K Counts,Luzerne,HAZELTON AREA SCHOOL DISTRICT,,HAZLE TOWNSHIP EARLY LEARNING CENTER,1400 W 23RD ST,HAZLE TOWNSHIP,18202
PA Pre-K Counts,Luzerne,SAEED FAMILY CORPORATION,,BUILDING BLOCKS LEARNING CENTER,515 N BROAD ST,WEST HAZLETON,18202
PA Pre-K Counts,Luzerne,HAZELTON AREA SCHOOL DISTRICT,PIXIE PARADISE CHILD CARE CENTER LLC,PIXIE PARADISE CHILDCARE CENTER LLC,21 N 5TH ST,WEST HAZLETON,18202
PA Pre-K Counts,Carbon,NESSAS SMALL STEPS CHILD CARE LLC,,NESSAS SMALL STEPS CHILD CARE LLC,2591 STATE ROUTE 903,ALBRIGHTSVILLE,18210
PA Pre-K Counts,Carbon,JIM THORPE AREA SD,,PENN KIDDER CAMPUS,2840 STATE ROUTE 903,ALBRIGHTSVILLE,18210
PA Pre-K Counts,Schuylkill,PANTHER VALLEY SCHOOL DISTRICT,LEHIGH VALLEY CHILDRENS CENTERS INC,LEHIGH VALLY CHILDRENS CENTERS AT COALDALE,150 W PHILLIPS ST,COALDALE,18218
PA Pre-K Counts,Luzerne,COUNTRY CHARM EARLY LEARNING CENTER INC,,COUNTRY CHARM EARLY LEARNING CENTER INC,9 E BUTLER DR,DRUMS,18222
PA Pre-K Counts,Luzerne,HAZELTON AREA SCHOOL DISTRICT,COUNTRY CHARM EARLY LEARNING CENTER INC,COUNTRY CHARM EARLY LRG C,22 RITTENHOUSE PL,DRUMS,18222
PA Pre-K Counts,Carbon,JIM THORPE AREA SD,,JIM THORPE AREA HIGH SCHOOL,1 OLYMPIAN WAY,JIM THORPE,18229
PA Pre-K Counts,Carbon,PALMERTON AREA SCHOOL DISTRICT,LEHIGH VALLEY CHILDRENS CENTERS INC,LEHIGH VALLEY CHILDRENS CENTERS AT TOWAMENSING ELE,7920 INTERCHANGE RD,LEHIGHTON,18235
PA Pre-K Counts,Carbon,LEHIGHTON AREA SCHOOL DIST,,LEHIGHTON ELEMENTARY CENTER,3 INDIAN LN,LEHIGHTON,18235
PA Pre-K Counts,Carbon,PATHSTONE CORPORATION,,PATHSTONE CARBON COUNTY EARLY HEAD START,110 N 3RD ST,LEHIGHTON,18235
PA Pre-K Counts,Luzerne,HAZELTON AREA SCHOOL DISTRICT,ANNE MCLAUGHLIN CHILD CARE INC,ANNE MCLAUGHLIN DAY CARE CENTER,98 W COUNTY RD,SUGARLOAF,18249
PA Pre-K Counts,Schuylkill,CHILD DEVELOPMENT INC,,CHILD DEVELOPMENT INC TAMAQUA CENTER,255 W BROAD ST,TAMAQUA,18252
PA Pre-K Counts,Carbon,WEATHERLY AREA SCHOOL DISTRICT,,WEATHERLY AREA SCHOOL DISTRICT,602 6TH ST,WEATHERLY,18255
PA Pre-K Counts,Monroe,POCONO SERVICES FOR FAMILIES AND CHILDREN,,POCONO SERVICES FOR FAMILIES AND CHILDREN,212 W 4TH ST,EAST STROUDSBURG,18301
PA Pre-K Counts,Monroe,POCONO SERVICES FOR FAMILIES AND CHILDREN,,SMITHFIELD,245 RIVER RD,EAST STROUDSBURG,18301
PA Pre-K Counts,Monroe,TGPC FOR C & L OF ST PAUL EVANGELICAL L C INC,,THE GROWING PLACE CHESTNUTHILL ELEMENTARY SCHOOL,2147 ROUTE 115,BRODHEADSVILLE,18322
PA Pre-K Counts,Pike,DELAWARE VALLEY SCHOOL DIST,,DINGMAN-DELAWARE PRIMARY,1375 ROUTE 739,DINGMANS FERRY,18328
PA Pre-K Counts,Monroe,TGPC FOR C & L OF ST PAUL EVANGELICAL L C INC,,THE GROWING PLACE CENTER AT POLK ELEMENTARY SCHOOL,630 INTERCHANGE RD,KRESGEVILLE,18333
PA Pre-K Counts,Pike,DELAWARE VALLEY SCHOOL DIST,,DELAWARE VALLEY ELEMENTARY SCHOOL,500 AVENUE S,MATAMORAS,18336
PA Pre-K Counts,Pike,DELAWARE VALLEY SCHOOL DIST,CENTER FOR DEVELOPMENTAL DISABILITIES OF PIKE C,CENTER FOR DEVEL DISABILITIES OF PIKE CO,101 POCONO DR,MILFORD,18337
PA Pre-K Counts,Pike,THE GOOD SHEPHERD CHILD CARE CENTER INC,,THE GOOD SHEPHERD CHILD CARE CENTER,102 STATE ROUTE 2001,MILFORD,18337
PA Pre-K Counts,Pike,THE SUNSHINE STATION,,THE SUNSHINE STATION,476 ROUTES 6 AND 209,MILFORD,18337
PA Pre-K Counts,Monroe,WEE WONS INC,,WEE WONS INC,127 ROUTE 423,POCONO PINES,18350
PA Pre-K Counts,Monroe,TGPC FOR C & L OF ST PAUL EVANGELICAL L C INC,,THE GROWING PLACE AT STROUDSBURG MIDDLE SCHOOL,200 MOUNTAINEER DR,STROUDSBURG,18360
PA Pre-K Counts,Lackawanna,THE KREIG INSTITUTE FOR EARLY CHILDHOOD,ECLECTIC MANAGEMENT CORPORATION,ABC ACADEMY,69 N MAIN ST,CARBONDALE,18407
PA Pre-K Counts,Lackawanna,AGENCY FOR COMMUNITY EMPOWERMENT OF NEPA,CARBONDALE AREA SCHOOL DISTRICT,CARBONDALE ELEMENTARY,103 BROOKLYN ST,CARBONDALE,18407
PA Pre-K Counts,Lackawanna,DAWN TOOLAN,,THE EDISON EARLY LEARNING CENTER,227 PIKE ST,CARBONDALE,18407
PA Pre-K Counts,Lackawanna,AGENCY FOR COMMUNITY EMPOWERMENT OF NEPA,YMCA OF CARBONDALE,YMCA OF CARBONDALE,82 N MAIN ST,CARBONDALE,18407
PA Pre-K Counts,Susquehanna,FOREST CITY REGIONAL SCHL DISTRICT,,FOREST CITY REGIONAL SD,100 SUSQUEHANNA ST,FOREST CITY,18421
PA Pre-K Counts,Wayne,AGENCY FOR COMMUNITY EMPOWERMENT OF NEPA,,HAWLEY ELEMENTARY,500 ACADEMY ST,HAWLEY,18428
PA Pre-K Counts,Wayne,NORTHEASTERN CHILD CARE SERVICES,,TREASURE HOUSE CH DEVEL CTR-HAWLEY,17 COLUMBUS AVE,HAWLEY,18428
PA Pre-K Counts,Wayne,NORTHEASTERN CHILD CARE SERVICES,,TREASURE HOUSE CHILD DEVELOPMENT CENTER HONESDALE,329 CLIFF ST,HONESDALE,18431
PA Pre-K Counts,Lackawanna,TRI STAR CHILD CARE INC,,TRI-STAR ACADEMY,626 MADISON AVE,JERMYN,18433
PA Pre-K Counts,Lackawanna,HANDS OF WYOMING COUNTY,KEYSTONE COLLEGE,KEYSTONE COLLEGE CHILDRENS CENTER,1 COLLEGE GRN,LA PLUME,18440
PA Pre-K Counts,Lackawanna,AGENCY FOR COMMUNITY EMPOWERMENT OF NEPA,,NORTH POCONO HEAD START,97 BOCHICCHIO BLVD,MOSCOW,18444
PA Pre-K Counts,Pike,AGENCY FOR COMMUNITY EMPOWERMENT OF NEPA,,WALLENPAUPACK HEAD START,989 MAIN ST,NEWFOUNDLAND,18445
PA Pre-K Counts,Lackawanna,TRI STAR CHILD CARE INC,KMP INC,TRI-STAR ACADEMY,2790 SCRANTON CARBONDALE,BLAKELY,18447
PA Pre-K Counts,Monroe,POCONO SERVICES FOR FAMILIES AND CHILDREN,,THE MOUNTAIN CENTER,354 MEMORIAL BLVD,TOBYHANNA,18466
PA Pre-K Counts,Lackawanna,DISCOVERY MULTIPLE INTELLIGENCES PRESCHOOL,,DISCOVERY MI PRESCHOOL,1301 BEECH ST,SCRANTON,18505
PA Pre-K Counts,Lackawanna,FRECKLES AND FRILLS INC,,THE WELLKIND SCHOOL FOR EARLY LEARNERS,515 FIG ST,SCRANTON,18505
PA Pre-K Counts,Lackawanna,THE KREIG INSTITUTE FOR EARLY CHILDHOOD,,SUNSHINE & RAINBOWS DAY CARE CENTER,REAR 3716 LAWRENCE AVE,MOOSIC,18507
PA Pre-K Counts,Lackawanna,DISCOVERY MULTIPLE INTELLIGENCES PRESCHOOL,,DISCOVERY MONTESSORI PROVIDENCE,1733 N MAIN AVE,SCRANTON,18508
PA Pre-K Counts,Lackawanna,NORTHEASTERN CHILD CARE SERVICES,,TREASURE HOUSE CHILD DEVELOPMENT CENTER-MONROE,1416 MONROE AVE,SCRANTON,18509
PA Pre-K Counts,Lackawanna,DAY NURSERY ASSOCIATION,,DAY NURSERY ASSOCIATION DAY CARE,332 JEFFERSON AVE,SCRANTON,18510
PA Pre-K Counts,Lackawanna,AGENCY FOR COMMUNITY EMPOWERMENT OF NEPA,,MID VALLEY HEAD START,50 UNDERWOOD RD,THROOP,18512
PA Pre-K Counts,Lackawanna,NORTHEASTERN CHILD CARE SERVICES,,TREASURE HOUSE CHILD DEVELOPMENT CENTERS-TAYLOR,700 S MAIN ST,TAYLOR,18517
PA Pre-K Counts,Lackawanna,ABC Kiddie Kampus Inc,,ABC Kiddie Kampus - Old Forge,701 S Main St,Old Forge,18518
PA Pre-K Counts,Columbia,CENTRAL SUSQUEHANNA INTERMEDIATE UNIT,,BERWICK AREA HIGH SCHOOL,1100 FOWLER AVE,BERWICK,18603
PA Pre-K Counts,Columbia,CENTRAL SUSQUEHANNA INTERMEDIATE UNIT,,SALEM ELEMENTARY,810 E 10TH ST,BERWICK,18603
PA Pre-K Counts,Luzerne,LUZERNE COUNTY HEAD START INC,,BACK MOUNTAIN,474 YALICK RD,DALLAS,18612
PA Pre-K Counts,Luzerne,SAEED FAMILY CORPORATION,,BUILDING BLOCKS LEARNING CENTER,1176 TWIN STACKS DR,DALLAS,18612
PA Pre-K Counts,Luzerne,LUZERNE COUNTY HEAD START INC,,DALLAS CENTER,PO BOX 814,DALLAS,18612
PA Pre-K Counts,Luzerne,SAEED FAMILY CORPORATION,OLIVE BRANCHBP INC,LAKE LEHMAN SCHOOL,1237 MARKET ST,DALLAS,18612
PA Pre-K Counts,Sullivan,WYALUSING VALLEY CHILDRENS CENTER INC,,SULLIVAN COUNTY PRE K,11026 ROUTE 220,DUSHORE,18614
PA Pre-K Counts,Wyoming,HANDS OF WYOMING COUNTY,,MEHOOPANY NURSERY SCHOOL,1687 SCOTTSVILLE RD,MEHOOPANY,18629
PA Pre-K Counts,Luzerne,GREATER NANTICOKE AREA SCHOOL DISTRICT,,GREATER NANTICOKE AREA FAMILY CENTER,427 KOSCIUSZKO ST,NANTICOKE,18634
PA Pre-K Counts,Luzerne,LUZERNE COUNTY HEAD START INC,,LCCC CENTER,1333 S PROPSECT ST,NANTICOKE,18634
PA Pre-K Counts,Luzerne,LUZERNE COUNTY HEAD START INC,,PITTSTON NEW STREET CENTER,109 NEW ST,PITTSTON,18640
PA Pre-K Counts,Luzerne,ABC Kiddie Kampus Inc,,ABC Kiddie Kampus - Pittston,3 Mill St,Pittston,18640
PA Pre-K Counts,Luzerne,ABC Kiddie Kampus Inc,,ABC Kiddie Kampus- Main Street,127 N Main St Suite 1,Pittston,18640
PA Pre-K Counts,Luzerne,CHILD DEVELOPMENT COUNCIL OF NEPA INC,,WEST PITTSTON CHILD DEVELOPMENT CENTER,827 EXETER AVE,EXETER,18643
PA Pre-K Counts,Luzerne,ABC Kiddie Kampus Inc,,ABC Kiddie Kampus - Exeter,1069 Wyoming Ave,Exeter,18643
PA Pre-K Counts,Luzerne,NORTHWEST AREA SCHOOL DISTRICT,,NORTHWEST AREA PRIMARY SCHOOL,417 SHICKSHINNY LAKE RD,SHICKSHINNY,18655
PA Pre-K Counts,Wyoming,HANDS OF WYOMING COUNTY,CHILD DEVELOPMENT COUNCIL OF NEPA INC,TUNKHANNOCK CHILD DEVELOPMENT CENTER,20 2ND ST,TUNKHANNOCK,18657
PA Pre-K Counts,Luzerne,GREATER WYOMING VALLEY AREA YMCA,,WILKES-BARRE FAMILY YMCA EARLY LEARNING CENTER,40 W NORTHAMPTON ST,WILKES BARRE,18701
PA Pre-K Counts,Luzerne,ABC Kiddie Kampus Inc,,ABC Kiddie Kampus - East Mountain,1150 E Mountain Dr,WILKES BARRE,18702
PA Pre-K Counts,Luzerne,LUZERNE COUNTY HEAD START INC,,BEEKMAN STREET CENTER,23 BEEKMAN ST,WILKES BARRE,18702
PA Pre-K Counts,Luzerne,LUZERNE COUNTY HEAD START INC,,DODSON ELEMENTARY,80 JONES ST,WILKES BARRE,18702
PA Pre-K Counts,Luzerne,LUZERNE COUNTY HEAD START INC,,HEIGHTS ELEMENTARY,1 S SHERMAN ST,WILKES BARRE,18702
PA Pre-K Counts,Luzerne,HAZELTON AREA SCHOOL DISTRICT,CHILD DEVELOPMENT COUNCIL OF NEPA INC,KIDDIE SPACE,145 AMBER LN,WILKES BARRE,18702
PA Pre-K Counts,Luzerne,CHILD DEVELOPMENT COUNCIL OF NEPA INC,,KIDDIE SPACE,145 AMBER LN,WILKES BARRE,18702
PA Pre-K Counts,Luzerne,LITTLE PEOPLE DAY CARE SCHOOL INC,LITTLE PEOPLE DAY CARE SCHOOL SOUTH INC,LITTLE PEOPLE DAY CARE SCHOOL SOUTH INC,280 HANOVER ST,WILKES BARRE,18702
PA Pre-K Counts,Luzerne,LUZERNE COUNTY HEAD START INC,,PLAINS CENTER,100 2ND ST,WILKES BARRE,18702
PA Pre-K Counts,Luzerne,CHILD DEVELOPMENT COUNCIL OF NEPA INC,,WILKES-BARRE CHILD DEVELOPMENT CENTER,161 E MARKET ST,WILKES BARRE,18702
PA Pre-K Counts,Luzerne,BLOOM EARLY EDUCATION CENTERS INC,,BLOOM EARLY EDUCATION CENTERS INC,135 OWEN ST,KINGSTON,18704
PA Pre-K Counts,Luzerne,BLOOM EARLY EDUCATION CENTERS INC,,BLOOM EARLY EDUCATION CENTERS INC EDWARDSVILLE,68 ZERBY AVE # 70,KINGSTON,18704
PA Pre-K Counts,Luzerne,SAEED FAMILY CORPORATION,OLIVE BRANCHBP INC,BUILDING BLOCKS AEP-WSCTC,75 EVANS ST,KINGSTON,18704
PA Pre-K Counts,Luzerne,GREATER WYOMING VALLEY AREA YMCA,,CHARLOTTE L CASTERLINE M D EARLY LEARNING CENTER,915 WYOMING AVE,KINGSTON,18704
PA Pre-K Counts,Luzerne,LUZERNE COUNTY HEAD START INC,,CHURCH OF CHRIST UNITING,190 S SPRAGUE AVE,KINGSTON,18704
PA Pre-K Counts,Luzerne,LITTLE PEOPLE DAY CARE SCHOOL INC,,LITTLE PEOPLE DAY CARE SCHOOL,154 3RD AVE,KINGSTON,18704
PA Pre-K Counts,Luzerne,CHILD DEVELOPMENT COUNCIL OF NEPA INC,,NESBITT CHILD DEVELOPMENT CENTER,DORRANCETON METHODIST,KINGSTON,18704
PA Pre-K Counts,Luzerne,SAEED FAMILY CORPORATION,OLIVE BRANCHBP INC,BUILDING BLOCKS AFTER SCHOOL EP SOLOMON ELEM,41 ABBOTT ST,PLAINS,18705
PA Pre-K Counts,Luzerne,SAEED FAMILY CORPORATION,,BUILDING BLOCKS LEARNING CENTER,1082 RR 315 N,PLAINS,18705
PA Pre-K Counts,Luzerne,LUZERNE INTERMEDIATE UNIT,HANOVER AREA SCHOOL DISTRICT,LYNDWOOD ELEMENTARY SCHOOL,2 COLLEY ST,HANOVER TOWNSHIP,18706
PA Pre-K Counts,Luzerne,CHILD DEVELOPMENT COUNCIL OF NEPA INC,,SOUTH WILKES-BARRE CHILD DEVELOPMENT CEN,1000 S MAIN ST,HANOVER TOWNSHIP,18706
PA Pre-K Counts,Luzerne,SAEED FAMILY CORPORATION,,BUILDING BLOCKS LEARNING CENTER,447 S MOUNTAIN BLVD,MOUNTAIN TOP,18707
PA Pre-K Counts,Luzerne,LUZERNE COUNTY HEAD START INC,,FAIRVIEW ELEMENTARY SCHOOL,117 SPRUCE ST,MOUNTAIN TOP,18707
PA Pre-K Counts,Susquehanna,NORTHEASTERN CHILD CARE SERVICES,,TREASURE HOUSE CHILD DEVELOPMENT CENTER,264 S MAIN ST,MONTROSE,18801
PA Pre-K Counts,Bradford,BRADFORD TIOGA HEAD START INC.,,ATHENS HEAD START,116 WALNUT ST,ATHENS,18810
PA Pre-K Counts,Bradford,BRADFORD TIOGA HEAD START INC.,,ATHENS LYNCH,253 PENNSYLVANIA AVE,ATHENS,18810
PA Pre-K Counts,Bradford,DISCOVER THE WORLD CHILDRENS CENTER INC,,DISCOVER THE WORLD CHILDRENS CENTER INC,205 N MAIN ST,ATHENS,18810
PA Pre-K Counts,Bradford,BRADFORD TIOGA HEAD START INC.,,ATHENS SRU,3 CHURCH ST,EAST SMITHFIELD,18817
PA Pre-K Counts,Susquehanna,MT VIEW SCHOOL DISTRICT,,MOUNTAIN VIEW SD,RR 1,KINGSLEY,18826
PA Pre-K Counts,Susquehanna,ENDLESS MOUNTAIN LEARNING CENTER INC,,ENDLESS MOUNTAIN LEARNING CENTER INC,117 JACKSON ST,NEW MILFORD,18834
PA Pre-K Counts,Bradford,TOWANDA AREA SCHOOL DISTRICT,,J ANDREW MORROW PRIMARY SCHOOL,101 N 4TH ST,TOWANDA,18848
PA Pre-K Counts,Bradford,MOPPETS ON MULBERRY LLC,,MOPPETS ON MULBERRY CHILD ENRICHMENT CENTER,35 FOX CHASE DR,TOWANDA,18848
PA Pre-K Counts,Bradford,BRADFORD TIOGA HEAD START INC.,,TOWANDA,382 REUTER BLVD,TOWANDA,18848
PA Pre-K Counts,Bradford,WYALUSING VALLEY CHILDRENS CENTER INC,,WYSOX CHILDRENS CENTER,866 GOLDEN MILE RD,TOWANDA,18848
PA Pre-K Counts,Bradford,BRADFORD TIOGA HEAD START INC.,,WYALUSING HEAD START/ PRE-K,11450 WYALUSING NEW ALBANY,WYALUSING,18853
PA Pre-K Counts,Bradford,WYALUSING VALLEY CHILDRENS CENTER INC,,WYALUSING VALLEY CHILDRENS CENTER INC,42932 ROUTE 6,WYALUSING,18853
PA Pre-K Counts,Bucks,UNITED WAY OF BUCKS COUNTY,A CHILDS WORLD DEVELOPMENTAL CENTERS I,A CHILDS WORLD,2001 S EASTON RD,DOYLESTOWN,18901
PA Pre-K Counts,Bucks,UNITED WAY OF BUCKS COUNTY,LIFESPAN DAY CARE,LIFESPAN DAYCARE AT DURHAM NOCKAMIXON,41 THOMAS FREE DR,KINTNERSVILLE,18930
PA Pre-K Counts,Bucks,UNITED WAY OF BUCKS COUNTY,CHILDRENS DEVELOPMENT PROGRAM INC,CHILDRENS DEVELOPMENTAL PROGRAM INC,995 DOYLESTOWN PIKE,QUAKERTOWN,18951
PA Pre-K Counts,Bucks,UNITED WAY OF BUCKS COUNTY,LIFESPAN DAY CARE,LIFE SPAN DAY CARE,500 FAIRVIEW AVE,QUAKERTOWN,18951
PA Pre-K Counts,Bucks,UNITED WAY OF BUCKS COUNTY,LIFESPAN DAY CARE,LIFESPAN AT NEIDIG ELEMENTARY,201 N PENROSE ST,QUAKERTOWN,18951
PA Pre-K Counts,Bucks,UNITED WAY OF BUCKS COUNTY,LIFESPAN DAY CARE,LIFESPAN SCHOOL,2460 JOHN FRIES HWY,QUAKERTOWN,18951
PA Pre-K Counts,Bucks,UNITED WAY OF BUCKS COUNTY,YMCA OF BUCKS COUNTY,UPPER BUCKS YMCA,401 FAIRVIEW AVE,QUAKERTOWN,18951
PA Pre-K Counts,Bucks,BUCKS COUNTY INTERMEDIATE UNIT 22,,SELLERSVILLE ELEMENTARY SCHOOL,122 W RIDGE AVE,SELLERSVILLE,18960
PA Pre-K Counts,Montgomery,MONTGOMERY CNTY PRINCIPALS & INTERMEDIATE UNIT 23,,DOCK MENNONITE ACADEMY,420 GODSHALL RD,SOUDERTON,18964
PA Pre-K Counts,Montgomery,MONTGOMERY CNTY PRINCIPALS & INTERMEDIATE UNIT 23,,SOUDERTON MENNONITE CHURCH,105 W CHESTNUT ST,SOUDERTON,18964
PA Pre-K Counts,Bucks,UNITED WAY OF BUCKS COUNTY,JOLLY TODDLERS II INC,JOLLY TODDLERS,275 2ND STREET PIKE,SOUTHAMPTON,18966
PA Pre-K Counts,Bucks,UNITED WAY OF BUCKS COUNTY,TOTAL CHILDCARE SOLUTION INC,RIGHT STEPS OF CHURCHVILLE,48 CHURCHVILLE LN,SOUTHAMPTON,18966
PA Pre-K Counts,Bucks,UNITED WAY OF BUCKS COUNTY,GRACE NEIGHBORHOOD DEVELOPMENT CORP,TRINITY CHRISTIAN ACADEMY,1400 BUCK RD,SOUTHAMPTON,18966
PA Pre-K Counts,Bucks,BUCKS COUNTY INTERMEDIATE UNIT 22,,UPPER COUNTY EARLY LEARNING CENTER,4030 BETHLEHEM PIKE,TELFORD,18969
PA Pre-K Counts,Bucks,BUCKS COUNTY INTERMEDIATE UNIT 22,,BUCKS IU WARMINSTER HEAD START CENTER,1401 MEETINGHOUSE RD,WARMINSTER,18974
PA Pre-K Counts,Montgomery,MONTGOMERY CNTY PRINCIPALS & INTERMEDIATE UNIT 23,,ABINGTON ADMINISTRATION BUILDING,970 HIGHLAND AVE,ABINGTON,19001
PA Pre-K Counts,Bucks,UNITED WAY OF BUCKS COUNTY,CHILDREN OF GOD EDUCATIONAL SERVICES LLC,CHILDREN OF GOD EDUCATIONAL SERVICES LLC,414 MILL ST,BRISTOL,19007
PA Pre-K Counts,Bucks,UNITED WAY OF BUCKS COUNTY,EARLY CHILDHOOD EDUCATORS OF PA,EARLY CHILDHOOD EDUCATORS OF PA,1200 VETERANS HWY,BRISTOL,19007
PA Pre-K Counts,Bucks,BRISTOL TOWNSHIP SCHOOL DISTRICT,RADCLIFFE LEARNING CENTER INC,RADCLIFFE LEARNING CENTER,1101 RADCLIFFE ST,BRISTOL,19007
PA Pre-K Counts,Bucks,REFUGE FOR THE PERISHING HOLY TEMPLE,,REFUGE CHILDCARE ACADEMY,1230 PLYMOUTH AVE,BRISTOL,19007
PA Pre-K Counts,Bucks,BUCKS COUNTY INTERMEDIATE UNIT 22,,SNYDER GIROTTI ELEMENTARY SCHOOL,450 BEAVER ST,BRISTOL,19007
PA Pre-K Counts,Delaware,CHESTER UPLAND SCHOOL DIST,,CHESTER UPLAND SCHOOL OF THE ARTS,501 W 9TH ST,CHESTER,19013
PA Pre-K Counts,Delaware,CHESTER UPLAND SCHOOL DIST,,EDGMONT SCHOLARS ACADEMY,1450 EDGMONT AVE,CHESTER,19013
PA Pre-K Counts,Delaware,CHESTER UPLAND SCHOOL DIST,,STETSER ELEMENTARY,808 E 17TH ST,CHESTER,19013
PA Pre-K Counts,Delaware,EDUCATION INSTITUTE FOR EARLY INTERVENTION,MICHELLE STEVENS,STEVENS GROUP CHILD CARE HOME,2833 W 10TH ST,CHESTER,19013
PA Pre-K Counts,Delaware,WIDENER UNIVERSITY INC,,WIDENER CHILD DEVELOPMENT CENTER,1800 WALNUT ST,CHESTER,19013
PA Pre-K Counts,Delaware,DELAWARE COUNTY INTERMEDIATE UNIT,,ASTON TECHNICAL HIGH SCHOOL,100 CROZERVILLE RD,ASTON,19014
PA Pre-K Counts,Delaware,CHESTER UPLAND SCHOOL DIST,,MAIN STREET ELEMENTARY,704 MAIN ST,UPLAND,19015
PA Pre-K Counts,Delaware,TODAYS CHILD LEARNING CENTER INC,,TODAYS CHILD AT CLIFTON HEIGHTS,301 E BERKLEY AVE,CLIFTON HEIGHTS,19018
PA Pre-K Counts,Bucks,BUCKS COUNTY INTERMEDIATE UNIT 22,,BENJAMIN RUSH ELEMENTARY SCHOOL,3400 HULMEVILLE RD,BENSALEM,19020
PA Pre-K Counts,Bucks,UNITED WAY OF BUCKS COUNTY,MCC BRIGHT BEGINNERS INC,BRIGHT BEGINNERS INC,800 CLARMONT AVE,BENSALEM,19020
PA Pre-K Counts,Bucks,BUCKS COUNTY INTERMEDIATE UNIT 22,,SAMUEL K FAUST ELEMENTARY SCHOOL,2901 BELLVIEW DR,BENSALEM,19020
PA Pre-K Counts,Bucks,BRISTOL TOWNSHIP SCHOOL DISTRICT,LITTLE JEMS CHILDRENS CENTER INC,LITTLE JEMS CHILDRENS CENTER,1305 STATE RD,CROYDON,19021
PA Pre-K Counts,Delaware,EDUCATION INSTITUTE FOR EARLY INTERVENTION,CHANGING LANES LEARNING CTR INC,CHANGING LANES LEARNING CTR INC,1200 CLIFTON AVE,DARBY,19023
PA Pre-K Counts,Delaware,TODAYS CHILD LEARNING CENTER INC,,TODAYS CHILD LEARNING CENTER,328 MAIN ST,DARBY,19023
PA Pre-K Counts,Delaware,DELAWARE COUNTY INTERMEDIATE UNIT,,WALNUT STREET ELEMENTARY SCHOOL,224 S 6TH ST,DARBY,19023
PA Pre-K Counts,Delaware,DELAWARE COUNTY INTERMEDIATE UNIT,DELCO CHILD DAY CARE ASSOCIATION,DELCO CHILD DAY CARE NO C,352 CHILDS AVE,DREXEL HILL,19026
PA Pre-K Counts,Delaware,DELAWARE COUNTY INTERMEDIATE UNIT,DELCO CHILD DAY CARE ASSOCIATION,DELCO EARLY LEARNING CENTERS,354 CHILDS AVE,DREXEL HILL,19026
PA Pre-K Counts,Delaware,DISCOVERY TREE LLC,,RISING STRIDE CHILD CARE CENTER OF DREXEL HILL,4814 DREXELBROOK DR,DREXEL HILL,19026
PA Pre-K Counts,Montgomery,FEDERATION DAYCARE SERVICES INC,,MARY BERT GUTMAN EARLY LEARNING CENTER,7500 WEST AVE,ELKINS PARK,19027
PA Pre-K Counts,Delaware,TODAYS CHILD LEARNING CENTER INC,GROW AND LEARN CENTERS INC,A CHILDS NEST,1600 DELMAR DR,FOLCROFT,19032
PA Pre-K Counts,Delaware,DELAWARE COUNTY INTERMEDIATE UNIT,,SOUTHEAST DELCO KINDERGARTEN CENTER,1 SCHOOL LN,GLENOLDEN,19036
PA Pre-K Counts,Montgomery,LEARN AND PLAY CENTERS INC,,PLAY AND LEARN,42 N YORK RD,HATBORO,19040
PA Pre-K Counts,Montgomery,LEARN AND PLAY CENTERS INC,,PLAY AND LEARN CENTER-HATBORO NORTH,32 N YORK RD,HATBORO,19040
PA Pre-K Counts,Delaware,DELAWARE COUNTY INTERMEDIATE UNIT,DELCO CHILD DAY CARE ASSOCIATION,DELCO CHILD DAY CARE ASSOCIATION-H,2810 GRAND AVE,HOLMES,19043
PA Pre-K Counts,Delaware,WIDENER UNIVERSITY INC,STEP BY STEP LEARNING CENTER INC,STEP BY STEP CHILD CARE & LEARNING CENTER,2234 MACDADE BLVD,HOLMES,19043
PA Pre-K Counts,Bucks,BRISTOL TOWNSHIP SCHOOL DISTRICT,A CHILDS WORLD DEVELOPMENTAL CENTERS I,A CHILDS WORLD DEVELOPMENTAL CENTERS,183 BRISTOL OXFORD VALLEY,LANGHORNE,19047
PA Pre-K Counts,Bucks,UNITED WAY OF BUCKS COUNTY,BABY GENIUS DAY CARE CENTER INC,BABY GENIUS DAY CARE CENTER,517 E LINCOLN HWY,LANGHORNE,19047
PA Pre-K Counts,Bucks,UNITED WAY OF BUCKS COUNTY,PENNDEL EARLY LEARNING CENTER INC,PENNDEL EARLY LEARNING CENTER,239 HIGHLAND AVE,LANGHORNE,19047
PA Pre-K Counts,Delaware,YOUTH ENRICHMENT PROGRAMS INC,,DISCOVERY PLACE PRESCHOOL FOR LITTLE PEOPLE,125 CHESTER AVE,LANSDOWNE,19050
PA Pre-K Counts,Delaware,EDUCATION INSTITUTE FOR EARLY INTERVENTION,ICU STEM ACADEMY,ICU STEM ACADEMY,252 MELROSE AVE,LANSDOWNE,19050
PA Pre-K Counts,Delaware,TODAYS CHILD LEARNING CENTER INC,,TODAYS CHILD LEARNING CENTER AT LANSDOWNE,19 W BALTIMORE AVE,LANSDOWNE,19050
PA Pre-K Counts,Bucks,NESHAMINY SCHOOL DISTRICT,BUCKS COUNTY INTERMEDIATE UNIT 22,LOWER SOUTHAMPTON EARLY LEARNING CENTER,7 SCHOOL LN,FEASTERVILLE TRE,19053
PA Pre-K Counts,Bucks,PENNSBURY SCHOOL DISTRICT,,MANOR ELEMENTARY,401 PENN VALLEY RD,LEVITTOWN,19054
PA Pre-K Counts,Bucks,PENNSBURY SCHOOL DISTRICT,,PENN VALLEY ELEMENTARY SCHOOL,180 NORTHTURN LN,LEVITTOWN,19054
PA Pre-K Counts,Bucks,PENNSBURY SCHOOL DISTRICT,,PENNSBURY SD - LAKESIDE,200 LAKESIDE DR,LEVITTOWN,19054
PA Pre-K Counts,Bucks,PENNSBURY SCHOOL DISTRICT,,VILLAGE PARK,75 UNITY DR,LEVITTOWN,19054
PA Pre-K Counts,Bucks,NESHAMINY SCHOOL DISTRICT,BUCKS COUNTY INTERMEDIATE UNIT 22,ALBERT SCHWEITZER ELEMENTARY SCHOOL,30 HARMONY RD,LEVITTOWN,19056
PA Pre-K Counts,Bucks,BUCKS COUNTY INTERMEDIATE UNIT 22,,MILL CREEK ELEMENTARY SCHOOL,6501 MILL CREEK RD,LEVITTOWN,19057
PA Pre-K Counts,Bucks,NESHAMINY SCHOOL DISTRICT,BUCKS COUNTY INTERMEDIATE UNIT 22,WALTER MILLER ELEMENTARY SCHOOL,10 COBALT RIDGE DR S,LEVITTOWN,19057
PA Pre-K Counts,Delaware,TODAYS CHILD LEARNING CENTER INC,LINWOOD HEIGHTS UNITED METHODIST CHURCH,SONRISE CHRISTIAN DAY SCHOOL,1627 CHICHESTER AVE,MARCUS HOOK,19061
PA Pre-K Counts,Delaware,DELAWARE COUNTY INTERMEDIATE UNIT,GREATER PHILADELPHIA YMCA,GPY ROCKY RUN EARLY LEARNING CENTER,1299 W BALTIMORE PIKE,MEDIA,19063
PA Pre-K Counts,Bucks,UNITED WAY OF BUCKS COUNTY,YMCA OF BUCKS COUNTY,MORRISVILLE BRANCH YMCA,200 N PENNSYLVANIA AVE,MORRISVILLE,19067
PA Pre-K Counts,Delaware,INTERBORO SCHOOL DISTRICT,,KINDERGARTEN ACADEMY,900 WASHINGTON AVE,PROSPECT PARK,19076
PA Pre-K Counts,Delaware,TODAYS CHILD LEARNING CENTER INC,,TODAYS CHILD LEARNING CENTER,235 SHARON AVE,SHARON HILL,19079
PA Pre-K Counts,Delaware,APPLE PIE DAY CARE INC,,APPLE PIE DAY CARE,3 S STATE RD,UPPER DARBY,19082
PA Pre-K Counts,Delaware,APPLE PIE DAY CARE INC,APPLE PIE LONG LANE INC,APPLE PIE LONG LANE,67 LONG LN,UPPER DARBY,19082
PA Pre-K Counts,Delaware,DISCOVERY TREE LLC,,RISING STRIDE CHILD CARE CENTER OF WOODLYN,1312 MACDADE BLVD,WOODLYN,19094
PA Pre-K Counts,Montgomery,MONTGOMERY CNTY PRINCIPALS & INTERMEDIATE UNIT 23,,WYNCOTE ELEMENTARY SCHOOL,333 RICES MILL RD,WYNCOTE,19095
PA Pre-K Counts,Philadelphia,EDUCATION INSTITUTE FOR EARLY INTERVENTION,A SPELLERS FAMILY DAY CARE LLC,A SPELLERS FAMILY DAY CARE,4220 OTTER ST,PHILADELPHIA,19104
PA Pre-K Counts,Philadelphia,SCHOOL DISTRICT OF PHILADELPHIA,BRIGHTSIDE ACADEMY PHILADELPHIA LLC,BRIGHTSIDE ACADEMY EARLY CARE & EDUCATION,4015 MARKET ST,PHILADELPHIA,19104
PA Pre-K Counts,Philadelphia,BRIGHTSIDE ACADEMY PHILADELPHIA LLC,,BRIGHTSIDE ACADEMY EARLY CARE EDUCATION,4047 LANCASTER AVE,PHILADELPHIA,19104
PA Pre-K Counts,Philadelphia,HEAVENLY DAYCARE AND LEARNING CENTER INC,DESTINYS CHILDREN EARLY LEARNING ACADEMY,DESTINYS CHILDREN EARLY LEARNING ACADEMY INC,3529 HAVERFORD AVE,PHILADELPHIA,19104
PA Pre-K Counts,Philadelphia,SCHOOL DISTRICT OF PHILADELPHIA,PARENT-INFANT CENTER INC,PARENT-INFANT CENTER,4205 SPRUCE ST,PHILADELPHIA,19104
PA Pre-K Counts,Philadelphia,SCHOOL DISTRICT OF PHILADELPHIA,SOUND START/UP START INC,SOUND START CHILD CARE CENTER,2970 MARKET ST,PHILADELPHIA,19104
PA Pre-K Counts,Philadelphia,EDUCATION INSTITUTE FOR EARLY INTERVENTION,TAYLORS LEARNING ACADEMY INC,TAYLORS LEARNING ACADEMY INC,631 HOLLY MALL,PHILADELPHIA,19104
PA Pre-K Counts,Philadelphia,SCHOOL DISTRICT OF PHILADELPHIA,WONDERSPRING,WONDERSPRING POWELTON VILLAGE,3939 WARREN ST,PHILADELPHIA,19104
PA Pre-K Counts,Philadelphia,EDUCATION INSTITUTE FOR EARLY INTERVENTION,XAVIERS FAMILY CHILDCARE LLC,XAVIERS FAMILY CHILDCARE LLC,436 N PRESTON ST,PHILADELPHIA,19104
PA Pre-K Counts,Philadelphia,SCHOOL DISTRICT OF PHILADELPHIA,CHILDRENS VILLAGE INC,CHILDRENS VILLAGE INC,125 N 8TH ST,PHILADELPHIA,19106
PA Pre-K Counts,Philadelphia,SCHOOL DISTRICT OF PHILADELPHIA,THE GREEN/BYRNE CHILD CARE CENTER INC,THE GREEN/BYRNE CHILD CARE CENTER,600 ARCH ST FL 1,PHILADELPHIA,19106
PA Pre-K Counts,Philadelphia,SCHOOL DISTRICT OF PHILADELPHIA,ANN KIDS INC,ANN KIDS PALMETTO,6200 PALMETTO ST,PHILADELPHIA,19111
PA Pre-K Counts,Philadelphia,SCHOOL DISTRICT OF PHILADELPHIA,KENCREST SERVICES,KEN-CREST N E CENTER,7200 RISING SUN AVE,PHILADELPHIA,19111
PA Pre-K Counts,Philadelphia,SCHOOL DISTRICT OF PHILADELPHIA,KINDER ACADEMY INC,KINDER ACADEMY,7332 ELGIN AVE,PHILADELPHIA,19111
PA Pre-K Counts,Philadelphia,SCHOOL DISTRICT OF PHILADELPHIA,GRACE NEIGHBORHOOD DEVELOPMENT CORP,SOANS CHRISTIAN ACADEMY,7912 DUNGAN RD,PHILADELPHIA,19111
PA Pre-K Counts,Philadelphia,SCHOOL DISTRICT OF PHILADELPHIA,TRINITY CHURCH OXFORD,TRINITY CHURCH OXFORD CHILD DEVELOPMENT CENTER,6901 RISING SUN AVE,PHILADELPHIA,19111
PA Pre-K Counts,Philadelphia,SCHOOL DISTRICT OF PHILADELPHIA,JUST CHILDEN N E INC,JUST CHILDREN N E,2901 GRANT AVE,PHILADELPHIA,19114
PA Pre-K Counts,Philadelphia,SCHOOL DISTRICT OF PHILADELPHIA,BAMBI DAY CARE INC,BAMBI DAY CARE,500 RED LION RD,PHILADELPHIA,19115
PA Pre-K Counts,Philadelphia,SCHOOL DISTRICT OF PHILADELPHIA,ANN KIDS INC,ANN KIDS CORP,10100 JAMISON AVE,PHILADELPHIA,19116
PA Pre-K Counts,Philadelphia,CONGREGATION BETH SOLOMON,,CONGREGATION BETH SOLOMON,198 TOMLINSON RD,PHILADELPHIA,19116
PA Pre-K Counts,Philadelphia,SCHOOL DISTRICT OF PHILADELPHIA,FEDERATION DAYCARE SERVICES INC,LASSIN EARLY LEARNING CENTER,10800 JAMISON AVE,PHILADELPHIA,19116
PA Pre-K Counts,Philadelphia,SCHOOL DISTRICT OF PHILADELPHIA,,WILLIAM H LOESCHE SCHOOL,595 TOMLINSON RD,PHILADELPHIA,19116
PA Pre-K Counts,Philadelphia,CHILDREN OF AMERICA,,CHILDREN OF AMERICA CHESTNUT HILL,8701 GERMANTOWN AVE,PHILADELPHIA,19118
PA Pre-K Counts,Philadelphia,AMAZING KIDZ ACADEMY LLC,,AMAZING KIDZ ACADEMY LLC RISING SUN,4719 RISING SUN AVE,PHILADELPHIA,19120
PA Pre-K Counts,Philadelphia,EDUCATION INSTITUTE FOR EARLY INTERVENTION,CHANGING THE WORLD FAMILY CHILD CARE LLC,CHANGING THE WORLD FAMILY CHILD CARE LLC,229 E WALNUT PARK DR,PHILADELPHIA,19120
PA Pre-K Counts,Philadelphia,HEAVENLY DAYCARE AND LEARNING CENTER INC,,HEAVENLY DAYCARE AND LEARNING CENTER INC,251 W DUNCANNON AVE,PHILADELPHIA,19120
PA Pre-K Counts,Philadelphia,SCHOOL DISTRICT OF PHILADELPHIA,,JAMES R LOWELL SCHOOL,450 W NEDRO AVE,PHILADELPHIA,19120
PA Pre-K Counts,Philadelphia,SCHOOL DISTRICT OF PHILADELPHIA,KENCREST SERVICES,KENCREST ADAMS PHILADELPHIA,575 ADAMS AVE,PHILADELPHIA,19120
PA Pre-K Counts,Philadelphia,SCHOOL DISTRICT OF PHILADELPHIA,KOREAN COMMUNITY DEVELOPMENT CENTER INC,RISING SUN CHILDRENS CENTER,5224 RISING SUN AVE,PHILADELPHIA,19120
PA Pre-K Counts,Philadelphia,ACELERO LEARNING CAMDEN PHILADELPHIA INC,,ACELERO LEARNING CAMDEN,1801 N 23RD ST,PHILADELPHIA,19121
PA Pre-K Counts,Philadelphia,BRIGHTSIDE ACADEMY PHILADELPHIA LLC,,BRIGHTSIDE ACADEMY,2010 N VAN PELT ST,PHILADELPHIA,19121
PA Pre-K Counts,Philadelphia,SCHOOL DISTRICT OF PHILADELPHIA,COMMUNITY CONCERN 13 MULTI-PURPOSE LRNG,COMMUNITY CONCERN 13-MARSTON STREET SITE,2721 CECIL B MOORE AVE,PHILADELPHIA,19121
PA Pre-K Counts,Philadelphia,SCHOOL DISTRICT OF PHILADELPHIA,GREATER PHILADELPHIA YMCA,GPY COLUMBIA NORTH EARLY LEARNING CENTER,1400 N BROAD ST,PHILADELPHIA,19121
PA Pre-K Counts,Philadelphia,EDUCATION INSTITUTE FOR EARLY INTERVENTION,MALAIKA FELTS,MALAIKA FELTS,2827 W SUSQUEHANNA AVE,PHILADELPHIA,19121
PA Pre-K Counts,Philadelphia,NORRIS SQUARE COMMUNITY ALLIANCE,,NORRIS SQUARE CHILDRENS CENTER,2011 N MASCHER ST,PHILADELPHIA,19122
PA Pre-K Counts,Philadelphia,SCHOOL DISTRICT OF PHILADELPHIA,CARING PEOPLE ALLIANCE,R W BROWN COMMUNITY CENTER,1701 N 8TH ST,PHILADELPHIA,19122
PA Pre-K Counts,Philadelphia,SCHOOL DISTRICT OF PHILADELPHIA,SOMERSET ACADEMY EARLY LEARNING CENTER,SOMERSET ACADEMY EARLY LEARNING CENTER,719 W GIRARD AVE,PHILADELPHIA,19123
PA Pre-K Counts,Philadelphia,SOMERSET ACADEMY EARLY LEARNING CENTER,,SOMERSET ACADEMY EARLY LEARNING CENTER,719 W GIRARD AVE,PHILADELPHIA,19123
PA Pre-K Counts,Philadelphia,AMAZING KIDZ ACADEMY LLC,,AMAZING KIDZ ACADEMY LLC CHELTENHAM,1301 E CHELTENHAM AVE,PHILADELPHIA,19124
PA Pre-K Counts,Philadelphia,BRIGHTSIDE ACADEMY PHILADELPHIA LLC,,BRIGHTSIDE ACADEMY EARLY CARE EDUCATION,1627 MEADOW ST,PHILADELPHIA,19124
PA Pre-K Counts,Philadelphia,SCHOOL DISTRICT OF PHILADELPHIA,GRACE NEIGHBORHOOD DEVELOPMENT CORP,GRACE NEIGHBORHOOD ACADEMY,5221 OXFORD AVE,PHILADELPHIA,19124
PA Pre-K Counts,Philadelphia,SCHOOL DISTRICT OF PHILADELPHIA,GRACE TRINITY UNITED CHURCH OF CHRIST,GRACE TRINITY ACADEMY,5200 OXFORD AVE,PHILADELPHIA,19124
PA Pre-K Counts,Philadelphia,SCHOOL DISTRICT OF PHILADELPHIA,OXFORD CIRCLE CCDA,OXFORD CIRCLE CCDA CHILDCARE CENTER,5600 LANGDON ST,PHILADELPHIA,19124
PA Pre-K Counts,Philadelphia,SCHOOL DISTRICT OF PHILADELPHIA,PRATT STREET LEARNING CENTER INC,PRATT STREET LEARNING CENTER,899 PRATT ST,PHILADELPHIA,19124
PA Pre-K Counts,Philadelphia,SCHOOL DISTRICT OF PHILADELPHIA,SPECIAL PEOPLE IN NORTHEAST INC,SPIN-FRANKFORD,1642 ORTHODOX ST,PHILADELPHIA,19124
PA Pre-K Counts,Philadelphia,SCHOOL DISTRICT OF PHILADELPHIA,BRIGHTSIDE ACADEMY PHILADELPHIA LLC,BRIGHTSIDE ACADEMY INC,2501 KENSINGTON AVE,PHILADELPHIA,19125
PA Pre-K Counts,Philadelphia,SCHOOL DISTRICT OF PHILADELPHIA,CORA SERVICES INC,CORA EARLY YEARS HUNTINGDON MILLS,2137 E HUNTINGDON ST,PHILADELPHIA,19125
PA Pre-K Counts,Philadelphia,SCHOOL DISTRICT OF PHILADELPHIA,,HACKETT SCHOOL,2161 E YORK ST,PHILADELPHIA,19125
PA Pre-K Counts,Philadelphia,SCHOOL DISTRICT OF PHILADELPHIA,KENCREST SERVICES,KEN CREST-LEHIGH,2600 B ST,PHILADELPHIA,19125
PA Pre-K Counts,Philadelphia,AMAZING KIDZ ACADEMY LLC,,AMAZING KIDZ ACADEMY LLC,7120 N BROAD ST,PHILADELPHIA,19126
PA Pre-K Counts,Philadelphia,MT AIRY CHRISTIAN DAY SCH,MT AIRY CHURCH OF PHILADELPHIA INC,MT AIRY CHRISTIAN DAY SCHOOL,6401 OGONTZ AVE,PHILADELPHIA,19126
PA Pre-K Counts,Philadelphia,SCHOOL DISTRICT OF PHILADELPHIA,ASPIRA COMMUNITY ENTERPRISES LLC,PEQUENOS PASOS DE ASPIRA,6350 N 2ND ST,PHILADELPHIA,19126
PA Pre-K Counts,Philadelphia,SCHOOL DISTRICT OF PHILADELPHIA,YOUR CHILDS WORLD LEARNING CENTER INC,YOUR CHILDS WORLD LEARNING CENTER INC,6801 N 16TH ST,PHILADELPHIA,19126
PA Pre-K Counts,Philadelphia,SCHOOL DISTRICT OF PHILADELPHIA,GREATER PHILADELPHIA YMCA,GPY ROXBOROUGH EARLY LEARNING CENTER,7219 RIDGE AVE,PHILADELPHIA,19128
PA Pre-K Counts,Philadelphia,SCHOOL DISTRICT OF PHILADELPHIA,,SHAWMONT SCHOOL,535 SHAWMONT AVE,PHILADELPHIA,19128
PA Pre-K Counts,Philadelphia,SCHOOL DISTRICT OF PHILADELPHIA,,MARTIN SCHOOL COMPREHENSIVE DAY CARE,22ND AND PARRISH STREETS,PHILADELPHIA,19130
PA Pre-K Counts,Philadelphia,SCHOOL DISTRICT OF PHILADELPHIA,YOUNG WORLD EARLY LEARNING CENTER INC,YOUNG WORLD EARLY LEARNING CENTER,1737 FAIRMOUNT AVE,PHILADELPHIA,19130
PA Pre-K Counts,Philadelphia,SCHOOL DISTRICT OF PHILADELPHIA,BRIGHTSIDE ACADEMY PHILADELPHIA LLC,BRIGHTSIDE ACADEMY EARLY CARE & EDUCATION,4829 LANCASTER AVE,PHILADELPHIA,19131
PA Pre-K Counts,Philadelphia,HEAVENLY DAYCARE AND LEARNING CENTER INC,,HEAVENLY DAYCARE AND LEARNING CENTER,5741 LANSDOWNE AVE,PHILADELPHIA,19131
PA Pre-K Counts,Philadelphia,BRIGHT MINDS BRIGHT BEGINNINGS,,BRIGHT MINDS BRIGHT BEGINNINGS,2220 N BROAD ST,PHILADELPHIA,19132
PA Pre-K Counts,Philadelphia,BRIGHTSIDE ACADEMY PHILADELPHIA LLC,,BRIGHTSIDE ACADEMY EARLY CARE EDUCATION,2300 W ALLEGHENY AVE,PHILADELPHIA,19132
PA Pre-K Counts,Philadelphia,BRIGHTSIDE ACADEMY PHILADELPHIA LLC,,BRIGHTSIDE ACADEMY EARLY EDUCATION,2700 N 17TH ST,PHILADELPHIA,19132
PA Pre-K Counts,Philadelphia,SCHOOL DISTRICT OF PHILADELPHIA,,ETHEL ALLEN COMP DAY CARE,3200 LEHIGH AVE,PHILADELPHIA,19132
PA Pre-K Counts,Philadelphia,SCHOOL DISTRICT OF PHILADELPHIA,TOTAL CHILD CARE SYSTEMS INC,PRODIGY LEARNING CENTER,3345 W HUNTING PARK AVE,PHILADELPHIA,19132
PA Pre-K Counts,Philadelphia,ACELERO LEARNING CAMDEN PHILADELPHIA INC,,ACELERO LEARNING CAMDEN PHILADELPHIA,2514 GERMANTOWN AVE,PHILADELPHIA,19133
PA Pre-K Counts,Philadelphia,SCHOOL DISTRICT OF PHILADELPHIA,ASOCIACION PUERTORRIQUENOS EN MARCHA INC,APM CHILD CARE CENTER,2318 N MARSHALL ST,PHILADELPHIA,19133
PA Pre-K Counts,Philadelphia,AMAZING KIDZ ACADEMY LLC,,AMAZING KIDZ ACADEMY LLC,700 E ERIE AVE,PHILADELPHIA,19134
PA Pre-K Counts,Philadelphia,EDUCATION INSTITUTE FOR EARLY INTERVENTION,CANDYS KIDS LEARNING ACADEMY LLC,CANDYS KIDS LEARNING ACADEMY LLC,2001 E TIOGA ST,PHILADELPHIA,19134
PA Pre-K Counts,Philadelphia,SCHOOL DISTRICT OF PHILADELPHIA,KENCREST SERVICES,KEN-CREST SERVICES-KENSINGTON CENTER,901 E ONTARIO ST,PHILADELPHIA,19134
PA Pre-K Counts,Philadelphia,EDUCATION INSTITUTE FOR EARLY INTERVENTION,BRIGHT LITTLE SCHOLARS LLC,BRIGHT LITTLE SCHOLARS LLC,5828 TORRESDALE AVE,PHILADELPHIA,19135
PA Pre-K Counts,Philadelphia,CREATIVE LEARNING ENVIRONMENTS,,CREATIVE LEARNING ENVIRONMENTS INC,4800 LONGSHORE AVE,PHILADELPHIA,19135
PA Pre-K Counts,Philadelphia,SCHOOL DISTRICT OF PHILADELPHIA,,LAWTON SCHOOL,6101 JACKSON ST,PHILADELPHIA,19135
PA Pre-K Counts,Philadelphia,SCHOOL DISTRICT OF PHILADELPHIA,GRACE NEIGHBORHOOD DEVELOPMENT CORP,ST STEPHENS DAY CARE CENTER AND AFTER SCHOOL PROGR,4201 PRINCETON AVE,PHILADELPHIA,19135
PA Pre-K Counts,Philadelphia,SCHOOL DISTRICT OF PHILADELPHIA,,FORREST SCHOOL,7300 COTTAGE ST,PHILADELPHIA,19136
PA Pre-K Counts,Philadelphia,SCHOOL DISTRICT OF PHILADELPHIA,,LINCOLN HIGH SCHOOL,3201 RYAN AVE,PHILADELPHIA,19136
PA Pre-K Counts,Philadelphia,OAK LANE SCHOOLS INCORPORATED,,EXCELSIOR SCHOOL OF PHILADELPHIA,2106 HAINES STREET,PHILADELPHIA,19138
PA Pre-K Counts,Philadelphia,EDUCATION INSTITUTE FOR EARLY INTERVENTION,WE CARE LEARNING AND DEVELOPMENT CENTER,WE CARE LEARNING AND DEVELOPMENT CENTER,6630 LIMEKILN PIKE,PHILADELPHIA,19138
PA Pre-K Counts,Philadelphia,EDUCATION INSTITUTE FOR EARLY INTERVENTION,DANA HUTCHINS,DIVINE LIGHT ACADEMIC PRESCHOOL,6162 SANSOM ST,PHILADELPHIA,19139
PA Pre-K Counts,Philadelphia,DREAMSCAPE EDUCATION LLC,,DREAMSCAPE EARLY CHILDHOOD EDUCATION CENTER,35 S 60TH ST,PHILADELPHIA,19139
PA Pre-K Counts,Philadelphia,SCHOOL DISTRICT OF PHILADELPHIA,,HAVERFORD CENTER,4601 HAVERFORD AVENUE,PHILADELPHIA,19139
PA Pre-K Counts,Philadelphia,KIDDIE PREP ACADEMY LLC,,KIDDIE PREP ACADEMY LLC,5843 MARKET ST,PHILADELPHIA,19139
PA Pre-K Counts,Philadelphia,KIDDIE PREP ACADEMY LLC,,KIDDIE PREP ACADEMY LLC,5851 MARKET ST,PHILADELPHIA,19139
PA Pre-K Counts,Philadelphia,EDUCATION INSTITUTE FOR EARLY INTERVENTION,LEARNING CENTRAL PRESCHOOL,LEARNING CENTRAL PRESCHOOL LOC,5727 WALNUT ST,PHILADELPHIA,19139
PA Pre-K Counts,Philadelphia,EDUCATION INSTITUTE FOR EARLY INTERVENTION,T Y L 11 INC,T Y L 11,5124 WALNUT ST,PHILADELPHIA,19139
PA Pre-K Counts,Philadelphia,SCHOOL DISTRICT OF PHILADELPHIA,WONDERSPRING,WONDERSPRING NEW MARKET WEST,5901 MARKET ST,PHILADELPHIA,19139
PA Pre-K Counts,Philadelphia,SCHOOL DISTRICT OF PHILADELPHIA,ASOCIACION PUERTORRIQUENOS EN MARCHA INC,ASOCIACION PUERTORRIQUENOS EN MARCHA,4221 N 2ND ST,PHILADELPHIA,19140
PA Pre-K Counts,Philadelphia,BRIGHTSIDE ACADEMY PHILADELPHIA LLC,,BRIGHTSIDE ACADEMY,543 W COURTLAND ST,PHILADELPHIA,19140
PA Pre-K Counts,Philadelphia,BRIGHTSIDE ACADEMY PHILADELPHIA LLC,,BRIGHTSIDE ACADEMY,111 W ERIE AVE,PHILADELPHIA,19140
PA Pre-K Counts,Philadelphia,SCHOOL DISTRICT OF PHILADELPHIA,BRIGHTSIDE ACADEMY PHILADELPHIA LLC,BRIGHTSIDE ACADEMY EARLY CARE AND EDUCATION,3230 N 3RD ST,PHILADELPHIA,19140
PA Pre-K Counts,Philadelphia,CATHOLIC SOCIAL SERVICES,,CASA DEL CARMEN FAMILY CENTER,4400 N 5TH ST,PHILADELPHIA,19140
PA Pre-K Counts,Philadelphia,SCHOOL DISTRICT OF PHILADELPHIA,,CLEVELAND SCHOOL COMPREHENSIVE DAYCARE,19TH AND ERIE AVE,PHILADELPHIA,19140
PA Pre-K Counts,Philadelphia,SCHOOL DISTRICT OF PHILADELPHIA,,EDISON HIGH SCHOOL,151 W LUZERNE ST,PHILADELPHIA,19140
PA Pre-K Counts,Philadelphia,SCHOOL DISTRICT OF PHILADELPHIA,KENCREST SERVICES,KENCREST NORTH PHILADELPHIA,3907 N BROAD ST # 11,PHILADELPHIA,19140
PA Pre-K Counts,Philadelphia,SCHOOL DISTRICT OF PHILADELPHIA,,MCCLURE SCHOOL,600 W HUNTING PARK AVE,PHILADELPHIA,19140
PA Pre-K Counts,Philadelphia,SCHOOL DISTRICT OF PHILADELPHIA,MERCY NEIGHBORHOOD MINISTRIES OF PHILADELPHIA INC,MERCY NEIGHBORHOOD MINISTRIES OF PHILA,1939 W VENANGO ST,PHILADELPHIA,19140
PA Pre-K Counts,Philadelphia,EDUCATION INSTITUTE FOR EARLY INTERVENTION,SUNBRIGHT CHILDCARE LLC,SUN BRIGHT CHILDCARE & LEARNING CENTER,3424 N 11TH ST,PHILADELPHIA,19140
PA Pre-K Counts,Philadelphia,SUNBRIGHT CHILDCARE LLC,,SUN BRIGHT CHILDCARE & LEARNING CENTER,3424 N 11TH ST,PHILADELPHIA,19140
PA Pre-K Counts,Philadelphia,SCHOOL DISTRICT OF PHILADELPHIA,THE PORTERS DAY CARE AND EDUCATION CTR,THE PORTERS DAY CARE AND EDUCATION CTR,1434 BELFIELD AVE # 38,PHILADELPHIA,19140
PA Pre-K Counts,Philadelphia,SCHOOL DISTRICT OF PHILADELPHIA,BRIGHTSIDE ACADEMY PHILADELPHIA LLC,BRIGHTSIDE ACADEMY EARLY CARE & EDUCATION,4920 N BROAD ST,PHILADELPHIA,19141
PA Pre-K Counts,Philadelphia,SCHOOL DISTRICT OF PHILADELPHIA,PRECIOUS ANGELS INC,PRECIOUS ANGELS COMMUNITY CENTER ANNEX,6050 N BROAD ST,PHILADELPHIA,19141
PA Pre-K Counts,Philadelphia,EDUCATION INSTITUTE FOR EARLY INTERVENTION,CHILDREN OF DESTINY LEARNING ACADEMY LLC,CHILDREN OF DESTINY LEARNING ACADEMY LLC,6300 CHELWYNDE AVE,PHILADELPHIA,19142
PA Pre-K Counts,Philadelphia,DREAMSCAPE EDUCATION LLC,LITTLE LEARNERS CHILDCARE CENTER LLC,ACADEMY OF INNOVATIONS,4700 KINGSESSING AVE,PHILADELPHIA,19143
PA Pre-K Counts,Philadelphia,SCHOOL DISTRICT OF PHILADELPHIA,,ADD B ANDERSON SCHOOL,1034 S 60TH ST,PHILADELPHIA,19143
PA Pre-K Counts,Philadelphia,SCHOOL DISTRICT OF PHILADELPHIA,BRIGHTSIDE ACADEMY PHILADELPHIA LLC,BRIGHTSIDE ACADEMY EARLY CARE & ED,5600 WOODLAND AVE # 14,PHILADELPHIA,19143
PA Pre-K Counts,Philadelphia,HEAVENLY DAYCARE AND LEARNING CENTER INC,D SHIELDS DBA GLAD CENTER,D SHIELDS DBA GLAD CENTER,5714 CHESTER AVE,PHILADELPHIA,19143
PA Pre-K Counts,Philadelphia,SCHOOL DISTRICT OF PHILADELPHIA,KENCREST SERVICES,KEN-CREST SERVICES-WEST PHILA,5900 ELMWOOD AVE,PHILADELPHIA,19143
PA Pre-K Counts,Philadelphia,EDUCATION INSTITUTE FOR EARLY INTERVENTION,TOTS YEARN TO LEARN LARCHWOOD,TOTS YEARN TO LEARN LARCHWOOD,6007 LARCHWOOD AVE,PHILADELPHIA,19143
PA Pre-K Counts,Philadelphia,SCHOOL DISTRICT OF PHILADELPHIA,CARING PEOPLE ALLIANCE,WEST PHILADELPHIA BOYS AND GIRLS CLUB,5843 CATHARINE ST,PHILADELPHIA,19143
PA Pre-K Counts,Philadelphia,EDUCATION INSTITUTE FOR EARLY INTERVENTION,GREATER PHILADELPHIA HEALTH ACTION INC,WOODLAND ACADEMY CHILD DEVELOPMENT CENTER,5401 GRAYS AVE,PHILADELPHIA,19143
PA Pre-K Counts,Philadelphia,BRIGHTSIDE ACADEMY PHILADELPHIA LLC,,BRIGHTSIDE ACADEMY EARLY CARE EDUCATION,138 W CHELTEN AVE # 48,PHILADELPHIA,19144
PA Pre-K Counts,Philadelphia,LEARNING MY WAY MONTESSORI LLC,,LEARNING MY WAY MONTESSORI,6341 GERMANTOWN AVE,PHILADELPHIA,19144
PA Pre-K Counts,Philadelphia,SCHOOL DISTRICT OF PHILADELPHIA,,WISTER SCHOOL,67 E BRINGHURST ST,PHILADELPHIA,19144
PA Pre-K Counts,Philadelphia,EDUCATION INSTITUTE FOR EARLY INTERVENTION,YA-YAS PLACE FAMILY DAYCARE LLC,YA-YAS PLACE FAMILY DAYCARE LLC,5717 GERMANTOWN AVE,PHILADELPHIA,19144
PA Pre-K Counts,Philadelphia,SCHOOL DISTRICT OF PHILADELPHIA,CHILDRENS PLAYHOUSE EARLY LEARNING,CHILDRENS PLAYHOUSE NEWBOLD,1426 W PASSYUNK AVE,PHILADELPHIA,19145
PA Pre-K Counts,Philadelphia,SCHOOL DISTRICT OF PHILADELPHIA,,E.M. STANTON SCHOOL,1700 CHRISTIAN ST,PHILADELPHIA,19146
PA Pre-K Counts,Philadelphia,SCHOOL DISTRICT OF PHILADELPHIA,GRAYS FERRY EARLY LEARNING ACADEMY LLC,GRAYS FERRY EARLY LEARNING ACADEMY,1325 S 33RD ST,PHILADELPHIA,19146
PA Pre-K Counts,Philadelphia,SCHOOL DISTRICT OF PHILADELPHIA,DIVERSIFIED COMMUNITY SERVICES,WESTERN COMMUNITY CENTER,1613 SOUTH ST # 21,PHILADELPHIA,19146
PA Pre-K Counts,Philadelphia,SCHOOL DISTRICT OF PHILADELPHIA,,NEBINGER COMPREHENSIVE DC,601 CARPENTER ST,PHILADELPHIA,19147
PA Pre-K Counts,Philadelphia,SCHOOL DISTRICT OF PHILADELPHIA,CHILDRENS PLAYHOUSE EARLY LEARNING,CHILDRENS PLAYHOUSE EARLY LEARNING,2501 S MARSHALL ST,PHILADELPHIA,19148
PA Pre-K Counts,Philadelphia,SCHOOL DISTRICT OF PHILADELPHIA,YOUTH ENRICHMENT PROGRAMS INC,DISCOVERY PLACE FOR LITTLE PEOPLE,2029 S 7TH ST # 37,PHILADELPHIA,19148
PA Pre-K Counts,Philadelphia,SCHOOL DISTRICT OF PHILADELPHIA,KENCREST SERVICES,KEN-CREST SERVICES-SOUTH CENTER,504 MORRIS ST,PHILADELPHIA,19148
PA Pre-K Counts,Philadelphia,LITTLE LEARNERS LITERACY ACADEMY,,LITTLE LEARNERS LITERACY ACADEMY,2501 S BROAD ST,PHILADELPHIA,19148
PA Pre-K Counts,Philadelphia,SCHOOL DISTRICT OF PHILADELPHIA,,SOLIS-COHEN SCHOOL,7001 HORROCKS ST,PHILADELPHIA,19149
PA Pre-K Counts,Philadelphia,SCHOOL DISTRICT OF PHILADELPHIA,YOUR CHILDS WORLD LEARNING CENTER INC,YOUR CHILDS WORLD LEARNING CENTER,6501 ROOSEVELT BLVD,PHILADELPHIA,19149
PA Pre-K Counts,Philadelphia,SCHOOL DISTRICT OF PHILADELPHIA,,EDMONDS SCHOOLCOMPREHENSIVE LEARNING CTR,8025 THOURON AVE,PHILADELPHIA,19150
PA Pre-K Counts,Philadelphia,SCHOOL DISTRICT OF PHILADELPHIA,,LAMBERTON SCHOOL,7501 WOODBINE AVE,PHILADELPHIA,19151
PA Pre-K Counts,Philadelphia,SCHOOL DISTRICT OF PHILADELPHIA,LITTLE PEOPLES VILLAGE II LLC,LITTLE PEOPLES VILLAGE II LLC,6522 HAVERFORD AVE # 42,PHILADELPHIA,19151
PA Pre-K Counts,Philadelphia,OVERBROOK LITTLE LEARNERS INC,,OVERBROOK LITTLE LEARNERS,1845 N 59TH ST,PHILADELPHIA,19151
PA Pre-K Counts,Philadelphia,EDUCATION INSTITUTE FOR EARLY INTERVENTION,PAST YOUR BEDTIME CHILDCARE CENTER LLC,PAST YOUR BEDTIME CHILDCARE CENTER LLC,2009 N 63RD ST # 11,PHILADELPHIA,19151
PA Pre-K Counts,Philadelphia,SCHOOL DISTRICT OF PHILADELPHIA,SCHOLARLY MINDS ACADEMY LLC,SCHOLARLY MINDS ACADEMY LLC,6004 MASTER ST,PHILADELPHIA,19151
PA Pre-K Counts,Philadelphia,SCHOOL DISTRICT OF PHILADELPHIA,A STEP AHEAD DAY CARE,A STEP AHEAD DAY CARE,7802 CASTOR AVENUE 1ST FLO,PHILADELPHIA,19152
PA Pre-K Counts,Philadelphia,SCHOOL DISTRICT OF PHILADELPHIA,KINDER ACADEMY INC,KINDER ACADEMY INC,7922 BUSTLETON AVE,PHILADELPHIA,19152
PA Pre-K Counts,Philadelphia,SCHOOL DISTRICT OF PHILADELPHIA,FEDERATION DAYCARE SERVICES INC,PALEY DAY CARE CENTER,2199 STRAHLE ST,PHILADELPHIA,19152
PA Pre-K Counts,Philadelphia,SCHOOL DISTRICT OF PHILADELPHIA,,RHAWN HURST SCHOOL C C,7809 CASTOR AVE,PHILADELPHIA,19152
PA Pre-K Counts,Philadelphia,EDUCATION INSTITUTE FOR EARLY INTERVENTION,CHILDREN OF DESTINY LEARNING CENTER LLC 1,CHILDREN OF DESTINY LEARNING CENTER LLC 1,7701 BUIST AVE,PHILADELPHIA,19153
PA Pre-K Counts,Philadelphia,SCHOOL DISTRICT OF PHILADELPHIA,,FITZPATRICK SCHOOL,11061 KNIGHTS RD,PHILADELPHIA,19154
PA Pre-K Counts,Philadelphia,SCHOOL DISTRICT OF PHILADELPHIA,GREATER PHILADELPHIA YMCA,GPY NORTHEAST EARLY LEARNING CENTER,11088 KNIGHTS RD,PHILADELPHIA,19154
PA Pre-K Counts,Philadelphia,GREATER PHILADELPHIA YMCA,,GPY NORTHEAST EARLY LEARNING CENTER,11088 KNIGHTS RD,PHILADELPHIA,19154
PA Pre-K Counts,Philadelphia,SCHOOL DISTRICT OF PHILADELPHIA,KINDER ACADEMY INC,KINDER ACADEMY INC 1,3001 BYBERRY RD,PHILADELPHIA,19154
PA Pre-K Counts,Philadelphia,SCHOOL DISTRICT OF PHILADELPHIA,SPECIAL PEOPLE IN NORTHEAST INC,SPIN 10541 EARLY CHILDHOOD EDUCATION CENTER,10541 DRUMMOND RD,PHILADELPHIA,19154
PA Pre-K Counts,Philadelphia,SPECIAL PEOPLE IN NORTHEAST INC,,UPS AND DOWNS DAY CARE,10521 DRUMMOND RD,PHILADELPHIA,19154
PA Pre-K Counts,Chester,BRIGHT BEGINNINGS EDUCATION CENTER INC,YMCA OF GREATER BRANDYWINE,OCTORARA YMCA AT OCTORARA ELEMENTARY,104 HIGHLAND RD STE 1,ATGLEN,19310
PA Pre-K Counts,Chester,CHESTER COUNTY INTERMEDIATE UNIT,,HEAD START - COATESVILLE,351 KERSEY ST,COATESVILLE,19320
PA Pre-K Counts,Chester,WARWICK CHILD CARE CENTER INC,,WARWICK CHILD CARE,40 S VILLAGE AVE,EXTON,19341
PA Pre-K Counts,Delaware,AARDVARK CHILD CARE & LEARNING CTR INC,,AARDVARK CHILD CARE & LEARNING CTR,335 CHEYNEY RD,GLEN MILLS,19342
PA Pre-K Counts,Chester,BERKS COMMUNITY ACTION PROGRAM,DW DAYCARE LLC,LITTLE MATES AT TEL HAI,1143 BEAVER DAM RD,HONEY BROOK,19344
PA Pre-K Counts,Chester,BERKS COMMUNITY ACTION PROGRAM,DW DAYCARE LLC,LITTLE MATES PRE K ACADEMY,4331 HORSESHOE PIKE,HONEY BROOK,19344
PA Pre-K Counts,Chester,PATHSTONE CORPORATION,,CHESTER COUNTY FAMILY DEVELOPMENT CENTER,421 MCFARLAN RD,KENNETT SQUARE,19348
PA Pre-K Counts,Chester,WARWICK CHILD CARE CENTER INC,,WARWICK CHILD CARE CENTER,11 CHURCH RD,MALVERN,19355
PA Pre-K Counts,Chester,BRIGHT BEGINNINGS EDUCATION CENTER INC,BRIGHT BEGINNINGS CHILD CARE INC,BRIGHT BEGINNINGS CHILD CARE,15 S 2ND ST,OXFORD,19363
PA Pre-K Counts,Chester,BRIGHT BEGINNINGS EDUCATION CENTER INC,,BRIGHT BEGINNINGS EDUCATION CENTER INC,205 CHURCH RD,OXFORD,19363
PA Pre-K Counts,Chester,BRIGHT BEGINNINGS EDUCATION CENTER INC,,BRIGHT BEGINNINGS EDUCATION CENTER INC,2222 BALTIMORE PIKE,OXFORD,19363
PA Pre-K Counts,Chester,BRIGHT BEGINNINGS EDUCATION CENTER INC,,BRIGHT BEGINNINGS EDUCATION CENTER INC,536 HODGSON ST,OXFORD,19363
PA Pre-K Counts,Chester,KUEHG CORP,,KINDERCARE LEARNING CENTER 301055,3120 C G ZINN RD,THORNDALE,19372
PA Pre-K Counts,Chester,TREEHOUSE CHILDCARE SERVICES LLC,,THE CHILDRENS TREEHOUSE EARLY LRNG,102 HORSESHOE DR,THORNDALE,19372
PA Pre-K Counts,Chester,BRIGHT BEGINNINGS EDUCATION CENTER INC,,BRIGHT BEGINNINGS EDUCATION CENTER INC,1027 NEWARK RD,TOUGHKENAMON,19374
PA Pre-K Counts,Chester,CHESTER COUNTY INTERMEDIATE UNIT,,WEST CHESTER EDUCATION CENTER,540 E UNION ST,WEST CHESTER,19382
PA Pre-K Counts,Chester,BRIGHT BEGINNINGS EDUCATION CENTER INC,YMCA OF GREATER BRANDYWINE,JENNERSVILLE YMCA,880 W BALTIMORE PIKE,WEST GROVE,19390
PA Pre-K Counts,Chester,CHESTER COUNTY INTERMEDIATE UNIT,,TCHS - PENNOCK'S BRIDGE,280 PENNOCKS BRIDGE RD,WEST GROVE,19390
PA Pre-K Counts,Montgomery,MONTGOMERY CNTY PRINCIPALS & INTERMEDIATE UNIT 23,CALVARY BAPTIST CHURCH,CALVARY BAPTIST CHILDREN LEARNING CENTER,801 W MARSHALL ST,NORRISTOWN,19401
PA Pre-K Counts,Montgomery,CHESTER COUNTY INTERMEDIATE UNIT,CRAYON KIDS INC,CRAYON KIDS,800 W MARSHALL ST,NORRISTOWN,19401
PA Pre-K Counts,Montgomery,MONTGOMERY CNTY PRINCIPALS & INTERMEDIATE UNIT 23,MAGIC MEMORIES NORRISTOWN LLC,MAGIC MEMORIES NORRISTOWN,370 E AIRY ST,NORRISTOWN,19401
PA Pre-K Counts,Montgomery,LEARN AND PLAY CENTERS INC,,PLAY AND LEARN NORRISTOWN,1430 DEKALB ST,NORRISTOWN,19401
PA Pre-K Counts,Montgomery,MONTGOMERY CNTY PRINCIPALS & INTERMEDIATE UNIT 23,,MCIU EARLY LEARNING ACADEMY,1605 W MAIN ST,NORRISTOWN,19403
PA Pre-K Counts,Montgomery,MONTGOMERY CNTY PRINCIPALS & INTERMEDIATE UNIT 23,,BELMONT SCHOOL,200 ANDERSON RD,KING OF PRUSSIA,19406
PA Pre-K Counts,Montgomery,VICKI AND DUC CARE LLC,,MARGARET GEORGE SCHOOL AND CHILD CARE CENTER,491 ALLENDALE RD,KING OF PRUSSIA,19406
PA Pre-K Counts,Montgomery,MONTGOMERY CNTY PRINCIPALS & INTERMEDIATE UNIT 23,,ARROWHEAD ELEMENTARY SCHOOL,232 LEVEL RD,COLLEGEVILLE,19426
PA Pre-K Counts,Montgomery,LEARN AND PLAY CENTERS INC,,PLAY AND LEARN CENTER-COLLEGEVILLE,35 EVANSBURG RD STE 2,COLLEGEVILLE,19426
PA Pre-K Counts,Montgomery,MONTGOMERY CNTY PRINCIPALS & INTERMEDIATE UNIT 23,,BRIDLE PATH ELEMENTARY SCHOOL,200 BRIDLE PATH RD,LANSDALE,19446
PA Pre-K Counts,Montgomery,CHILDREN OF AMERICA,CHILDREN OF AMERICA LANSDALE LLC,CHILDREN OF AMERICA,581 S BROAD ST,LANSDALE,19446
PA Pre-K Counts,Montgomery,MONTGOMERY CNTY PRINCIPALS & INTERMEDIATE UNIT 23,,DOCK MENNONITE HIGH SCHOOL,1000 FORTY FOOT RD,LANSDALE,19446
PA Pre-K Counts,Montgomery,LEARN AND PLAY CENTERS INC,,PLAY AND LEARN-LANSDALE,800 S BROAD ST,LANSDALE,19446
PA Pre-K Counts,Montgomery,CHILDREN OF AMERICA,CHILDREN OF AMERICA NORTH WALES LLC,CHILDREN OF AMERICA NORTH WALES LLC,1200 WESH ROAD BUILDING Q,N WALES,19454
PA Pre-K Counts,Montgomery,MONTGOMERY CNTY PRINCIPALS & INTERMEDIATE UNIT 23,,MONTGOMERY ELEMENTARY SCHOOL,1221 STUMP RD,NORTH WALES,19454
PA Pre-K Counts,Chester,CHESTER COUNTY INTERMEDIATE UNIT,,BARKLEY ELEMENTARY,320 2ND AVE,PHOENIXVILLE,19460
PA Pre-K Counts,Chester,GREATER PHILADELPHIA YMCA,,GPY PHOENIXVILLE EARLY LEARNING CENTER,400 E POTHOUSE RD,PHOENIXVILLE,19460
PA Pre-K Counts,Chester,CHESTER COUNTY INTERMEDIATE UNIT,,TCHS PICKERING,1580 CHARLESTOWN RD,PHOENIXVILLE,19460
PA Pre-K Counts,Montgomery,POTTSTOWN SCHOOL DISTRICT,,ELIZABETH B BARTH ELEMENTARY,467 W WALNUT STREET,POTTSTOWN,19464
PA Pre-K Counts,Montgomery,POTTSTOWN SCHOOL DISTRICT,,FRANKLIN ELEMENTARY,970 N FRANKLIN ST,POTTSTOWN,19464
PA Pre-K Counts,Montgomery,POTTSTOWN SCHOOL DISTRICT,GREATER PHILADELPHIA YMCA,GPY POTTSTOWN EARLY LEARNING CENTER,1000 HERITAGE DR,POTTSTOWN,19464
PA Pre-K Counts,Montgomery,GREATER PHILADELPHIA YMCA,,GPY POTTSTOWN EARLY LEARNING CENTER,1000 HERITAGE DR,POTTSTOWN,19464
PA Pre-K Counts,Montgomery,KUEHG CORP,,KINDERCARE LEARNING CENTER 3056,1550 INDUSTRIAL HWY,POTTSTOWN,19464
PA Pre-K Counts,Montgomery,POTTSTOWN SCHOOL DISTRICT,,LINCOLN ELEMENTARY,461 N YORK ST,POTTSTOWN,19464
PA Pre-K Counts,Montgomery,POTTSTOWN SCHOOL DISTRICT,,NORTH END EARLY LEARNING CENTER,940 N FRANKLIN ST,POTTSTOWN,19464
PA Pre-K Counts,Montgomery,POTTSTOWN SCHOOL DISTRICT,,POTTSTOWN SCHOOL DISTRICT PRE-K COUNTS,750 N WASHINGTON ST,POTTSTOWN,19464
PA Pre-K Counts,Montgomery,POTTSTOWN SCHOOL DISTRICT,,RUPERT ELEMENTARY,1230 SOUTH ST,POTTSTOWN,19464
PA Pre-K Counts,Montgomery,POTTSTOWN SCHOOL DISTRICT,WONDERSPRING,WONDERSPRING POTTSTOWN,150 N HANOVER ST,POTTSTOWN,19464
PA Pre-K Counts,Montgomery,YWCA TRI COUNTY AREA,,YWCA POTTSTOWN READY SET GROW,315 KING ST,POTTSTOWN,19464
PA Pre-K Counts,Montgomery,YWCA TRI COUNTY AREA,,YWCA TRI COUNTY AREA FBC,301 KING ST,POTTSTOWN,19464
PA Pre-K Counts,Chester,OWEN T ROBERTS SCHOOL DISTRICT,WARWICK CHILD CARE CENTER INC,WARWICK CHILD CARE,16 E CEDARVILLE RD,POTTSTOWN,19465
PA Pre-K Counts,Chester,WARWICK CHILD CARE CENTER INC,,WARWICK CHILD CARE,16 E CEDARVILLE RD,POTTSTOWN,19465
PA Pre-K Counts,Chester,OWEN T ROBERTS SCHOOL DISTRICT,WARWICK CHILD CARE CENTER INC,WARWICK CHILD CARE CENTER,1190 RIDGE RD,POTTSTOWN,19465
PA Pre-K Counts,Chester,WARWICK CHILD CARE CENTER INC,,WARWICK CHILD CARE CENTER,1190 RIDGE RD,POTTSTOWN,19465
PA Pre-K Counts,Chester,POTTSTOWN SCHOOL DISTRICT,WARWICK CHILD CARE CENTER INC,WARWICK DAY CARE CENTER,145 W URNER ST,POTTSTOWN,19465
PA Pre-K Counts,Chester,WARWICK CHILD CARE CENTER INC,,WARWICK DAY CARE CENTER,145 W URNER ST,POTTSTOWN,19465
PA Pre-K Counts,Montgomery,LEARN AND PLAY CENTERS INC,,PLAY AND LEARN ROYERSFORD,1600 BLACK ROCK RD,ROYERSFORD,19468
PA Pre-K Counts,Montgomery,MONTGOMERY CNTY PRINCIPALS & INTERMEDIATE UNIT 23,,PERKIOMEN VALLEY MS WEST,220 BIG RD,ZIEGLERVILLE,19492
PA Pre-K Counts,Lancaster,LANCASTER-LEBANON INTERMEDIATE UNIT 13,CAP OF LANCASTER COUNTY,ADAMSTOWN ELEMENTARY SCHOOL,256 W MAIN ST,ADAMSTOWN,19501
PA Pre-K Counts,Berks,BOYERTOWN AREA SCHOOL DISTRICT,,WASHINGTON ELEMENTARY,1406 ROUTE 100,BARTO,19504
PA Pre-K Counts,Berks,BERKS COMMUNITY ACTION PROGRAM,LIVE N LEARN SMILE CENTER INC,LIVE N LEARN SMILE CENTER,326 W MAIN ST,BIRDSBORO,19508
PA Pre-K Counts,Berks,BOYERTOWN AREA SCHOOL DISTRICT,,BOYERTOWN SENIOR HIGH,120 N MONROE ST,BOYERTOWN,19512
PA Pre-K Counts,Chester,CHESTER COUNTY INTERMEDIATE UNIT,THE WHOLE CHILD LEARNING CENTER INC,THE WHOLE CHILD LEARNING CENTER INC,55 N BRICK LN,ELVERSON,19520
PA Pre-K Counts,Berks,BERKS COMMUNITY ACTION PROGRAM,TOUCHING THE FUTURE LLC,TOUCHING THE FUTURE LLC,109 W VINE ST,FLEETWOOD,19522
PA Pre-K Counts,Berks,BERKS COUNTY INTERMEDIATE UNIT 14,TOUCHING THE FUTURE LLC,TOUCHING THE FUTURE LLC,109 W VINE ST,FLEETWOOD,19522
PA Pre-K Counts,Montgomery,GREATER PHILADELPHIA YMCA,,GPY GILBERTSVILLE EARLY LEARNING CENTER,144 HOLLY RD,GILBERTSVILLE,19525
PA Pre-K Counts,Berks,BERKS COUNTY INTERMEDIATE UNIT 14,,TILDEN ELEMENTARY,524 W STATE ST,HAMBURG,19526
PA Pre-K Counts,Berks,BERKS COMMUNITY ACTION PROGRAM,DW DAYCARE LLC,LITTLE MATES CHILD DEVELOPMENT CENTER,3025 NORTH ST,MORGANTOWN,19543
PA Pre-K Counts,Berks,OLEY VALLEY SCHOOL DISTRICT,,OLEY VALLEY ELEMENTARY SCHOOL,3257 FRIEDENSBURG RD,OLEY,19547
PA Pre-K Counts,Berks,BERKS COUNTY INTERMEDIATE UNIT 14,BRANDYWINE HEIGHTS AREA SCHOOL DISTRICT,BRANDYWINE HEIGHTS ELEMENTARY SCHOOL,445 W BARKLEY ST,TOPTON,19562
PA Pre-K Counts,Berks,BERKS COUNTY INTERMEDIATE UNIT 14,,BCIU LEARNING CENTER AT BETHANY CHILDRENS HOME,1863 BETHANY RD,WOMELSDORF,19567
PA Pre-K Counts,Berks,BERKS COUNTY INTERMEDIATE UNIT 14,READING SCHOOL DISTRICT,10TH & PENN ELEMENTARY SCHOOL,955 PENN ST,READING,19601
PA Pre-K Counts,Berks,BERKS COUNTY INTERMEDIATE UNIT 14,READING SCHOOL DISTRICT,GLENSIDE ELEMENTARY,400 LACKAWANNA ST,READING,19601
PA Pre-K Counts,Berks,BERKS COUNTY INTERMEDIATE UNIT 14,,ST. PAUL'S CHURCH,131 N 9TH ST,READING,19601
PA Pre-K Counts,Berks,OPPORTUNITY HOUSE,,THE SECOND STREET LEARNING CENTER,430 N 2ND ST,READING,19601
PA Pre-K Counts,Berks,YMCA OF READING AND BERKS COUNTY,,YMCA DAY CARE,631 WASHINGTON ST,READING,19601
PA Pre-K Counts,Berks,PATHSTONE CORPORATION,,BERKS COUNTY FAMILY DEVELOPMENT CENTER,121 S 2ND ST,READING,19602
PA Pre-K Counts,Berks,BERKS COMMUNITY ACTION PROGRAM,LIVE N LEARN STATION INC,LIVE N LEARN STATION,135 S 5TH ST,READING,19602
PA Pre-K Counts,Berks,BERKS COUNTY INTERMEDIATE UNIT 14,READING SCHOOL DISTRICT,TYSON-SCHOENER ELEMENTARY SCHOOL,315 S 5TH ST,READING,19602
PA Pre-K Counts,Berks,BERKS COUNTY INTERMEDIATE UNIT 14,,BCIU LEARNING CENTER AT MUHLENBERG ELEMENTARY CENT,610 SHARP AVE,READING,19605
PA Pre-K Counts,Berks,BERKS COUNTY INTERMEDIATE UNIT 14,,BCIU LEARNING CENTER AT THE EDUCATION CENTRE,2101 CENTRE AVE,READING,19605
PA Pre-K Counts,Berks,BERKS COUNTY INTERMEDIATE UNIT 14,THE JOURNEY FELLOWSHIP,CHILDRENS JOURNEY,600 ALTON AVE,READING,19605
PA Pre-K Counts,Berks,CALVARY CHURCH OF THE NAZARENE,,RIVERVIEW CHRISTIAN EARLY LEARNING CENTER,3301 STOUDTS FERRY BRIDGE,READING,19605
PA Pre-K Counts,Berks,BERKS COUNTY INTERMEDIATE UNIT 14,,BCIU LEARNING CENTER AT LOWER ALSACE,705 FRIEDENSBURG RD,READING,19606
PA Pre-K Counts,Berks,BERKS COUNTY INTERMEDIATE UNIT 14,,OWATIN CREEK ELEMENTARY,5000 BOYERTOWN PIKE,READING,19606
PA Pre-K Counts,Berks,GOVERNOR MIFFLIN SCHOOL DISTRICT,,GOVERNOR MIFFLIN SCHOOL DISTRICT,10 S WAVERLY ST,SHILLINGTON,19607
PA Pre-K Counts,Berks,WILSON SCHOOL DISTRICT,,WILSON SCHOOL DISTRICT CORNWALL TERRACE CENTER,3100 IROQUOIS AVE,READING,19608
PA Pre-K Counts,Berks,BERKS COUNTY INTERMEDIATE UNIT 14,,BCIU LEARNING CENTER AT WYOMISSING HILLS ELEM,110 WOODLAND RD,READING,19610
PA Pre-K Counts,Berks,WILSON SCHOOL DISTRICT,,WILSON SCHOOL DISTRICT CHILD CARE-BERKSHIRE HEIGHT,711 N WYOMISSING BLVD,READING,19610
